{"type":"Topology","arcs":[[[237040,258899],[-1456,7250],[1472,1507],[-54,5423],[4417,3145],[1764,1939]],[[243183,278163],[5646,2810],[2906,-750],[1864,-1898],[1531,1622]],[[255130,279947],[7657,-2024],[955,-4308],[-2418,-6661],[1664,-2756],[-149,-3569],[1116,-7801],[-1915,-7783],[-4980,-8765],[-715,-2882]],[[256345,233398],[-1404,755],[-2218,3015],[-1704,-20],[1946,4822],[-2055,976],[-5516,7477]],[[245394,250423],[-8354,8476]],[[243183,278163],[-245,4005],[-1495,2092],[-2758,-953],[-2113,795],[-2777,-696],[-1865,1657],[-2389,290],[-1267,-1404],[-4695,1794],[-1668,3607],[2260,1757],[4450,115],[5355,5441],[911,-788],[3358,2161],[2068,-1559]],[[240313,296477],[949,-1323],[685,-4409],[3078,-3472],[5625,-2306],[4038,-420],[-377,-3718],[819,-882]],[[203593,260913],[-3599,2203],[-3815,105],[-1984,2148],[46,2711]],[[194241,268080],[1481,4355],[1992,2162],[-794,2667],[2449,3298],[-123,1958],[1659,1656],[446,4197]],[[201351,288373],[-2744,1432],[-3370,3982],[-114,1931],[4103,856],[3307,-2398],[5035,2717],[8877,1357],[4820,1354],[4391,2044],[5831,1105],[3722,-1105],[950,893],[4620,-2502],[-466,-3562]],[[237040,258899],[-5207,5286],[-2866,126],[-3983,-1738],[-1446,3274],[-3346,2421],[-2418,4089],[-3013,941],[-2460,-870],[-2633,-2071],[-1720,-3411],[-2389,-6775],[-1966,742]],[[205426,306320],[0,1043]],[[205426,307363],[0,-1043]],[[194241,268080],[-3831,-1155],[-1699,718],[-5424,-226],[-4629,-3377],[-626,-1715],[-3461,-269],[-775,-2837],[4233,-342],[941,-1726],[-275,-2367],[-2694,-1640],[-2408,-372],[-1026,1667],[-2808,-1335],[-3362,3],[-546,2234]],[[165851,255341],[-5014,3318],[-2509,-1144],[-3190,376],[-2170,3278],[-2245,1022],[1434,3124],[-2991,78],[-4531,1729],[-1577,-166]],[[143058,266956],[1143,4982],[1264,2540],[2338,2351],[2985,1879],[3966,4800],[6285,2674],[12403,6348],[772,815],[3257,-87],[6317,1899],[4664,533],[2965,-484],[1190,-1588],[413,-2660],[4939,-2581],[3392,-4]],[[136619,296010],[5852,1598],[5662,2054],[2845,505],[678,-1934],[-4025,-1612],[-938,-1408],[-4578,-183],[-2730,-1841],[-4194,-1904],[-2443,246],[-2409,-985],[-2554,-2098],[-2001,1069],[2786,4395],[8049,2098]],[[167825,301402],[10914,901],[-329,-1375],[-3453,-464],[-5780,-1645],[-4972,586],[-4395,-2493],[-2226,1004],[-1131,2091],[2121,2725],[3152,-1420],[6099,90]],[[205426,306320],[-2106,-207],[-4954,-2705],[-5615,-560],[-2045,656],[1949,2650],[6414,418],[6357,791]],[[119732,282708],[-6021,-3113],[910,-1604],[-5195,-3993],[-2566,-66],[-1042,1023],[5549,3823],[1544,1510],[4992,3335],[1829,-915]],[[165851,255341],[-1215,-3521],[1104,-849],[-4150,-2833],[-1,-4952],[-2997,-216],[-165,-1583],[1608,-3709],[2481,1314],[4023,-1348],[5487,1698],[2781,-1531],[-1771,-2067],[-2444,-5939]],[[170592,229805],[-1657,-1213]],[[168935,228592],[-3151,3685],[-2400,-205]],[[163384,232072],[-3751,707],[-878,1768],[-4004,-1235],[-2703,-1873],[-4463,2058],[-4295,-114],[-4094,3975],[3159,2234],[11,3648],[682,3269],[-862,2655],[676,3289],[-625,3681],[-1486,4426],[1829,3022],[478,3374]],[[126626,249986],[-58,68]],[[126568,250054],[58,-68]],[[203593,260913],[-645,-1446],[4200,-1482],[-278,-3749],[4449,-6825],[-2230,-4369],[-1630,-1229]],[[207459,241813],[-2380,-1766],[-2092,2053],[-3098,248],[-3291,-4141],[-5824,-4127]],[[190774,234080],[-5934,-4417],[-3021,736],[-973,2239],[-2766,-787],[-464,-1310],[-3021,-2535],[-2717,551],[-1286,1248]],[[222492,221308],[-2036,1041],[550,2260],[-3606,-445],[-1478,956],[11,2475],[-2464,790],[1596,4074],[-1324,1764],[-2011,-311],[-782,3536],[-4086,1303],[597,3062]],[[245394,250423],[-6454,-1834],[-3345,-1770],[-4085,-975],[42,-4407],[696,-4041],[-484,-2777],[-3475,-6373],[-968,439],[-4829,-7377]],[[256345,233398],[-1356,-3135],[-693,-18201],[-861,-1603],[-4493,1406],[-2516,-989],[-2830,1446],[-5095,-518],[-3005,384],[-2377,-743],[-2129,-1996]],[[230990,209449],[-146,2338],[-5392,2222]],[[225452,214009],[-48,4792],[-2308,23],[-604,2484]],[[225452,214009],[-1013,478],[-4165,-1009],[-2572,-2161],[344,-3610],[-3697,1021],[-679,-1024],[-3230,613],[-2002,-453],[-865,2927],[-2610,1730],[-5055,1165],[-3416,1586],[-2545,-602],[-3003,7839],[2419,1406],[3002,3481],[-5591,6684]],[[209672,186876],[-3810,-448],[-2896,1124],[-979,2439],[-2843,928],[-6283,161],[-270,-2894],[-2032,-144]],[[190559,188042],[-732,3274],[-4910,4360],[-1387,-633],[-2825,-3095],[-2711,-290],[-2893,5008],[-1189,-73]],[[173912,196593],[-671,3720],[-962,1172],[-710,4136],[814,1229]],[[172383,206850],[4141,950],[1844,-467],[3778,1635],[1216,2454],[-4975,2643],[2119,2045],[-1553,2371],[-1435,4014],[-4889,3693],[-2089,-3],[-1605,2407]],[[230990,209449],[1195,-1399],[-523,-2949],[3297,-2731],[-2785,-248],[-612,-1496],[-2399,500],[1725,-3565],[-459,-3873]],[[230429,193688],[-1943,923],[-1831,-2649],[-9275,2031],[-118,-1033],[-3560,-1528],[-855,-2765],[-3175,-1791]],[[209364,166623],[-2126,-521],[-806,-1620],[-2778,-224],[-8995,512]],[[194659,164770],[-2951,2256],[447,1012],[-2001,4497],[-2085,2354],[807,5558],[2093,559],[807,2496],[-1107,895],[-110,3645]],[[209672,186876],[1003,-1375],[-1081,-4004],[-3065,-1124],[-625,-2080],[1564,-3663],[-1966,-1872],[183,-2288],[2873,-2310],[806,-1537]],[[235485,152883],[-3028,-120],[-3713,1264],[586,3890],[-1861,983],[-2234,-1278],[-1472,2104],[-2451,-583],[-5218,528],[-3459,4442],[-896,2117],[-2375,393]],[[230429,193688],[5301,-2871],[5405,119],[530,-918],[5464,-1659],[3479,3421],[1238,-4019],[1789,-2907],[1310,-149],[1212,-3118],[-950,-3842],[-1953,-5217],[110,-1559],[2415,-4757],[-2836,-1129],[-2076,143],[-2475,-5151],[-2716,-505],[-1964,-2385],[-523,-2859],[-1210,-1129],[-6494,-314]],[[171161,189071],[1047,1684],[1704,5838]],[[194659,164770],[1321,-2902],[-1977,-1212],[2423,-1721],[-1641,-1831],[-6204,-2089],[-1644,-2165],[-2891,-5667]],[[184046,147183],[-4401,390],[-3083,-3110],[-3398,151],[-2497,-3095],[-4669,-504],[-1420,-2117],[-719,-3610],[-3281,-1726]],[[160578,133562],[-1800,-1628],[-2307,553]],[[156471,132487],[1412,1573],[-893,3662],[-1501,1224],[-372,3332],[-1971,1948],[323,3273],[-1632,2168],[-1119,-2245],[-1800,-678]],[[148918,146744],[-726,2469],[815,4057],[-1717,3736],[-2263,812],[-31,3458],[-3155,2054],[699,2900]],[[142540,166230],[8499,1915],[2180,5364],[3482,3740],[250,1034],[8380,4737],[4879,4270],[951,1781]],[[195157,128046],[-5297,4148],[-106,3239],[4809,1519],[4,3648],[946,2850],[-4135,-367],[472,2981],[-1328,1652],[-2460,1091],[-2995,-2351],[-1021,727]],[[235485,152883],[-581,-3717],[-1048,-1226],[-2756,-575],[-438,-3354],[4491,-1191],[5129,-3783],[197,-3270],[-2026,-640],[-285,-2611],[-1607,-2156],[-3270,-2300],[-2054,2038],[-10293,-3746],[-4747,-3278],[-1494,1248],[-3445,434],[578,-1910],[-460,-2794],[-2706,909],[-1255,1668],[-2669,-241],[-415,1702],[-5897,289],[-2179,1630],[-1098,2037]],[[155949,119672],[-2045,5385],[12,2822],[9531,-932],[-87,1669],[-3140,2366],[358,2580]],[[195157,128046],[-2917,-328],[1344,-3160],[1562,-890],[-11,-2323],[-5257,1228],[-2421,11],[-4168,-2443],[-2181,644],[-1219,-1498],[2331,-2878],[856,-3456],[-2576,-2108]],[[180500,110845],[-2622,533],[-1501,2782],[-1777,-248],[-174,-2015]],[[174426,111897],[-6606,-608],[-1673,749],[-4157,3566],[-1520,355],[-1848,2746],[-2673,967]],[[132437,135545],[4230,-1769],[2085,1430],[2372,154],[3272,1555],[3859,67],[4544,-2918],[3672,-1577]],[[155949,119672],[-2791,-84],[-1197,-1246],[-3436,1582],[-1706,-2135],[-1787,-181],[-2348,1401],[-2510,-3618],[-1070,-3815]],[[139104,111576],[-4014,-2077],[-3473,-280],[-1691,1038],[-6400,-640]],[[123526,109617],[651,3928],[-2525,1589],[-2265,-787],[-1331,1996],[-3260,2584]],[[114796,118927],[1772,-255],[335,2484],[1478,3315],[4151,1853],[2543,5077]],[[125075,131401],[2102,3793],[2305,-782],[1161,1693],[1794,-560]],[[118091,157280],[-5242,-4798],[2384,-3795],[-1517,-5362],[804,-2059],[1710,457],[946,-2448],[1967,-1443],[-1591,-1470]],[[117552,136362],[-3223,-142],[-1543,-1780],[-1833,454],[-2201,-2438],[-2349,-472]],[[106403,131984],[-1179,3367],[-3877,5161],[1826,3961],[2574,1413],[-2779,1343],[-36,3611],[-2263,1718],[2745,2414],[2917,-615],[-51,1908],[-4090,5105],[-1258,2799]],[[100932,164169],[3935,1673]],[[104867,165842],[1142,1049],[2895,109],[3054,2831]],[[111958,169831],[4527,2665]],[[116485,172496],[1440,-2228],[-1024,-1688],[1206,-2644],[-847,-3756],[831,-4900]],[[129690,161518],[517,2334],[2932,6269],[2768,-476]],[[135907,169645],[3451,-845],[3182,-2570]],[[148918,146744],[-758,-1706],[-2522,-1437],[-709,3010],[-7273,1541]],[[137656,148152],[-670,1959],[-3973,2595],[-1436,5011],[-2135,683],[248,3118]],[[137656,148152],[-2842,257],[-3007,-3106],[1691,-4896],[-1209,-3176],[148,-1686]],[[125075,131401],[-4252,1891],[-3271,3070]],[[118091,157280],[5109,1662],[4908,-362],[1582,2938]],[[91576,223173],[1884,4998],[2338,9134],[357,5417],[1168,3360],[3223,255],[1532,-1294],[-706,-1927],[1026,-2621],[4379,-2776],[4510,1830],[1967,2873],[4695,272],[5066,-9769],[-697,-7939],[3459,-3691],[2516,1498],[4428,-173],[1645,-1242],[345,-3036],[1085,-1145],[-2267,-1913],[-1618,-223],[-724,-3153],[-2549,-2284],[-4780,-1841],[-3109,2501],[-4254,-1335],[37,-1974]],[[116532,206975],[-1010,-1635],[-3731,-240],[-1574,1320]],[[110217,206420],[-2860,695],[350,1404],[-1739,3419],[908,3326],[1557,2270],[-2754,1858],[-3624,-977],[-2077,715],[-449,-2487],[-2431,-586],[-2737,4455],[-2785,2661]],[[98559,260812],[5236,8025],[2560,1529],[2968,-5124],[-740,-6352],[-3384,-4924],[-1880,-545],[-3126,-3370],[-3826,-1339],[-479,3296],[422,3512],[2249,5292]],[[95029,247275],[-2693,-1497],[-472,1946],[3165,-449]],[[126626,249986],[-58,68]],[[134658,215645],[-13,-93]],[[134645,215552],[13,93]],[[110217,206420],[-1908,-628],[-2335,-3288],[-4807,245],[-814,-1813]],[[100353,200936],[-1975,654],[-818,1812],[-2944,25],[-1684,936],[-4183,-1490]],[[88749,202873],[2827,20300]],[[85227,187777],[351,3365],[1804,4376],[1367,7355]],[[100353,200936],[31,-4182]],[[100384,196754],[-4633,-2891],[-2750,-4174],[3254,-2491]],[[96255,187198],[-2780,-2201],[-2198,1745],[-2220,-367],[-3830,1402]],[[96255,187198],[1100,-245]],[[97355,186953],[-743,-3390],[1982,-461],[-96,-2097]],[[98498,181005],[-1669,966],[-3715,-984],[-345,-2933],[-2946,-1465],[-1280,-2639]],[[88543,173950],[-3282,-448],[-4732,2170]],[[80529,175672],[4106,9910],[592,2195]],[[109736,193441],[-3949,-2410],[-1365,-1791],[1331,-2488]],[[105753,186752],[-469,-1498],[-7929,1699]],[[100384,196754],[2894,2549],[1593,-1959],[5071,-1578],[-206,-2325]],[[115891,177111],[-3140,1156],[-1097,-1723],[-3725,-1777],[-5253,375]],[[102676,175142],[-4275,3488],[97,2375]],[[105753,186752],[4627,-2078],[1150,1101]],[[111530,185775],[3579,406],[4620,-1033]],[[119729,185148],[-2946,-3048],[-4357,-2771],[3465,-2218]],[[116127,174948],[358,-2452]],[[111958,169831],[-1745,3240],[3320,2622],[2594,-745]],[[115891,177111],[908,-732]],[[116799,176379],[-672,-1431]],[[104867,165842],[-3866,2149],[1989,3195],[-945,1769],[631,2187]],[[109736,193441],[1908,-431],[-114,-7235]],[[116532,206975],[742,-4979],[3680,-7126],[-3185,-4299],[688,-2856],[2232,-304],[-960,-2263]],[[100932,164169],[-4879,-1091],[82,1741],[-3683,-126],[-1790,-1121]],[[90662,163572],[-2859,-624],[-3042,507],[770,5515],[1385,1312],[1627,3668]],[[116799,176379],[3510,248],[4070,-1626],[2118,-2362],[5303,759],[2847,-1505],[1260,-2248]],[[90662,163572],[429,-2284],[-1340,-2203],[-2576,40],[-2312,-1764],[639,-2433],[-2404,-2588],[-389,-4262]],[[82709,148078],[-2617,1091]],[[80092,149169],[-1680,4359],[-2716,-3024],[-1808,1183],[2903,3677],[-4606,4682]],[[72185,160046],[4901,8514],[3443,7112]],[[78947,142694],[-1357,-1072],[92,-2198],[-3554,-3733]],[[74128,135691],[-2266,7200],[-3291,-2158],[-2161,763],[-1473,1873],[-1683,-1172],[-2447,1018],[-959,2293]],[[59848,145508],[4288,5157],[3100,2907],[4949,6474]],[[80092,149169],[-4936,-2985],[3791,-3490]],[[82709,148078],[1798,-2162]],[[84507,145916],[-3643,-3220],[-1917,-2]],[[54918,139604],[4930,5904]],[[74128,135691],[-3059,-774],[-4936,-4331],[-2368,866],[-2012,2177],[-5507,3803],[-1328,2172]],[[106403,131984],[-3145,111],[-1818,-1772],[-4301,-1854]],[[97139,128469],[150,2926],[-3367,-221],[-1470,1225],[852,3106],[3349,3206],[-1916,481],[-3635,-2817],[-2573,2587],[-1260,-1212]],[[87269,137750],[-2877,-476],[646,8342],[-531,300]],[[83952,120192],[-3726,629],[-6906,-336],[-2994,-1320],[-6424,-1744],[-1173,-1909]],[[62729,115512],[-6216,4242],[-2485,49],[-3667,2390],[-2323,5230],[1832,2891],[-1120,854],[-3794,-426],[2126,3415],[-470,2431],[2781,2409],[3212,-1121],[2313,1728]],[[87269,137750],[-1054,-2505],[4005,-5925],[-2876,-597],[1232,-1948]],[[88576,126775],[1843,-3576],[-3236,-2066]],[[87183,121133],[-1997,958],[-1234,-1899]],[[73431,105717],[-624,-527]],[[72807,105190],[-1497,-30],[-1185,-2499],[-5271,-1745],[-3305,816],[-847,1399],[-3548,1131],[-899,1480],[-3013,1306],[-4213,522],[-2121,4677],[95,2956],[-2048,2520],[-2692,159],[-3634,-1009],[-3853,-4076]],[[34776,112797],[-240,237]],[[34536,113034],[1875,3067],[-508,2831],[10074,4056],[1853,-2450],[2305,-1682],[7341,-4123],[1378,-404],[3666,-3414],[1952,-2470],[3837,-2221],[5122,-507]],[[83952,120192],[895,-1917],[2139,-745],[-1968,-2394],[79,-2372],[3784,-3931],[-219,-775]],[[88662,108058],[-6573,-2185],[-4241,1609],[-3487,466],[-4602,2785],[-5654,2056],[-1811,1113],[435,1610]],[[97139,128469],[-5135,-1735],[-3428,41]],[[92308,108413],[-2204,-641]],[[90104,107772],[-1442,286]],[[87183,121133],[2555,-1501],[3095,2524],[1678,-840],[2116,579],[4571,-40],[2403,1572],[649,-3135],[5296,753],[149,-1270]],[[109695,119775],[-2720,-1133],[-1922,-1688],[-5389,-705],[-1847,-1579],[-1304,-2878],[-4205,-3379]],[[114796,118927],[-5101,848]],[[35031,52374],[-2790,-410],[-2435,811],[502,4451],[-2731,1530],[-4297,849],[-7115,3328],[-5307,-1788],[763,-4550],[-5681,-387],[-2700,1773],[-1321,1854],[-646,3272],[-1273,1435],[1927,2083],[-1084,3994],[3901,2150],[8452,1475],[2808,-2042],[7035,-1989],[2743,-2556],[4297,-21],[3667,-1607],[1749,31],[3511,2662],[2608,722],[1428,4178],[2986,-556],[2321,-3929],[2528,-387],[3340,-2395],[2209,1014],[1354,2594],[1386,-72],[1976,-3001],[-4819,-5969],[-7715,-5470],[-3010,238],[-3987,-3179],[-5093,-1612],[-1487,1476]],[[61820,98688],[-2775,-1732],[-511,-2291],[2633,-3955],[378,-2118],[-1231,-4194],[3817,-8983],[-868,-969],[1043,-4493]],[[64306,69953],[-2500,-104],[-754,2203],[-2185,1353],[-3078,-1234],[-6561,2217],[-1042,1432],[-4877,4107],[-3777,-1908],[-1554,-5493],[-6170,-910],[-3947,3320],[-2346,1360],[-4131,3686],[-1948,-1855],[-4411,-10],[-2484,2130],[-2377,3926],[-4331,3814],[272,1540],[8435,5171],[1756,530],[2928,-884],[4063,1430],[43,2480],[2271,2066],[518,2490],[-2071,1546],[-630,3039],[1798,2665],[4495,1344],[3463,-375],[1362,2005]],[[34776,112797],[-1194,-1919],[4268,512],[1611,-1408],[4298,25],[2267,-3355],[512,-1844],[2029,-262],[3398,-1885],[749,-1160],[-2409,-2787],[-4265,-1589],[-2902,-295],[-2729,1657],[-2652,477],[-800,3870],[-3595,1894],[-673,1586],[-6169,-3065],[-21,-2062],[-3012,-3880],[-38,-1892],[2997,-716],[2356,750],[5089,608],[2626,-1535],[1622,-3593],[-2670,-2379],[4673,535],[2049,-1541],[4180,-1454],[2356,-1730],[402,-3042],[2395,-3364],[2719,-1673],[3547,1290],[2699,-560],[-531,5892],[-2535,1130],[-860,2366],[-5991,430],[-3656,4682],[-2755,1574],[6447,3482],[3134,4429],[2599,779],[2588,-2591],[2891,-496]],[[97870,83600],[-2130,-2006],[-2573,-3587],[-1846,-798],[201,-2003],[-6595,787],[-2743,-1061],[-352,2955],[1298,2622],[-676,1026],[-6672,-1444],[-4037,-2100],[-122,-3143],[3275,-5171],[-3303,-2249],[-3031,397],[-427,2242],[-3831,-114]],[[61820,98688],[1074,-246],[8640,2891],[1096,2288],[2282,1864],[5381,-1665],[6811,1531],[3000,2421]],[[92308,108413],[1506,-359],[2467,1617],[2129,2570],[6016,-488],[-329,-3370],[4903,-659],[1019,-4806],[-39,-2904],[-1584,-2320],[224,-3527],[-3444,-2088],[189,-2253],[-2536,-930],[-5843,-3830],[884,-1466]],[[73431,105717],[-624,-527]],[[123526,109617],[-3205,-1692],[1743,-1296],[-395,-4254],[303,-4044],[2980,273],[1794,-3249],[2671,-2662],[2227,-692],[1879,-2967]],[[133523,89034],[-2027,-2995],[492,-1808],[-1586,-1213],[-2620,-7613],[-6177,-114]],[[121605,75291],[-1583,4730],[-4742,119],[-441,-3094],[-2900,-2451],[-2256,-2731],[-3119,2134],[-6733,-799],[-187,2614],[2927,-990],[-341,2762],[1314,3568],[-1859,1592],[-3815,855]],[[142607,88521],[-1490,-533],[-5158,281],[-2436,765]],[[139104,111576],[4017,729],[-424,-2646],[831,-3398],[2717,-2229],[-823,-2603],[1453,-2377],[2511,-2187],[-2324,-2340],[-3627,-1481],[-1173,-1864],[345,-2659]],[[174426,111897],[1426,-3286],[4844,-2018],[701,-6278],[4129,-4060],[1090,-3609],[-488,-3464],[-2008,1922],[-4684,-1846],[-6749,1384]],[[172687,90642],[-2594,1323],[-991,2185],[-6019,-1584],[-3348,-220],[85,-1408],[-2133,-1827],[-2582,1034],[-3563,-554],[1004,-2229],[-1500,-1687],[-1782,-135],[-895,2263],[-4404,-871],[-1358,1589]],[[172687,90642],[1051,-6927],[1359,-5968],[4198,-7293],[-3942,-3520],[-2363,-715]],[[172990,66219],[-11705,-3609],[-3224,-4696],[-474,-4852],[-3653,-951]],[[153934,52111],[-713,5089],[-2821,3156],[-2163,550],[-2995,-1992],[-1707,-2209],[-4967,1505],[-682,-1417],[-2823,-168],[-4881,804],[1058,4112],[-2849,1896],[-2621,-1364],[-1972,580],[-172,3482],[-4195,5214],[2174,3942]],[[180500,110845],[2852,-1007],[3527,-2350],[-1280,-866],[750,-4051],[5062,-2833],[-1203,-4558],[2100,-1455],[2498,-2899],[1407,-3089],[2468,-2773],[850,-4265],[-1177,-8408],[1520,-4342],[-3995,-3087],[-3004,-6510],[-3584,-3618]],[[189291,54734],[-3281,500],[-1427,1231],[196,2104],[-3776,2508],[-3302,1458],[-3868,766],[-843,2918]],[[189291,54734],[-304,-2451],[1044,-5432],[3957,229],[1706,-2282],[-4913,-2032],[-3864,-4297],[-2707,-1392],[-1928,-2635],[-196,-1840],[-2015,-1024],[-1774,3520],[-1812,-1648],[-719,-3144]],[[175766,30306],[-1693,152],[-123,2549],[-1889,1790],[-1812,-533]],[[170249,34264],[421,1967],[1965,2955],[-1727,1092],[3296,3449],[-2182,2545],[-3276,-1846],[-87,3036],[-2169,1213],[-2409,-903],[-3271,512],[-1375,1576],[-5501,2251]],[[175766,30306],[2043,-2410],[-570,-3042],[4069,1538],[777,-945],[3687,470],[12,-5465],[4508,-1423],[-442,-3461],[914,-1999],[-954,-2889],[-3890,-66],[456,-3582],[-1492,-1414],[1734,-3059],[-961,-2096],[-3921,775],[-4035,-1238],[-1070,2063],[-2373,-1411],[-3200,-150],[-2165,2872],[-2631,-2823],[-3939,527],[1245,2372],[-681,3219],[-2510,1355],[-1224,2591],[201,1841],[3788,3843],[1803,1142],[2517,5186],[-2557,855],[3123,3855],[699,2699],[-1170,983],[912,3464],[1780,-219]],[[132668,187232],[1181,-1350],[3855,-1872],[943,-1159],[-3065,-1563],[5295,-7562],[-4228,-1171]],[[136649,172555],[-3706,2281],[-4605,1398],[-3169,-813],[-900,958],[-453,5021],[2256,1884],[6596,3948]],[[132668,187232],[11980,8427],[45,2112],[1479,2610],[2964,289],[3814,3934],[5611,1817],[1064,-1185],[6983,-1678],[3779,-558],[2598,-2889],[351,-3379],[-607,-2894],[-2902,-5369],[-3956,-3600],[-1724,287],[-4181,-2142],[-3233,-3267],[-3266,-63],[-1819,-2263],[1022,-2890],[-1551,-5059],[-7989,-2584],[-6481,5667]],[[134658,215645],[-13,-93]],[[172383,206850],[-12255,173],[-3228,4174],[-1542,1091],[106,11364],[4330,7252],[3590,1168]]],"transform":{"scale":[1,1],"translate":[13574,306958]},"objects":{"coropplusgebied_2005":{"type":"GeometryCollection","geometries":[{"arcs":[[0,1,2,3,4]],"type":"Polygon","properties":{"id":52005,"statcode":"CP0100","statnaam":"Oost-Groningen","jrstatcode":"2005CP0100","rubriek":"coropplusgebied","FID":"coropplusgebied_gegeneraliseerd_2005.367b4759-543d-48e0-a841-ab9d662f023f"},"id":"CP0100"},{"arcs":[[5,6,-2]],"type":"Polygon","properties":{"id":52006,"statcode":"CP0200","statnaam":"Delfzijl en omgeving","jrstatcode":"2005CP0200","rubriek":"coropplusgebied","FID":"coropplusgebied_gegeneraliseerd_2005.d1792825-2c9a-45da-98f0-c6c9077b4ff0"},"id":"CP0200"},{"arcs":[[7,8,9,-6,-1,10]],"type":"Polygon","properties":{"id":52007,"statcode":"CP0300","statnaam":"Overig Groningen","jrstatcode":"2005CP0300","rubriek":"coropplusgebied","FID":"coropplusgebied_gegeneraliseerd_2005.c47221c6-1d6c-48b2-a238-299096ad3b85"},"id":"CP0300"},{"arcs":[[[-9,13,14,15]],[[16]],[[17]],[[-12,18]],[[19]]],"type":"MultiPolygon","properties":{"id":52008,"statcode":"CP0400","statnaam":"Noord-Friesland","jrstatcode":"2005CP0400","rubriek":"coropplusgebied","FID":"coropplusgebied_gegeneraliseerd_2005.65ea5201-e47f-4b35-9f8f-28e0589fa1fe"},"id":"CP0400"},{"arcs":[[20,21,22,23,-15]],"type":"Polygon","properties":{"id":52009,"statcode":"CP0500","statnaam":"Zuidwest-Friesland","jrstatcode":"2005CP0500","rubriek":"coropplusgebied","FID":"coropplusgebied_gegeneraliseerd_2005.a6924b15-8b6b-48a2-96cf-2620ba2652be"},"id":"CP0500"},{"arcs":[[-8,26,27,28,-21,-14]],"type":"Polygon","properties":{"id":52010,"statcode":"CP0600","statnaam":"Zuidoost-Friesland","jrstatcode":"2005CP0600","rubriek":"coropplusgebied","FID":"coropplusgebied_gegeneraliseerd_2005.71075e98-1b72-43b7-90f3-122676d1b1ec"},"id":"CP0600"},{"arcs":[[29,-27,-11,-5,30]],"type":"Polygon","properties":{"id":52011,"statcode":"CP0700","statnaam":"Noord-Drenthe","jrstatcode":"2005CP0700","rubriek":"coropplusgebied","FID":"coropplusgebied_gegeneraliseerd_2005.da105fb2-d2cf-49a8-8760-628d687b18d3"},"id":"CP0700"},{"arcs":[[-4,31,32,33,-31]],"type":"Polygon","properties":{"id":52012,"statcode":"CP0800","statnaam":"Zuidoost-Drenthe","jrstatcode":"2005CP0800","rubriek":"coropplusgebied","FID":"coropplusgebied_gegeneraliseerd_2005.cb10c8b7-0b89-4c60-abe3-b3964c5e8421"},"id":"CP0800"},{"arcs":[[-28,-30,-34,34]],"type":"Polygon","properties":{"id":52013,"statcode":"CP0900","statnaam":"Zuidwest-Drenthe","jrstatcode":"2005CP0900","rubriek":"coropplusgebied","FID":"coropplusgebied_gegeneraliseerd_2005.7040e4a2-f67a-4f8d-a82e-06c4c2104f56"},"id":"CP0900"},{"arcs":[[35,36,37,38,-22,-29,-35,-33,39,40]],"type":"Polygon","properties":{"id":52014,"statcode":"CP1000","statnaam":"Noord-Overijssel","jrstatcode":"2005CP1000","rubriek":"coropplusgebied","FID":"coropplusgebied_gegeneraliseerd_2005.8b5e5210-d1c6-4c80-8c92-21b64787b0d1"},"id":"CP1000"},{"arcs":[[41,42,-36,43]],"type":"Polygon","properties":{"id":52015,"statcode":"CP1100","statnaam":"Zuidwest-Overijssel","jrstatcode":"2005CP1100","rubriek":"coropplusgebied","FID":"coropplusgebied_gegeneraliseerd_2005.a2ad7e2f-7479-4a95-94df-84f29bc0f88c"},"id":"CP1100"},{"arcs":[[44,-44,-41,45]],"type":"Polygon","properties":{"id":52016,"statcode":"CP1200","statnaam":"Twente","jrstatcode":"2005CP1200","rubriek":"coropplusgebied","FID":"coropplusgebied_gegeneraliseerd_2005.79a5b083-7346-40f2-837d-40eb6e40b5dd"},"id":"CP1200"},{"arcs":[[46,-37,-43,47,48,49,50,51,52]],"type":"Polygon","properties":{"id":52017,"statcode":"CP1300","statnaam":"Veluwe","jrstatcode":"2005CP1300","rubriek":"coropplusgebied","FID":"coropplusgebied_gegeneraliseerd_2005.54c79213-a9c2-43b3-b5bc-793e2d553d55"},"id":"CP1300"},{"arcs":[[53,-48,-42,-45,54]],"type":"Polygon","properties":{"id":52018,"statcode":"CP1400","statnaam":"Achterhoek","jrstatcode":"2005CP1400","rubriek":"coropplusgebied","FID":"coropplusgebied_gegeneraliseerd_2005.f635a8f5-70d8-440a-bd40-fdea93d3bfc0"},"id":"CP1400"},{"arcs":[[55,-49,-54,56,57,58]],"type":"Polygon","properties":{"id":52019,"statcode":"CP1500","statnaam":"Arnhem/Nijmegen","jrstatcode":"2005CP1500","rubriek":"coropplusgebied","FID":"coropplusgebied_gegeneraliseerd_2005.a1de641e-2e3a-4776-985e-63780f3ab31a"},"id":"CP1500"},{"arcs":[[59,-50,-56,60,61,62,63,64]],"type":"Polygon","properties":{"id":52020,"statcode":"CP1600","statnaam":"Zuidwest-Gelderland","jrstatcode":"2005CP1600","rubriek":"coropplusgebied","FID":"coropplusgebied_gegeneraliseerd_2005.b65b5f24-8621-4b33-9435-0b24919407c3"},"id":"CP1600"},{"arcs":[[65,66,67,68,69,70,71]],"type":"Polygon","properties":{"id":52021,"statcode":"CP1701","statnaam":"Utrecht-West","jrstatcode":"2005CP1701","rubriek":"coropplusgebied","FID":"coropplusgebied_gegeneraliseerd_2005.45382c7e-9159-4f53-af48-aa3dde2e9ed2"},"id":"CP1701"},{"arcs":[[72,73,-52,74,75]],"type":"Polygon","properties":{"id":52022,"statcode":"CP1702","statnaam":"Stadsgewest Amersfoort","jrstatcode":"2005CP1702","rubriek":"coropplusgebied","FID":"coropplusgebied_gegeneraliseerd_2005.4cec0f58-8262-4ea9-80cb-c89115e50b73"},"id":"CP1702"},{"arcs":[[-76,76,-65,77,-66,78]],"type":"Polygon","properties":{"id":52023,"statcode":"CP1703","statnaam":"Stadsgewest Utrecht","jrstatcode":"2005CP1703","rubriek":"coropplusgebied","FID":"coropplusgebied_gegeneraliseerd_2005.83dd9d4e-e898-40c0-ace9-6d1a2c7cd125"},"id":"CP1703"},{"arcs":[[-60,-77,-75,-51]],"type":"Polygon","properties":{"id":52024,"statcode":"CP1704","statnaam":"Zuidoost-Utrecht","jrstatcode":"2005CP1704","rubriek":"coropplusgebied","FID":"coropplusgebied_gegeneraliseerd_2005.4e09812d-b6cd-4880-800a-9cf8226aee42"},"id":"CP1704"},{"arcs":[[[79,80,81]],[[82]],[[83]]],"type":"MultiPolygon","properties":{"id":52025,"statcode":"CP1800","statnaam":"Kop van Noord-Holland","jrstatcode":"2005CP1800","rubriek":"coropplusgebied","FID":"coropplusgebied_gegeneraliseerd_2005.81243244-ab40-4f49-ad08-d9aa873bad02"},"id":"CP1800"},{"arcs":[[87,88,89,-82]],"type":"Polygon","properties":{"id":52026,"statcode":"CP1900","statnaam":"Alkmaar en omgeving","jrstatcode":"2005CP1900","rubriek":"coropplusgebied","FID":"coropplusgebied_gegeneraliseerd_2005.70927fc0-5589-4961-9b80-e5f16ee38db4"},"id":"CP1900"},{"arcs":[[90,-89,91,92,93]],"type":"Polygon","properties":{"id":52027,"statcode":"CP2000","statnaam":"IJmond","jrstatcode":"2005CP2000","rubriek":"coropplusgebied","FID":"coropplusgebied_gegeneraliseerd_2005.d9047161-432d-4b40-b88d-fde3d40d723f"},"id":"CP2000"},{"arcs":[[-94,94,95,96,97,98]],"type":"Polygon","properties":{"id":52028,"statcode":"CP2100","statnaam":"Agglomeratie Haarlem","jrstatcode":"2005CP2100","rubriek":"coropplusgebied","FID":"coropplusgebied_gegeneraliseerd_2005.d47d6c82-d8c3-4d53-a1ec-c28ed6bc2a50"},"id":"CP2100"},{"arcs":[[99,100,-95,-93,101]],"type":"Polygon","properties":{"id":52029,"statcode":"CP2200","statnaam":"Zaanstreek","jrstatcode":"2005CP2200","rubriek":"coropplusgebied","FID":"coropplusgebied_gegeneraliseerd_2005.24d633bb-69af-4892-a0b7-d5ae4df2d720"},"id":"CP2200"},{"arcs":[[[102,103,-96,-101,104,105,106]],[[107,-71,108]]],"type":"MultiPolygon","properties":{"id":52030,"statcode":"CP2311","statnaam":"Amsterdam","jrstatcode":"2005CP2311","rubriek":"coropplusgebied","FID":"coropplusgebied_gegeneraliseerd_2005.b63b24bd-2d2e-4666-b4b6-12b6a8d79b1e"},"id":"CP2311"},{"arcs":[[[109,110,-109,-70,111,-103]],[[-100,112,-105]]],"type":"MultiPolygon","properties":{"id":52031,"statcode":"CP2321","statnaam":"Overig Agglomeratie Amsterdam","jrstatcode":"2005CP2321","rubriek":"coropplusgebied","FID":"coropplusgebied_gegeneraliseerd_2005.7b8cebb1-d052-4c70-8186-26fd0d31cd19"},"id":"CP2321"},{"arcs":[[-92,-88,-81,113,-106,-113,-102]],"type":"Polygon","properties":{"id":52032,"statcode":"CP2322","statnaam":"Edam-Volendam en omgeving","jrstatcode":"2005CP2322","rubriek":"coropplusgebied","FID":"coropplusgebied_gegeneraliseerd_2005.11f26343-c6da-4da7-9adb-432fed4574ab"},"id":"CP2322"},{"arcs":[[-69,114,115,-97,-104,-112]],"type":"Polygon","properties":{"id":52033,"statcode":"CP2323","statnaam":"Haarlemmermeer en omgeving","jrstatcode":"2005CP2323","rubriek":"coropplusgebied","FID":"coropplusgebied_gegeneraliseerd_2005.dc2a0ca5-803c-494d-8eea-061a36b7f7f1"},"id":"CP2323"},{"arcs":[[-79,-72,-108,-111,116,-73]],"type":"Polygon","properties":{"id":52034,"statcode":"CP2400","statnaam":"Het Gooi en Vechtstreek","jrstatcode":"2005CP2400","rubriek":"coropplusgebied","FID":"coropplusgebied_gegeneraliseerd_2005.5a92a98f-f77f-4cf5-aa3e-cde4892cf984"},"id":"CP2400"},{"arcs":[[117,118,119,120,-98,-116]],"type":"Polygon","properties":{"id":52035,"statcode":"CP2500","statnaam":"Agglomeratie Leiden en Bollenstreek","jrstatcode":"2005CP2500","rubriek":"coropplusgebied","FID":"coropplusgebied_gegeneraliseerd_2005.5536e64c-86a5-4cc2-85b8-9c04cfea8f39"},"id":"CP2500"},{"arcs":[[121,122,123,-120,124]],"type":"Polygon","properties":{"id":52036,"statcode":"CP2601","statnaam":"Agglomeratie 's-Gravenhage excl. Zoeterme","jrstatcode":"2005CP2601","rubriek":"coropplusgebied","FID":"coropplusgebied_gegeneraliseerd_2005.6e99c9d4-bdb7-4c81-a460-50f26da72bf4"},"id":"CP2601"},{"arcs":[[-119,125,126,-125]],"type":"Polygon","properties":{"id":52037,"statcode":"CP2602","statnaam":"Zoetermeer","jrstatcode":"2005CP2602","rubriek":"coropplusgebied","FID":"coropplusgebied_gegeneraliseerd_2005.c9bdc7bc-110f-4587-a284-82ab63fa0eab"},"id":"CP2602"},{"arcs":[[127,-123,128]],"type":"Polygon","properties":{"id":52038,"statcode":"CP2700","statnaam":"Delft en Westland","jrstatcode":"2005CP2700","rubriek":"coropplusgebied","FID":"coropplusgebied_gegeneraliseerd_2005.a5501e97-7f05-493c-8412-cd2e0aee84e7"},"id":"CP2700"},{"arcs":[[-68,129,130,131,-126,-118,-115]],"type":"Polygon","properties":{"id":52039,"statcode":"CP2800","statnaam":"Oost-Zuid-Holland","jrstatcode":"2005CP2800","rubriek":"coropplusgebied","FID":"coropplusgebied_gegeneraliseerd_2005.b72cb040-7767-4d83-a9cc-c8505b6f7f3e"},"id":"CP2800"},{"arcs":[[132,133,-129,-122,-127,-132,134,135,136]],"type":"Polygon","properties":{"id":52040,"statcode":"CP2910","statnaam":"Rijnmond","jrstatcode":"2005CP2910","rubriek":"coropplusgebied","FID":"coropplusgebied_gegeneraliseerd_2005.5f3e0add-b4f4-4266-b660-73929ac0dcb4"},"id":"CP2910"},{"arcs":[[[137,138,139,140]],[[-133,141,142]],[[143,-135,-131]]],"type":"MultiPolygon","properties":{"id":52041,"statcode":"CP2920","statnaam":"Overig Groot-Rijnmond","jrstatcode":"2005CP2920","rubriek":"coropplusgebied","FID":"coropplusgebied_gegeneraliseerd_2005.876f5dbc-e8c1-425f-aaca-f6a9c3d7187c"},"id":"CP2920"},{"arcs":[[144,145,-142,-137,146,147]],"type":"Polygon","properties":{"id":52042,"statcode":"CP3001","statnaam":"Drechtsteden","jrstatcode":"2005CP3001","rubriek":"coropplusgebied","FID":"coropplusgebied_gegeneraliseerd_2005.e6864b7d-7a8e-4313-a547-f70f1045efd4"},"id":"CP3001"},{"arcs":[[148,-147,-136,-144,-130,-67,-78,-64]],"type":"Polygon","properties":{"id":52043,"statcode":"CP3002","statnaam":"Overig Zuidoost-Zuid-Holland","jrstatcode":"2005CP3002","rubriek":"coropplusgebied","FID":"coropplusgebied_gegeneraliseerd_2005.80a121ea-f390-41a4-987a-fae94eb32f7e"},"id":"CP3002"},{"arcs":[[149]],"type":"Polygon","properties":{"id":52044,"statcode":"CP3100","statnaam":"Zeeuwsch-Vlaanderen","jrstatcode":"2005CP3100","rubriek":"coropplusgebied","FID":"coropplusgebied_gegeneraliseerd_2005.e6d2e142-315d-4ea8-a7d9-c90cb9232692"},"id":"CP3100"},{"arcs":[[150,151,-140,152]],"type":"Polygon","properties":{"id":52045,"statcode":"CP3200","statnaam":"Overig Zeeland","jrstatcode":"2005CP3200","rubriek":"coropplusgebied","FID":"coropplusgebied_gegeneraliseerd_2005.6cf9bd58-90c0-45f9-ba5f-31e2ebb8a434"},"id":"CP3200"},{"arcs":[[153,-151,154,-145,155]],"type":"Polygon","properties":{"id":52046,"statcode":"CP3300","statnaam":"West-Noord-Brabant","jrstatcode":"2005CP3300","rubriek":"coropplusgebied","FID":"coropplusgebied_gegeneraliseerd_2005.64156534-7e25-4c01-8116-89216e68f993"},"id":"CP3300"},{"arcs":[[-156,-148,-149,-63,157,158,159]],"type":"Polygon","properties":{"id":52047,"statcode":"CP3400","statnaam":"Midden-Noord-Brabant","jrstatcode":"2005CP3400","rubriek":"coropplusgebied","FID":"coropplusgebied_gegeneraliseerd_2005.532e6493-194a-4d05-822c-bf450d2af4ad"},"id":"CP3400"},{"arcs":[[160,-158,-62,161]],"type":"Polygon","properties":{"id":52048,"statcode":"CP3510","statnaam":"Stadsgewest 's-Hertogenbosch","jrstatcode":"2005CP3510","rubriek":"coropplusgebied","FID":"coropplusgebied_gegeneraliseerd_2005.eafe7dc4-49c0-4607-808d-591aac10944d"},"id":"CP3510"},{"arcs":[[162,163,-162,-61,-59]],"type":"Polygon","properties":{"id":52049,"statcode":"CP3520","statnaam":"Overig Noordoost-Noord-brabant","jrstatcode":"2005CP3520","rubriek":"coropplusgebied","FID":"coropplusgebied_gegeneraliseerd_2005.4ecd65e4-15f0-4ead-8923-1246a6e662a2"},"id":"CP3520"},{"arcs":[[164,165,166,-159,-161,-164]],"type":"Polygon","properties":{"id":52050,"statcode":"CP3600","statnaam":"Zuidoost-Noord-Brabant","jrstatcode":"2005CP3600","rubriek":"coropplusgebied","FID":"coropplusgebied_gegeneraliseerd_2005.4f2c9e2e-103b-4a74-96bc-b28a3826a312"},"id":"CP3600"},{"arcs":[[167,168,-165,-163,-58]],"type":"Polygon","properties":{"id":52051,"statcode":"CP3700","statnaam":"Noord-Limburg","jrstatcode":"2005CP3700","rubriek":"coropplusgebied","FID":"coropplusgebied_gegeneraliseerd_2005.277969a0-7be3-4f36-9bef-caa7a75c67d8"},"id":"CP3700"},{"arcs":[[-169,169,170,171,-166]],"type":"Polygon","properties":{"id":52052,"statcode":"CP3800","statnaam":"Midden-Limburg","jrstatcode":"2005CP3800","rubriek":"coropplusgebied","FID":"coropplusgebied_gegeneraliseerd_2005.11da4328-839b-4c48-8b59-d51eba6af823"},"id":"CP3800"},{"arcs":[[-171,172]],"type":"Polygon","properties":{"id":52053,"statcode":"CP3900","statnaam":"Zuid-Limburg","jrstatcode":"2005CP3900","rubriek":"coropplusgebied","FID":"coropplusgebied_gegeneraliseerd_2005.4a07a458-80b1-48f5-83f9-ac22125aeb7b"},"id":"CP3900"},{"arcs":[[173,174]],"type":"Polygon","properties":{"id":52054,"statcode":"CP4001","statnaam":"Almere","jrstatcode":"2005CP4001","rubriek":"coropplusgebied","FID":"coropplusgebied_gegeneraliseerd_2005.2412583b-d017-4445-9e95-01f470b22363"},"id":"CP4001"},{"arcs":[[-174,175]],"type":"Polygon","properties":{"id":52055,"statcode":"CP4002","statnaam":"Flevoland-Midden","jrstatcode":"2005CP4002","rubriek":"coropplusgebied","FID":"coropplusgebied_gegeneraliseerd_2005.78befbda-de7c-43ba-94d8-d7385ef9ad16"},"id":"CP4002"},{"arcs":[[177,-23,-39]],"type":"Polygon","properties":{"id":52056,"statcode":"CP4003","statnaam":"Noordoostpolder en Urk","jrstatcode":"2005CP4003","rubriek":"coropplusgebied","FID":"coropplusgebied_gegeneraliseerd_2005.16588bbe-c952-4c6d-935f-8290e0d6f85b"},"id":"CP4003"}]}}}