{"type":"FeatureCollection", "features": [
{"type":"Feature","geometry":{"type":"MultiPolygon","coordinates":[[[[269919,540356],[270634,543238],[275614,552003],[277529,559786],[276413,567587],[276562,571156],[274894,573894],[277316,580573],[276367,584878],[274257,585083],[268702,586895],[267904,587793],[268141,591461],[264273,591911],[257676,594711],[255531,597646],[254839,602105],[253887,603436],[254427,607098],[249718,609494],[248648,608523],[245189,609718],[240690,609027],[235441,606718],[231491,605649],[221679,604195],[216361,601476],[213087,603418],[208483,603053],[208453,603009],[207658,601374],[211292,598149],[211293,596585],[214926,595331],[214483,591129],[212751,589387],[211334,584611],[211302,582088],[209356,579402],[207841,575877],[207769,572325],[209753,570173],[213553,570079],[217162,567871],[219134,567129],[221595,574109],[223258,577318],[225875,579387],[228401,580246],[231407,579374],[233688,575208],[237112,572806],[238651,570295],[242575,571284],[245396,571145],[259062,557273],[264380,550052],[266539,548929],[264580,544106],[266297,544126],[268516,541104],[269919,540356]]],[[[228874,617279],[227240,619261],[226153,618233],[226783,615560],[228874,617279]]]]},"properties":{"id":1,"statcode":"JZ01","jrstatcode":"2016JZ01","statnaam":"Groningen","rubriek":"jeugdregio","FID":"jeugdregio_gegeneraliseerd_2016.85afec1c-c802-4e6b-a1cf-e06fa8a2fac4"},"id":"JZ01"},
{"type":"Feature","geometry":{"type":"MultiPolygon","coordinates":[[[[155313,563076],[156408,559367],[155786,556160],[156715,552936],[155915,550259],[155929,546550],[152743,544317],[153541,542876],[157622,540106],[159405,540846],[165600,538420],[167129,538567],[168342,540261],[170539,540415],[172262,541517],[173208,539716],[176959,539030],[179347,539230],[182511,535552],[184159,536762],[185770,535426],[188169,534965],[191190,537499],[191589,538782],[194447,539633],[195389,537353],[198411,536618],[204348,541032],[210113,545124],[213462,549304],[216585,549046],[218660,547004],[222656,550003],[224887,554364],[220425,561227],[220729,564947],[216524,566444],[217162,567871],[213553,570079],[209753,570173],[207769,572325],[207841,575877],[209356,579402],[211302,582088],[211334,584611],[212751,589387],[214483,591129],[214926,595331],[207855,597062],[206075,601022],[206313,602699],[208453,603009],[208483,603053],[207506,603426],[205014,602173],[201805,602689],[197014,602047],[191349,600330],[189145,600374],[180569,596464],[177097,594322],[172795,592704],[168321,590461],[164355,585658],[161372,583778],[158372,580334],[157152,576894],[156154,570540],[154455,569033],[154325,567518],[152409,565652],[148692,564400],[140141,557012],[140200,556944],[148877,564435],[152030,565212],[154478,567203],[155313,563076]]],[[[165138,605551],[163097,606631],[155986,604500],[144219,601463],[141990,600557],[139459,596791],[141971,595819],[146495,598521],[148762,598234],[152959,600147],[154346,601511],[158536,601960],[165138,605551]]],[[[175001,608267],[173138,609320],[171211,608783],[169952,606874],[170472,605547],[173714,603819],[177779,606363],[182751,605777],[188478,607342],[192009,607887],[192087,609268],[181399,608360],[175001,608267]]],[[[221584,614833],[214936,613886],[206136,612985],[204391,610910],[204748,609481],[211956,610401],[214040,611893],[221646,614708],[221584,614833]]],[[[134972,590176],[133618,591322],[128065,588464],[124125,585073],[119205,581743],[123353,581158],[124649,583461],[127595,585286],[127302,586560],[134972,590176]]]]},"properties":{"id":2,"statcode":"JZ02","jrstatcode":"2016JZ02","statnaam":"Friesland (Fryslân)","rubriek":"jeugdregio","FID":"jeugdregio_gegeneraliseerd_2016.f982937e-e6b5-4c45-9706-0d95b3eefcbc"},"id":"JZ02"},
{"type":"Feature","geometry":{"type":"MultiPolygon","coordinates":[[[[105163,530124],[107930,527478],[110489,522867],[113175,523624],[113471,525964],[115638,525370],[119253,526349],[122011,524504],[125106,529663],[131958,529612],[133591,531252],[135882,531956],[136590,539847],[132223,548616],[131577,549411],[140200,556944],[140141,557012],[131523,549652],[129166,549914],[126751,549295],[124866,546537],[122699,545266],[119975,544944],[116594,546997],[114988,549708],[115649,551943],[113088,553333],[110893,553038],[109861,551051],[109372,544265],[107307,536146],[105163,530124]]],[[[116893,560379],[118773,560924],[122160,565859],[122490,571636],[119724,577559],[118497,577513],[111399,566541],[110415,564280],[109481,559924],[110266,555469],[112568,557596],[114567,557371],[116893,560379]]],[[[106838,552706],[108992,554271],[106559,555514],[106838,552706]]]]},"properties":{"id":3,"statcode":"JZ03","jrstatcode":"2016JZ03","statnaam":"Kop van Noord-Holland","rubriek":"jeugdregio","FID":"jeugdregio_gegeneraliseerd_2016.9adbd556-2f4e-4131-ba65-dd15a17f1a96"},"id":"JZ03"},
{"type":"Feature","geometry":{"type":"Polygon","coordinates":[[[204348,541032],[209941,534357],[206941,530874],[204504,529459],[207464,521684],[208828,521161],[210929,522428],[213484,520635],[218509,519550],[221143,517736],[222615,514396],[225693,516161],[226462,514760],[229785,515198],[231627,514661],[231252,518241],[233852,520428],[238010,521438],[244405,518736],[244564,516402],[246695,518399],[249066,519142],[252075,518764],[257178,519277],[260013,517836],[262529,518821],[267018,517426],[267871,519035],[268563,537232],[269919,540356],[268516,541104],[266297,544126],[264580,544106],[266539,548929],[264380,550052],[259062,557273],[245396,571145],[242575,571284],[238651,570295],[237112,572806],[233688,575208],[231407,579374],[228401,580246],[225875,579387],[223258,577318],[221595,574109],[219134,567129],[217162,567871],[216524,566444],[220729,564947],[220425,561227],[224887,554364],[222656,550003],[218660,547004],[216585,549046],[213462,549304],[210113,545124],[204348,541032]]]},"properties":{"id":4,"statcode":"JZ04","jrstatcode":"2016JZ04","statnaam":"Drenthe","rubriek":"jeugdregio","FID":"jeugdregio_gegeneraliseerd_2016.8b1ba941-9d59-4f88-bce1-b5f188abc0f4"},"id":"JZ04"},
{"type":"Feature","geometry":{"type":"Polygon","coordinates":[[[130106,513943],[130074,515905],[131876,517179],[134793,517266],[136971,516163],[137432,514741],[142222,516550],[144761,518866],[145484,522018],[148219,522501],[148220,522600],[147950,528320],[146295,529578],[141879,529762],[140739,528046],[138837,528040],[135882,531956],[133591,531252],[131958,529612],[125106,529663],[122011,524504],[120456,522227],[119510,518593],[121203,515657],[120917,514074],[123519,513871],[123815,513368],[125372,512059],[129096,512292],[130106,513943]]]},"properties":{"id":5,"statcode":"JZ05","jrstatcode":"2016JZ05","statnaam":"West Friesland","rubriek":"jeugdregio","FID":"jeugdregio_gegeneraliseerd_2016.acc26571-ab61-4b7b-840f-280a18633d22"},"id":"JZ05"},
{"type":"Feature","geometry":{"type":"Polygon","coordinates":[[[105163,530124],[101505,505116],[105653,505148],[108075,504565],[107843,502796],[109689,501026],[112614,503695],[114644,503741],[116819,506255],[118041,506355],[119846,509942],[121294,511930],[123042,513561],[123815,513368],[123519,513871],[120917,514074],[121203,515657],[119510,518593],[120456,522227],[122011,524504],[119253,526349],[115638,525370],[113471,525964],[113175,523624],[110489,522867],[107930,527478],[105163,530124]]]},"properties":{"id":6,"statcode":"JZ06","jrstatcode":"2016JZ06","statnaam":"Alkmaar (Noord-Kennemerland)","rubriek":"jeugdregio","FID":"jeugdregio_gegeneraliseerd_2016.a9e86518-e88f-4b61-b223-d8eee6e68e54"},"id":"JZ06"},
{"type":"Feature","geometry":{"type":"Polygon","coordinates":[[[184998,510037],[186845,507247],[187137,504569],[187146,504526],[187485,503550],[188380,503891],[190519,501189],[191578,498616],[194277,498903],[196665,501560],[198494,502628],[200293,501552],[201480,499596],[203388,498301],[203617,495573],[204802,494157],[204238,491356],[205552,490344],[205142,488417],[202348,487360],[201594,481757],[203566,479367],[205717,475000],[205301,473982],[206935,471361],[209331,472049],[217226,471219],[220009,471435],[220820,473062],[222928,473584],[222458,474714],[219257,477429],[219070,479711],[221056,481583],[219473,485254],[220098,487335],[223175,488481],[224253,492460],[223225,493844],[225887,495113],[227397,498505],[230837,499917],[230949,500948],[237465,499766],[238190,498384],[240224,498918],[242067,501580],[244005,500648],[244456,504530],[242737,508084],[245142,507606],[245829,509222],[248533,509328],[245235,512060],[245758,514996],[244564,516402],[244405,518736],[238010,521438],[233852,520428],[231252,518241],[231627,514661],[229785,515198],[226462,514760],[225693,516161],[222615,514396],[221143,517736],[218509,519550],[213484,520635],[210929,522428],[208828,521161],[207464,521684],[204504,529459],[206941,530874],[209941,534357],[204348,541032],[198411,536618],[195389,537353],[194447,539633],[191589,538782],[191190,537499],[188169,534965],[185770,535426],[184159,536762],[182511,535552],[184118,533133],[186203,533150],[191097,529448],[192527,525435],[194073,523062],[191973,521036],[195256,519153],[196902,518405],[197210,516806],[195796,515485],[190922,514033],[189452,514609],[185934,513815],[184998,510037]]]},"properties":{"id":7,"statcode":"JZ07","jrstatcode":"2016JZ07","statnaam":"IJsselland","rubriek":"jeugdregio","FID":"jeugdregio_gegeneraliseerd_2016.e428714c-0e6e-4d15-bfc0-652d4edad0b9"},"id":"JZ07"},
{"type":"Feature","geometry":{"type":"Polygon","coordinates":[[[176959,539030],[173459,537984],[169038,530610],[168932,519245],[170477,518152],[172924,514395],[171333,513117],[166524,511562],[162698,507616],[159956,507139],[158205,504299],[158216,502613],[146242,494190],[139636,490218],[137387,488367],[138033,482025],[138067,481982],[142584,483075],[146927,481605],[149967,479492],[150000,479461],[156041,473938],[156724,473850],[164657,476333],[166274,481450],[165320,484742],[167024,486644],[170451,486064],[170538,486105],[171393,488255],[173667,490046],[177721,492114],[179480,491891],[182881,494721],[186431,500995],[187146,504526],[187137,504569],[186507,507167],[183851,510071],[179990,510537],[173129,512231],[173702,513981],[185112,513982],[194026,516960],[195256,519153],[191973,521036],[194073,523062],[192527,525435],[191097,529448],[186203,533150],[184118,533133],[182511,535552],[179347,539230],[176959,539030]]]},"properties":{"id":8,"statcode":"JZ08","jrstatcode":"2016JZ08","statnaam":"Flevoland","rubriek":"jeugdregio","FID":"jeugdregio_gegeneraliseerd_2016.9b6618ba-12ff-4221-9dee-13af25c98380"},"id":"JZ08"},
{"type":"Feature","geometry":{"type":"Polygon","coordinates":[[[133302,492130],[134221,494364],[132031,494673],[132894,497823],[132745,499836],[134528,501828],[133230,503958],[131637,508205],[130865,508929],[130106,513943],[129096,512292],[125372,512059],[123815,513368],[123042,513561],[121294,511930],[119846,509942],[118041,506355],[116819,506255],[114644,503741],[112614,503695],[109689,501026],[106579,496656],[109761,494157],[110930,493894],[118866,492227],[119326,493701],[121774,493077],[123940,491630],[125109,492730],[128683,493137],[133302,492130]]]},"properties":{"id":9,"statcode":"JZ09","jrstatcode":"2016JZ09","statnaam":"Zaanstreek-Waterland","rubriek":"jeugdregio","FID":"jeugdregio_gegeneraliseerd_2016.a922f0e6-2642-4d9d-8d2b-9b31a7a7762e"},"id":"JZ09"},
{"type":"Feature","geometry":{"type":"Polygon","coordinates":[[[109689,501026],[107843,502796],[108075,504565],[105653,505148],[101505,505116],[100338,500455],[98446,497233],[98808,494784],[103153,493127],[104912,493674],[107053,492014],[109761,494157],[106579,496656],[109689,501026]]]},"properties":{"id":10,"statcode":"JZ10","jrstatcode":"2016JZ10","statnaam":"IJmond (Midden Kennemerland)","rubriek":"jeugdregio","FID":"jeugdregio_gegeneraliseerd_2016.15f73419-739d-4a8c-9605-604d5cadabd1"},"id":"JZ10"},
{"type":"Feature","geometry":{"type":"Polygon","coordinates":[[[102117,480905],[102130,482225],[106581,485602],[106690,487942],[110231,488928],[112069,487961],[112139,490080],[110188,490523],[110930,493894],[109761,494157],[107053,492014],[104912,493674],[103153,493127],[98808,494784],[98259,492649],[94103,482630],[98840,480467],[100197,481463],[102117,480905]]]},"properties":{"id":11,"statcode":"JZ11","jrstatcode":"2016JZ11","statnaam":"Zuid Kennemerland","rubriek":"jeugdregio","FID":"jeugdregio_gegeneraliseerd_2016.16f4c72f-c6d8-4d89-8513-f93df992719d"},"id":"JZ11"},
{"type":"Feature","geometry":{"type":"Polygon","coordinates":[[[161242,474425],[161591,472358],[163716,471824],[166123,468260],[171819,468925],[175082,470845],[175248,472548],[178166,472771],[180558,473428],[179712,475645],[186094,475556],[186729,476990],[185940,479700],[188651,483146],[187541,484932],[190706,488900],[194909,491489],[199007,497300],[198864,499170],[196665,501560],[194277,498903],[191578,498616],[190519,501189],[188380,503891],[187485,503550],[185782,497713],[184652,496998],[183784,494248],[177406,488923],[174881,487929],[173087,486389],[170538,486105],[170451,486064],[170274,484209],[166786,480963],[165250,476106],[164397,475103],[161242,474425]]]},"properties":{"id":12,"statcode":"JZ12","jrstatcode":"2016JZ12","statnaam":"Noord-Veluwe","rubriek":"jeugdregio","FID":"jeugdregio_gegeneraliseerd_2016.f9090790-6379-4b2c-a4d8-bde429e9efd8"},"id":"JZ12"},
{"type":"Feature","geometry":{"type":"Polygon","coordinates":[[[130411,483337],[129926,484509],[126830,486818],[129452,487382],[129512,488548],[132208,491759],[133302,492130],[128683,493137],[125109,492730],[123940,491630],[121774,493077],[119326,493701],[118866,492227],[110930,493894],[110188,490523],[112139,490080],[112069,487961],[111978,485549],[116137,482262],[116121,480582],[113560,477410],[109857,475244],[108186,473149],[106026,471651],[109708,471780],[109724,469594],[114509,471127],[116996,471612],[119585,473853],[122487,473961],[123714,475900],[130059,479450],[129824,481758],[130411,483337]]]},"properties":{"id":13,"statcode":"JZ13","jrstatcode":"2016JZ13","statnaam":"Amsterdam-Amstelland","rubriek":"jeugdregio","FID":"jeugdregio_gegeneraliseerd_2016.30c7cc97-a834-442c-99c8-baeb5c26755b"},"id":"JZ13"},
{"type":"Feature","geometry":{"type":"Polygon","coordinates":[[[249058,459841],[255553,460156],[256745,461572],[257185,464147],[259250,466528],[261966,467033],[264461,472190],[266447,472077],[269357,473179],[266938,477931],[266830,479485],[268809,484747],[269799,486221],[269742,488549],[268517,491662],[267206,491814],[265418,494726],[264182,498738],[263066,498726],[262061,496370],[260703,495317],[255239,496976],[254709,497894],[249292,497775],[244005,500648],[242067,501580],[240224,498918],[238190,498384],[237465,499766],[230949,500948],[230837,499917],[227397,498505],[225887,495113],[223225,493844],[224253,492460],[223175,488481],[220098,487335],[219473,485254],[221056,481583],[219070,479711],[219257,477429],[222458,474714],[222928,473584],[225295,473178],[226208,471073],[230594,466046],[234886,466102],[237333,466698],[238810,464597],[241039,465863],[242900,464864],[243109,462402],[242316,460984],[246025,459728],[249058,459841]]]},"properties":{"id":14,"statcode":"JZ14","jrstatcode":"2016JZ14","statnaam":"Twente","rubriek":"jeugdregio","FID":"jeugdregio_gegeneraliseerd_2016.1595aea7-900e-4c57-8b6b-66e9f3597a8a"},"id":"JZ14"},
{"type":"Feature","geometry":{"type":"Polygon","coordinates":[[[106026,471651],[108186,473149],[109857,475244],[113560,477410],[116121,480582],[116137,482262],[111978,485549],[112069,487961],[110231,488928],[106690,487942],[106581,485602],[102130,482225],[102117,480905],[100506,477327],[99114,475943],[98249,470449],[103433,470056],[106026,471651]]]},"properties":{"id":15,"statcode":"JZ15","jrstatcode":"2016JZ15","statnaam":"Haarlemmermeer","rubriek":"jeugdregio","FID":"jeugdregio_gegeneraliseerd_2016.9969dc65-ef8a-4ee9-b177-293acaaa6bc7"},"id":"JZ15"},
{"type":"Feature","geometry":{"type":"Polygon","coordinates":[[[143263,468477],[143780,470814],[146713,477079],[149490,476625],[148847,478298],[150000,479461],[149967,479492],[148220,478852],[145525,480494],[140437,479580],[138067,481982],[138033,482025],[133884,483585],[130411,483337],[129824,481758],[131311,482402],[134925,480742],[135599,476665],[137883,474654],[138484,468065],[137006,465887],[141682,465538],[143263,468477]]]},"properties":{"id":16,"statcode":"JZ16","jrstatcode":"2016JZ16","statnaam":"Gooi en Vechtstreek","rubriek":"jeugdregio","FID":"jeugdregio_gegeneraliseerd_2016.b96f1ddd-a735-4bd8-97c3-9791656ac0f7"},"id":"JZ16"},
{"type":"Feature","geometry":{"type":"Polygon","coordinates":[[[178166,472771],[179223,470259],[178483,469000],[179836,467351],[182678,467730],[183925,462666],[187329,462391],[187702,459813],[188991,457695],[193301,456931],[193314,454549],[196355,454715],[198646,453413],[201656,455785],[204098,454672],[206454,452586],[209215,456189],[211422,456342],[213134,458728],[214667,458363],[215975,459656],[219428,461475],[221444,461259],[222244,459983],[226043,457025],[228181,458281],[229776,457504],[230665,460114],[229893,462147],[230594,466046],[226208,471073],[225295,473178],[222928,473584],[220820,473062],[220009,471435],[217226,471219],[209331,472049],[206935,471361],[205301,473982],[205717,475000],[203566,479367],[201594,481757],[202348,487360],[205142,488417],[205552,490344],[204238,491356],[204802,494157],[203617,495573],[203388,498301],[201480,499596],[200293,501552],[198494,502628],[196665,501560],[198864,499170],[199007,497300],[194909,491489],[190706,488900],[187541,484932],[188651,483146],[185940,479700],[186729,476990],[186094,475556],[179712,475645],[180558,473428],[178166,472771]]]},"properties":{"id":17,"statcode":"JZ17","jrstatcode":"2016JZ17","statnaam":"Midden IJssel / Oost Veluwe","rubriek":"jeugdregio","FID":"jeugdregio_gegeneraliseerd_2016.990bae8d-6d88-48ab-b46a-cb347bb5f6d0"},"id":"JZ17"},
{"type":"Feature","geometry":{"type":"Polygon","coordinates":[[[102117,480905],[100197,481463],[98840,480467],[94103,482630],[90664,475515],[85728,467021],[88247,464375],[91911,462763],[92237,459228],[93545,457014],[96279,455040],[98079,452874],[98615,452571],[103559,454182],[105539,453096],[108948,454971],[108508,456372],[114244,459508],[117069,461980],[119902,461306],[119854,463226],[115770,468347],[114509,471127],[109724,469594],[109708,471780],[106026,471651],[103433,470056],[98249,470449],[99114,475943],[100506,477327],[102117,480905]]]},"properties":{"id":18,"statcode":"JZ18","jrstatcode":"2016JZ18","statnaam":"Holland Rijnland","rubriek":"jeugdregio","FID":"jeugdregio_gegeneraliseerd_2016.92442445-ac16-478b-82f4-6d2dca7e04e3"},"id":"JZ18"},
{"type":"Feature","geometry":{"type":"Polygon","coordinates":[[[129617,452603],[128415,453164],[128806,455646],[127000,458393],[126714,460249],[128661,461579],[130706,458794],[134475,460861],[135821,460594],[135033,463033],[137006,465887],[138484,468065],[137883,474654],[135599,476665],[134925,480742],[131311,482402],[129824,481758],[130059,479450],[123714,475900],[122487,473961],[119585,473853],[116996,471612],[114509,471127],[115770,468347],[119854,463226],[119902,461306],[117069,461980],[114244,459508],[116492,457817],[116547,454189],[119406,452912],[116749,451428],[114923,447470],[117911,447896],[118596,446527],[115898,445863],[117083,444338],[122220,447072],[127269,448904],[127829,451691],[129617,452603]]]},"properties":{"id":19,"statcode":"JZ19","jrstatcode":"2016JZ19","statnaam":"Utrecht West","rubriek":"jeugdregio","FID":"jeugdregio_gegeneraliseerd_2016.6eccec55-46f7-41ee-9275-d2ae5dc1c199"},"id":"JZ19"},
{"type":"Feature","geometry":{"type":"Polygon","coordinates":[[[149490,476625],[146713,477079],[143780,470814],[143263,468477],[143021,465373],[145162,464691],[146030,460917],[148908,456470],[151233,455101],[158504,453549],[159013,450773],[162590,452085],[159938,454664],[161776,456160],[163523,461040],[161443,462484],[160895,463969],[158603,464784],[158557,468501],[155411,470283],[156113,473189],[153377,475603],[149490,476625]]]},"properties":{"id":20,"statcode":"JZ20","jrstatcode":"2016JZ20","statnaam":"Eemland","rubriek":"jeugdregio","FID":"jeugdregio_gegeneraliseerd_2016.76ef89c7-f121-439c-a358-5fa10ba6cf39"},"id":"JZ20"},
{"type":"Feature","geometry":{"type":"Polygon","coordinates":[[[162590,452085],[164753,450218],[162349,445174],[161214,443901],[165515,442107],[166964,440688],[170040,439431],[171448,441019],[170949,444956],[174801,444770],[178153,445868],[179569,447996],[184250,448500],[186737,451594],[190134,451418],[190829,452772],[193314,454549],[193301,456931],[188991,457695],[187702,459813],[187329,462391],[183925,462666],[182678,467730],[179836,467351],[178483,469000],[179223,470259],[178166,472771],[175248,472548],[175082,470845],[171819,468925],[166123,468260],[163716,471824],[161591,472358],[161242,474425],[156113,473189],[155411,470283],[158557,468501],[158603,464784],[160895,463969],[161443,462484],[163523,461040],[161776,456160],[159938,454664],[162590,452085]]]},"properties":{"id":21,"statcode":"JZ21","jrstatcode":"2016JZ21","statnaam":"Food Valley","rubriek":"jeugdregio","FID":"jeugdregio_gegeneraliseerd_2016.6c1edfe8-5c9e-415d-9b60-f217b0f44293"},"id":"JZ21"},
{"type":"Feature","geometry":{"type":"Polygon","coordinates":[[[138939,452076],[139455,454415],[141831,454380],[138660,459080],[135821,460594],[134475,460861],[130706,458794],[128661,461579],[126714,460249],[127000,458393],[128806,455646],[128415,453164],[129617,452603],[132736,448770],[133299,452672],[138420,451610],[138939,452076]]]},"properties":{"id":22,"statcode":"JZ22","jrstatcode":"2016JZ22","statnaam":"Utrecht Stad","rubriek":"jeugdregio","FID":"jeugdregio_gegeneraliseerd_2016.9ab7c634-7efa-4855-8273-647a1cdefd3c"},"id":"JZ22"},
{"type":"Feature","geometry":{"type":"Polygon","coordinates":[[[161214,443901],[162349,445174],[164753,450218],[162590,452085],[159013,450773],[158504,453549],[151233,455101],[148908,456470],[146030,460917],[145162,464691],[143021,465373],[143263,468477],[141682,465538],[137006,465887],[135033,463033],[135821,460594],[138660,459080],[141831,454380],[139455,454415],[138939,452076],[142216,449275],[142298,447693],[144246,446899],[145860,444194],[146003,442511],[151282,440975],[152323,442141],[154697,442316],[158774,444174],[161214,443901]]]},"properties":{"id":23,"statcode":"JZ23","jrstatcode":"2016JZ23","statnaam":"Zuidoost Utrecht","rubriek":"jeugdregio","FID":"jeugdregio_gegeneraliseerd_2016.67fa898f-1bfa-471c-a8ec-daa3038de39b"},"id":"JZ23"},
{"type":"Feature","geometry":{"type":"Polygon","coordinates":[[[85728,467021],[80754,460567],[77713,457609],[68317,446694],[69829,444388],[72554,442725],[72870,441383],[75325,440585],[77385,438370],[79702,437540],[81889,439780],[86724,442036],[91234,446378],[91173,448616],[94442,449656],[98079,452874],[96279,455040],[93545,457014],[92237,459228],[91911,462763],[88247,464375],[85728,467021]]]},"properties":{"id":24,"statcode":"JZ24","jrstatcode":"2016JZ24","statnaam":"Haaglanden","rubriek":"jeugdregio","FID":"jeugdregio_gegeneraliseerd_2016.bc977d59-d804-4d35-a15b-e61a889d550d"},"id":"JZ24"},
{"type":"Feature","geometry":{"type":"Polygon","coordinates":[[[208731,435004],[209829,432967],[212021,431335],[217572,431468],[218309,429385],[220994,429590],[222243,427914],[224942,427006],[225394,429902],[224095,432191],[228277,431280],[229756,430033],[235220,433702],[241055,435846],[244229,437364],[246870,435016],[250135,437318],[251742,439473],[252027,442085],[254053,442725],[253844,445996],[248727,449778],[246038,451025],[244235,450969],[244674,454323],[247430,454898],[248478,456124],[249058,459841],[246025,459728],[242316,460984],[243109,462402],[242900,464864],[241039,465863],[238810,464597],[237333,466698],[234886,466102],[230594,466046],[229893,462147],[230665,460114],[229776,457504],[228181,458281],[226043,457025],[222244,459983],[221444,461259],[219428,461475],[215975,459656],[214667,458363],[213134,458728],[211422,456342],[209215,456189],[206454,452586],[204977,451410],[209087,450410],[208134,447557],[208123,443909],[203326,442378],[203426,439153],[208731,435004]]]},"properties":{"id":25,"statcode":"JZ25","jrstatcode":"2016JZ25","statnaam":"Achterhoek","rubriek":"jeugdregio","FID":"jeugdregio_gegeneraliseerd_2016.08b0c390-7893-450e-8df5-4015218ef557"},"id":"JZ25"},
{"type":"Feature","geometry":{"type":"Polygon","coordinates":[[[129617,452603],[127829,451691],[127269,448904],[122220,447072],[117083,444338],[118797,442308],[119970,438964],[122627,439519],[124252,441763],[126194,441295],[128265,443345],[129930,442430],[132130,443182],[134404,440249],[138648,438367],[140776,442134],[143457,441693],[146003,442511],[145860,444194],[144246,446899],[142298,447693],[142216,449275],[138939,452076],[138420,451610],[133299,452672],[132736,448770],[129617,452603]]]},"properties":{"id":26,"statcode":"JZ26","jrstatcode":"2016JZ26","statnaam":"Lekstroom","rubriek":"jeugdregio","FID":"jeugdregio_gegeneraliseerd_2016.a004e085-ddd9-4b0e-b57e-d60faf45c2a6"},"id":"JZ26"},
{"type":"Feature","geometry":{"type":"Polygon","coordinates":[[[117083,444338],[115898,445863],[118596,446527],[117911,447896],[114923,447470],[116749,451428],[119406,452912],[116547,454189],[116492,457817],[114244,459508],[108508,456372],[108948,454971],[105539,453096],[103559,454182],[98615,452571],[97381,444390],[100843,444691],[99787,442202],[103796,436270],[100919,435681],[102156,433723],[105501,433696],[108788,434373],[111968,436377],[114690,437179],[116842,439054],[119970,438964],[118797,442308],[117083,444338]]]},"properties":{"id":27,"statcode":"JZ27","jrstatcode":"2016JZ27","statnaam":"Midden Holland","rubriek":"jeugdregio","FID":"jeugdregio_gegeneraliseerd_2016.44813689-ada5-4490-947d-19b5849aedf8"},"id":"JZ27"},
{"type":"Feature","geometry":{"type":"Polygon","coordinates":[[[193314,454549],[190829,452772],[190134,451418],[186737,451594],[184250,448500],[179569,447996],[178153,445868],[174801,444770],[170949,444956],[171448,441019],[170040,439431],[173787,437940],[176933,435573],[176990,433912],[178275,433261],[185595,431628],[187346,434116],[188925,431323],[192063,431899],[194136,429971],[195917,430321],[196759,432077],[198358,432682],[201581,430983],[204612,429082],[208709,428303],[208722,430614],[207158,431516],[205827,434668],[208731,435004],[203426,439153],[203326,442378],[208123,443909],[208134,447557],[209087,450410],[204977,451410],[206454,452586],[204098,454672],[201656,455785],[198646,453413],[196355,454715],[193314,454549]]]},"properties":{"id":28,"statcode":"JZ28","jrstatcode":"2016JZ28","statnaam":"Arnhem","rubriek":"jeugdregio","FID":"jeugdregio_gegeneraliseerd_2016.efdef01a-c959-4da9-97c1-9cc652910946"},"id":"JZ28"},
{"type":"Feature","geometry":{"type":"Polygon","coordinates":[[[68226,426766],[70131,426707],[71875,424723],[76302,422470],[77557,424460],[83784,426122],[86721,427402],[93799,427779],[97539,427140],[98764,429042],[101098,429157],[103533,430705],[102156,433723],[100919,435681],[103796,436270],[99787,442202],[100843,444691],[97381,444390],[98615,452571],[98079,452874],[94442,449656],[91173,448616],[91234,446378],[86724,442036],[81889,439780],[79702,437540],[77385,438370],[75325,440585],[72870,441383],[72554,442725],[69829,444388],[68317,446694],[66221,444821],[62960,445935],[60590,444748],[59285,441005],[58725,437866],[62299,438142],[63448,437044],[61451,434235],[64088,429814],[61850,426979],[59821,430078],[56629,429299],[53651,427725],[50276,426730],[49353,424871],[49991,422947],[48128,419974],[48350,419755],[50393,422560],[52222,423824],[55837,424840],[58571,424686],[60795,422086],[61465,417555],[63943,414060],[66638,413999],[69829,412700],[69821,411235],[69949,411130],[72146,411148],[75506,408497],[78444,407885],[82015,408819],[86350,412121],[87001,412672],[81749,413222],[78074,415397],[72593,421298],[70569,421896],[62734,426654],[64495,429036],[65879,427489],[68226,426766]]]},"properties":{"id":29,"statcode":"JZ29","jrstatcode":"2016JZ29","statnaam":"Rijnmond","rubriek":"jeugdregio","FID":"jeugdregio_gegeneraliseerd_2016.32591634-6b63-422e-a159-59386048f67c"},"id":"JZ29"},
{"type":"Feature","geometry":{"type":"Polygon","coordinates":[[[138648,438367],[136105,433286],[134565,433389],[131347,430129],[130120,425644],[128329,425884],[131634,423310],[132702,421599],[134877,422149],[137771,420500],[137100,416575],[139550,417134],[142519,416989],[145155,416198],[148700,416448],[152674,418532],[153747,422352],[156000,425809],[158600,424566],[160391,424749],[161800,426761],[165600,425310],[166779,426559],[169530,426626],[168633,427854],[167480,432016],[168065,433786],[171424,434570],[176990,433912],[176933,435573],[173787,437940],[170040,439431],[166964,440688],[165515,442107],[161214,443901],[158774,444174],[154697,442316],[152323,442141],[151282,440975],[146003,442511],[143457,441693],[140776,442134],[138648,438367]]]},"properties":{"id":30,"statcode":"JZ30","jrstatcode":"2016JZ30","statnaam":"Rivierenland","rubriek":"jeugdregio","FID":"jeugdregio_gegeneraliseerd_2016.c0d7e0fb-ddec-4803-8dcc-19137fed3537"},"id":"JZ30"},
{"type":"Feature","geometry":{"type":"MultiPolygon","coordinates":[[[[102156,433723],[103533,430705],[101098,429157],[98764,429042],[97539,427140],[93799,427779],[86721,427402],[83784,426122],[77557,424460],[76302,422470],[76383,420357],[83105,417809],[87948,414909],[91441,414432],[95643,412897],[97680,413181],[101916,415225],[103119,414557],[103148,414566],[103633,414716],[103722,414742],[105807,415293],[110081,418742],[111391,421628],[114302,423624],[118250,423695],[120549,425600],[123901,426731],[128329,425884],[130120,425644],[131347,430129],[134565,433389],[136105,433286],[138648,438367],[134404,440249],[132130,443182],[129930,442430],[128265,443345],[126194,441295],[124252,441763],[122627,439519],[119970,438964],[116842,439054],[114690,437179],[111968,436377],[108788,434373],[105501,433696],[102156,433723]]],[[[80191,418316],[79961,416282],[82441,415834],[83561,416962],[80191,418316]]]]},"properties":{"id":31,"statcode":"JZ31","jrstatcode":"2016JZ31","statnaam":"Zuid-Holland Zuid","rubriek":"jeugdregio","FID":"jeugdregio_gegeneraliseerd_2016.c113e91b-c08c-4185-a408-096c05c9b164"},"id":"JZ31"},
{"type":"Feature","geometry":{"type":"Polygon","coordinates":[[[191782,414460],[192797,416905],[194043,417469],[196644,419904],[195827,423389],[193464,426247],[194680,427744],[196865,427100],[201030,429521],[201581,430983],[198358,432682],[196759,432077],[195917,430321],[194136,429971],[192063,431899],[188925,431323],[187346,434116],[185595,431628],[178275,433261],[176990,433912],[171424,434570],[168065,433786],[167480,432016],[168633,427854],[169530,426626],[172602,425437],[173391,423656],[178782,420426],[179722,418997],[182100,418241],[187100,419061],[189000,418027],[189485,415447],[191782,414460]]]},"properties":{"id":32,"statcode":"JZ32","jrstatcode":"2016JZ32","statnaam":"Nijmegen","rubriek":"jeugdregio","FID":"jeugdregio_gegeneraliseerd_2016.4e85773e-bec5-4bd0-90b1-ee96a6c506ae"},"id":"JZ32"},
{"type":"Feature","geometry":{"type":"Polygon","coordinates":[[[169530,426626],[166779,426559],[165600,425310],[161800,426761],[160391,424749],[158600,424566],[156000,425809],[153747,422352],[152674,418532],[148700,416448],[145155,416198],[142519,416989],[144212,415043],[145409,411823],[143864,411262],[143647,409454],[139753,408939],[138525,405560],[141117,401443],[142995,399640],[145229,398951],[147098,395991],[152170,395028],[156262,395484],[157542,393898],[161944,394760],[162836,392493],[164970,392905],[166117,394319],[165117,396549],[168670,397106],[171259,396058],[173664,398480],[182678,401110],[183654,398937],[186273,397594],[193023,396215],[197838,398059],[199758,396632],[200151,399670],[198825,403856],[195485,406489],[194273,413528],[191782,414460],[189485,415447],[189000,418027],[187100,419061],[182100,418241],[179722,418997],[178782,420426],[173391,423656],[172602,425437],[169530,426626]]]},"properties":{"id":33,"statcode":"JZ33","jrstatcode":"2016JZ33","statnaam":"Noordoost Brabant","rubriek":"jeugdregio","FID":"jeugdregio_gegeneraliseerd_2016.273b4997-eb3c-4806-9673-a432e5a3aae2"},"id":"JZ33"},
{"type":"Feature","geometry":{"type":"Polygon","coordinates":[[[128329,425884],[123901,426731],[120549,425600],[118250,423695],[114302,423624],[111391,421628],[110081,418742],[105807,415293],[103722,414742],[105194,411106],[107295,411218],[106416,408858],[107363,405695],[105006,405300],[104890,401935],[106148,401347],[107614,395870],[110217,393766],[109633,388725],[112410,390857],[115307,389668],[117119,388107],[115807,384529],[115980,381702],[113233,382773],[111995,381237],[113403,380154],[120140,380950],[123038,379051],[128404,383946],[129248,387442],[127289,388295],[127581,391575],[126572,392597],[121958,391342],[118856,394473],[118751,399037],[122193,401136],[121962,404625],[123556,406958],[123596,409870],[122577,414684],[124485,415015],[128930,413845],[131969,413732],[137100,416575],[137771,420500],[134877,422149],[132702,421599],[131634,423310],[128329,425884]]]},"properties":{"id":34,"statcode":"JZ34","jrstatcode":"2016JZ34","statnaam":"West Brabant Oost","rubriek":"jeugdregio","FID":"jeugdregio_gegeneraliseerd_2016.512889b5-a04c-4bf7-8950-e936171e8ca0"},"id":"JZ34"},
{"type":"Feature","geometry":{"type":"Polygon","coordinates":[[[135167,382240],[141357,382364],[143992,389976],[145562,391189],[145063,392983],[147098,395991],[145229,398951],[142995,399640],[141117,401443],[138525,405560],[139753,408939],[143647,409454],[143864,411262],[145409,411823],[144212,415043],[142519,416989],[139550,417134],[137100,416575],[131969,413732],[128930,413845],[124485,415015],[122577,414684],[123596,409870],[123556,406958],[121962,404625],[122193,401136],[118751,399037],[118856,394473],[121958,391342],[126572,392597],[127581,391575],[127289,388295],[129248,387442],[133584,386985],[135167,382240]]]},"properties":{"id":35,"statcode":"JZ35","jrstatcode":"2016JZ35","statnaam":"Midden-Brabant","rubriek":"jeugdregio","FID":"jeugdregio_gegeneraliseerd_2016.ac04f218-1509-4255-9537-3943f04d86aa"},"id":"JZ35"},
{"type":"Feature","geometry":{"type":"Polygon","coordinates":[[[75394,405646],[72619,403914],[72432,400682],[74633,397836],[75119,395550],[73890,391299],[77706,382361],[76849,381415],[77733,376905],[81710,377025],[82154,374784],[85158,374385],[88472,376643],[85198,381808],[85432,385014],[89355,387045],[95991,388488],[96707,387475],[95407,384843],[95755,381891],[98502,382953],[102344,382140],[105098,382165],[104904,384152],[106755,384977],[109633,388725],[110217,393766],[107614,395870],[106148,401347],[104890,401935],[105006,405300],[107363,405695],[106416,408858],[107295,411218],[105194,411106],[103722,414742],[103633,414716],[103148,414566],[103119,414557],[100701,412320],[93136,410720],[89482,412429],[87001,412672],[86350,412121],[85865,409369],[84819,408066],[76446,405398],[75394,405646]]]},"properties":{"id":36,"statcode":"JZ36","jrstatcode":"2016JZ36","statnaam":"West Brabant West","rubriek":"jeugdregio","FID":"jeugdregio_gegeneraliseerd_2016.596a9fa6-1646-439c-9119-9279cd89bf07"},"id":"JZ36"},
{"type":"Feature","geometry":{"type":"Polygon","coordinates":[[[202865,361693],[206449,365310],[208456,368970],[209470,371835],[213448,374907],[211928,379252],[213105,387657],[212255,391923],[209787,394695],[208376,397797],[205882,400683],[203783,402137],[205574,407716],[199978,409508],[199156,413520],[199340,415420],[196926,416796],[194043,417469],[192797,416905],[191782,414460],[194273,413528],[195485,406489],[198825,403856],[200151,399670],[199758,396632],[197838,398059],[193023,396215],[186273,397594],[187311,390673],[188680,384666],[192875,377429],[188940,373900],[186560,373172],[187409,370268],[191293,369445],[194578,368044],[198334,365544],[198186,363423],[199723,361997],[201353,362778],[202865,361693]]]},"properties":{"id":37,"statcode":"JZ37","jrstatcode":"2016JZ37","statnaam":"Noord-Limburg","rubriek":"jeugdregio","FID":"jeugdregio_gegeneraliseerd_2016.bfdc8641-a752-4406-9095-3a9b281fc50a"},"id":"JZ37"},
{"type":"Feature","geometry":{"type":"MultiPolygon","coordinates":[[[[65940,406790],[68393,402106],[64294,403509],[60534,401771],[58167,401351],[59199,399341],[62206,396776],[64146,393787],[70106,393360],[70832,391107],[73508,389875],[74063,383969],[71176,384570],[67792,383227],[65054,384932],[62703,388276],[61628,391270],[58685,393352],[55785,394506],[53707,396041],[49598,395662],[51374,399204],[49337,402355],[47474,403014],[42398,402440],[39825,401616],[37042,402365],[37307,405036],[39284,406806],[39641,408024],[40144,408152],[39861,408843],[40094,410207],[46226,413257],[46936,411686],[50531,409792],[51320,405849],[53989,405440],[56728,403786],[59614,404083],[63588,405457],[65675,407313],[66580,410217],[69949,411130],[69821,411235],[66957,410825],[65387,409503],[62141,411504],[60112,411766],[59600,413610],[57333,416965],[53264,416899],[51424,418348],[48815,417659],[48350,419755],[48128,419974],[46458,418065],[44657,418478],[39602,417671],[36951,414521],[37586,411292],[38847,410021],[39688,409773],[39837,408828],[39299,408586],[39584,407969],[39165,407284],[36986,405275],[36703,402596],[33824,401584],[29950,402189],[27712,401490],[23085,398973],[19700,396489],[19338,395093],[20572,393347],[23680,390978],[25594,387597],[28600,385071],[33563,385277],[34960,386931],[39101,383172],[41474,381897],[45382,378574],[49849,379776],[51537,379476],[53382,383837],[53085,384976],[56893,386872],[58818,384784],[63980,380648],[69150,379103],[72235,380419],[74614,379009],[75348,376806],[77733,376905],[76849,381415],[77706,382361],[73890,391299],[75119,395550],[74633,397836],[72432,400682],[72619,403914],[75394,405646],[72550,406110],[70717,407993],[67330,407959],[65940,406790]],[[49413,395826],[46357,396732],[44373,395890],[41756,396664],[40246,395756],[37970,392985],[34915,399247],[37486,397417],[38921,395320],[42181,397496],[45157,396617],[47479,397475],[49413,395826]]],[[[37023,376568],[29849,379049],[26874,381158],[24971,381483],[19300,379595],[18341,379736],[14510,377787],[15501,373583],[13565,371491],[14325,368905],[16814,364939],[19534,363159],[25195,363553],[24432,368103],[29045,369230],[29739,369891],[33181,367990],[34400,368192],[36854,366563],[41151,365714],[43890,364181],[43378,359743],[45815,358922],[48259,359055],[50109,357842],[55185,359468],[59180,362650],[62182,362409],[69897,367879],[74710,373841],[73120,376407],[70857,376227],[69659,373673],[67280,373364],[64369,375798],[61923,376095],[59609,380023],[56691,380677],[55495,376110],[52626,375706],[49058,373008],[47340,372981],[43665,374591],[39183,374636],[37023,376568]]]]},"properties":{"id":38,"statcode":"JZ38","jrstatcode":"2016JZ38","statnaam":"Zeeland","rubriek":"jeugdregio","FID":"jeugdregio_gegeneraliseerd_2016.bb3156dc-df34-4b73-8b56-67bf4495652f"},"id":"JZ38"},
{"type":"Feature","geometry":{"type":"Polygon","coordinates":[[[135167,382240],[133005,378307],[137200,373093],[137372,369613],[139342,369030],[141969,370396],[144888,368449],[143748,364340],[148645,363577],[151478,363758],[152143,365161],[157109,363663],[158808,365869],[160416,366144],[161682,367881],[163968,367333],[166916,363701],[167495,359075],[171176,360033],[171662,364949],[174864,369576],[186560,373172],[188940,373900],[192875,377429],[188680,384666],[187311,390673],[186273,397594],[183654,398937],[182678,401110],[173664,398480],[171259,396058],[168670,397106],[165117,396549],[166117,394319],[164970,392905],[162836,392493],[161944,394760],[157542,393898],[156262,395484],[152170,395028],[147098,395991],[145063,392983],[145562,391189],[143992,389976],[141357,382364],[135167,382240]]]},"properties":{"id":39,"statcode":"JZ39","jrstatcode":"2016JZ39","statnaam":"Zuidoost-Brabant","rubriek":"jeugdregio","FID":"jeugdregio_gegeneraliseerd_2016.f97c4bd5-9d3a-4f91-8185-50a6dd132932"},"id":"JZ39"},
{"type":"Feature","geometry":{"type":"Polygon","coordinates":[[[183894,341248],[182470,341550],[181011,338295],[182310,337054],[181599,334295],[178390,330356],[181055,329600],[178817,325772],[176879,324535],[176742,323248],[173590,320620],[172726,317564],[173954,314971],[177021,312979],[177168,310409],[175892,308144],[176707,307248],[180179,308708],[182488,310379],[184654,307437],[190205,309021],[191264,306964],[195346,308204],[196578,307328],[199231,307423],[200166,309561],[196441,312192],[198463,312580],[199936,313974],[199504,317573],[201125,318141],[203384,317638],[204338,320527],[203438,322756],[203865,325987],[199358,327410],[199329,332873],[195659,332405],[194882,333350],[190813,331812],[191383,334854],[189490,336614],[189359,338163],[187352,339740],[183894,341248]]]},"properties":{"id":40,"statcode":"JZ41","jrstatcode":"2016JZ41","statnaam":"Zuid-Limburg","rubriek":"jeugdregio","FID":"jeugdregio_gegeneraliseerd_2016.2952d167-656c-47d5-930d-8e14a6fbb1ff"},"id":"JZ41"},
{"type":"Feature","geometry":{"type":"Polygon","coordinates":[[[189359,338163],[190059,340408],[191871,342057],[193647,338537],[195720,339625],[195921,341236],[197784,344035],[200482,345425],[204351,349723],[209028,351359],[210141,352410],[207562,354038],[204893,353704],[202961,355048],[202561,359242],[202865,361693],[201353,362778],[199723,361997],[198186,363423],[197938,360691],[194428,357015],[190436,358656],[189010,355848],[185721,353136],[187779,350686],[184593,347744],[186262,345654],[183579,344534],[183894,341248],[187352,339740],[189359,338163]]]},"properties":{"id":41,"statcode":"JZ42","jrstatcode":"2016JZ42","statnaam":"Midden-Limburg Oost","rubriek":"jeugdregio","FID":"jeugdregio_gegeneraliseerd_2016.8acddac5-736c-4454-abd3-01e0ab2dc6f3"},"id":"JZ42"},
{"type":"Feature","geometry":{"type":"Polygon","coordinates":[[[198186,363423],[198334,365544],[194578,368044],[191293,369445],[187409,370268],[186560,373172],[174864,369576],[171662,364949],[171176,360033],[167495,359075],[173121,356759],[173937,355071],[177525,354605],[181566,354988],[182442,352289],[185721,353136],[189010,355848],[190436,358656],[194428,357015],[197938,360691],[198186,363423]]]},"properties":{"id":42,"statcode":"JZ43","jrstatcode":"2016JZ43","statnaam":"Midden-Limburg West","rubriek":"jeugdregio","FID":"jeugdregio_gegeneraliseerd_2016.b2aed6ed-3ebc-4ef9-81a4-5dd4ced950ca"},"id":"JZ43"}
]}