{"type":"Topology","arcs":[[[72281,121689],[-3328,2516],[-4704,102],[-1862,965],[-1685,3021],[-3510,3040],[-3743,1099],[-3012,-364],[-4690,-1665]],[[45747,130403],[-281,1453],[1806,2632],[-4,2651],[3784,82],[3880,2380]],[[54932,139601],[1325,-2169],[2991,-1822],[1900,-2706]],[[61148,132904],[527,-4252],[2212,-781],[9331,-113],[1485,2626],[-2534,4802]],[[72169,135186],[3354,1409],[2869,397],[2928,-2045],[5661,3498],[-321,-2857],[-1530,-1157],[-166,-3564],[-1145,-2134]],[[83819,128733],[1789,-432]],[[85608,128301],[-540,-2764],[-2537,-1013],[-4600,-695],[-3265,1200],[-2151,-625],[-234,-2715]],[[115895,177097],[-2921,1378],[-1165,-1869],[-3094,-1013],[133,-1263]],[[108848,174330],[-6161,812]],[[102687,175142],[-4275,3488],[97,2376]],[[98509,181006],[96,2097],[-1982,460],[743,3390],[7929,-1699],[469,1498],[4627,-2078],[1154,1100],[3575,407],[4623,-1034]],[[119743,185147],[-2950,-3053],[-4371,-2766],[3473,-2231]],[[111969,169831],[-1745,3240],[3320,2622],[2952,-3197]],[[116496,172496],[-4527,-2665]],[[201368,288413],[-7443,2823],[-545,2580],[1538,2276]],[[194918,296092],[4310,487],[3506,-2405],[1622,1329],[3909,1271],[10174,1980]],[[218439,298754],[140,-623]],[[218579,298131],[-2138,-120],[-489,-2902],[-2477,-1898],[1070,-4304],[-2514,-2117],[-6129,-1329],[-2536,538],[-1998,2414]],[[233833,282440],[-8513,-5511],[1624,-3643]],[[226944,273286],[-589,-2382],[2251,-3329],[372,-3264]],[[228978,264311],[-3983,-1738],[-1113,2632]],[[223882,265205],[-3679,3063],[-1981,4158],[-4870,428]],[[213352,272854],[-2491,2520],[-5537,3154],[-4394,-833],[-3112,1171]],[[197818,278866],[10,84]],[[197828,278950],[1429,3570],[1659,1656],[452,4237]],[[218579,298131],[-1379,-4865],[1810,-2629],[3570,-2348],[1010,-2546],[4695,-1794],[1267,1404],[2389,-290],[1892,-2623]],[[243949,286769],[10599,-2246],[-228,-3704],[1591,-1302],[6874,-1581],[968,-4321],[-2418,-6661],[1664,-2756],[260,-6437]],[[263259,257761],[-4907,-1964],[-1921,2428],[-4557,281],[-1312,762],[1737,3362],[-990,1579],[-2711,-40],[-6821,1231],[-5550,-615],[1080,6445],[-6920,-1054],[-3443,3110]],[[233833,282440],[2749,1664],[-755,2035],[2332,1669],[-992,3068],[-1630,836],[-1644,3517],[4363,2807],[2063,-1559]],[[240319,296477],[961,-1344],[846,-4980],[2805,-2129]],[[244931,288024],[-982,-1255]],[[263259,257761],[707,-4933],[-1915,-7782],[-4980,-8766],[-715,-2882]],[[256356,233398],[-3622,3770],[-1706,-24],[1948,4826],[-2163,1119],[-5414,7342],[-10899,11058]],[[234500,261489],[-2656,2696],[-2866,126]],[[213352,272854],[-3673,-2497],[-1737,-2775],[-1132,-5116]],[[206810,262466],[-1236,-2293],[-1970,740]],[[203604,260913],[-3599,2203],[-3815,105],[-1984,2148],[72,3525],[1455,3541],[1992,2162],[-794,2667],[887,1602]],[[218439,298754],[7283,2912],[5866,1091],[3501,-1225],[1087,1011],[4767,-2279],[-624,-3787]],[[215129,310425],[-1926,-1458],[-1557,1758],[1107,1535],[2376,-1835]],[[143062,266951],[1750,6429],[3006,3443],[2980,1880],[3982,4806],[6270,2681],[12393,6329],[9327,2346],[5684,825],[2971,-489],[3493,891]],[[197828,278950],[-2592,1443],[-3497,-665],[-6456,-2382],[643,5264],[1240,193],[137,3554],[-3539,-61],[-72,-1675],[-2996,-268],[-802,1778],[-6888,-3893],[-1835,-2220],[-47,-2844]],[[171124,277174],[-1099,-1924],[-5717,1033],[1017,-4164],[-448,-2816],[-3008,808],[-2658,-1523],[-4185,1257],[-760,-1691],[1721,-2023],[-2615,-1656],[-2518,1823],[-1677,-905],[-4531,1729],[-1584,-171]],[[171124,277174],[3267,-1977],[-1526,-2354],[321,-3615],[4293,-293],[-1155,-2672],[2360,-2523],[-641,-1415],[-3461,-269],[-775,-2836],[4233,-343],[666,-4093],[-3646,-2972],[-22,-4455],[3151,-6652],[-3174,-2307],[-1968,-2654],[-2443,-5944]],[[170604,229800],[-1658,-1208]],[[168946,228592],[-3151,3685],[-2424,-206]],[[163371,232071],[-3715,614],[-893,1860],[-4022,-1239],[-2708,-1795],[-6122,2407],[-1858,-767],[-2150,1214],[-2712,3010],[3536,2645],[-347,3221],[746,2720],[-918,3126],[633,3219],[-1958,9764],[1705,1513],[474,3368]],[[126639,249984],[-60,70]],[[126579,250054],[60,-70]],[[203604,260913],[-645,-1446],[4200,-1482],[-278,-3748],[4449,-6826],[-2230,-4369],[-3333,-2516]],[[205767,240526],[-2769,1574],[-3098,248],[-3291,-4141],[-5824,-4127]],[[190785,234080],[-5931,-4424],[-2228,169],[-1769,2813],[-6405,-4646],[-3848,1808]],[[138933,292902],[-3720,-1615],[-4475,-507],[-3276,-2434],[-1120,2701],[2068,2718],[2146,910],[6110,1213],[8527,2574],[4483,1730],[2060,-1811],[-5060,-2248],[-616,-1173],[-4940,-254],[-2187,-1804]],[[174463,300586],[-5235,-1739],[-5007,567],[-4264,-2629],[-3447,2826],[933,2389],[8602,-757],[8337,863],[81,-1520]],[[174414,300653],[49,-67]],[[174463,300586],[-49,67]],[[189470,305641],[2962,602],[7387,281],[-926,-3035],[-6095,-620],[-3328,2772]],[[121864,282950],[-8265,-3301],[857,-1897],[-3816,-3385],[-3815,-555],[-784,1169],[4294,2825],[2606,2440],[5055,3449],[1905,651],[1963,-1396]],[[223882,265205],[-4658,-1962],[-691,2166],[-3922,-1368],[-4592,-3317],[-3209,1742]],[[240867,217250],[-4541,828],[-1010,3135],[-1390,1079],[-2525,-893],[-297,-2878],[-7060,-2734],[-889,4176],[-3259,148],[-1545,1992]],[[218351,222103],[-2406,5490],[-3604,1166],[1573,3944],[-2174,1208],[-765,3535],[-4088,1303],[-1120,1777]],[[234500,261489],[-5325,-3519],[-1642,79],[-1927,-2162],[1611,-3302],[616,-3181],[2375,-1251],[1313,-2309],[-171,-1934],[995,-6935],[2067,-2839],[5653,-4831],[-1122,-2757],[1924,-9298]],[[218723,212217],[-1010,-900],[345,-3610],[-5765,1288],[-3380,-1624],[-1329,3420],[-2509,1691]],[[205075,212482],[-5142,1183],[-2569,1807],[-2091,-1288],[-1884,2030],[-2471,6377],[2456,1324],[2997,3489],[-5586,6676]],[[218351,222103],[-2585,179],[-3049,-2123],[476,-3660],[4623,-64],[907,-4218]],[[240867,217250],[2087,-172],[4189,-1912],[636,551],[6694,-330]],[[254473,215387],[-114,-3683],[-912,-1245],[-4494,1406],[-2516,-989],[-2830,1446],[-5095,-518],[-3005,384],[-2380,-748],[-2126,-1991]],[[231001,209449],[-146,2338],[-6405,2700],[-4165,-1009],[-1562,-1261]],[[256356,233398],[-1356,-3135],[-527,-14876]],[[190570,188042],[-732,3274],[-4910,4360],[-4212,-3728],[-2711,-290],[-1651,3504],[-2470,1410]],[[173884,196572],[-389,2561],[-1662,3712],[564,4006]],[[172397,206851],[3500,802]],[[175897,207653],[2474,-437],[3874,1293],[1823,2037],[-2238,1516]],[[181830,212062],[-3432,2003],[2085,1982],[-2954,6448],[-4889,3693],[-2072,-7],[-1622,2411]],[[205075,212482],[-1589,-6875],[1130,242],[2939,-8286],[-1964,-1352],[786,-6170],[2438,-20],[178,-2969]],[[208993,187052],[-3127,-629],[-1353,940],[-5575,-1250],[-6336,2073],[-2032,-144]],[[231001,209449],[1195,-1399],[-623,-7424],[-1133,-6938]],[[230440,193688],[-1943,923],[-3275,-4512],[-3253,-976],[-1963,489],[-2124,-1605],[-2481,399],[-1506,2098],[-1620,-2407],[-2592,-1221]],[[209683,186876],[-690,176]],[[235496,152883],[-3028,-120],[-3713,1264],[586,3890],[-5567,1809],[-2451,-583],[-5218,528],[-3459,4442],[-896,2117]],[[211750,166230],[3665,2878],[-769,5801],[-2674,589],[-4493,-868],[-1564,3663],[625,2080],[3065,1124],[1081,4004],[-1003,1375]],[[230440,193688],[5282,-2868],[5424,116],[530,-918],[5464,-1659],[3479,3421],[1238,-4019],[1789,-2907],[1311,-148],[1211,-3119],[-2903,-9059],[110,-1558],[2415,-4758],[-5451,-1700],[-1936,-4437],[-2941,-629],[-1739,-2261],[-1733,-3988],[-6494,-314]],[[195051,164408],[-1674,-14],[-3212,8141],[-1933,3243]],[[188232,175778],[655,4669],[2093,559],[1044,2520],[-1344,871],[-110,3645]],[[211750,166230],[-4501,-128],[-806,-1620],[-11392,-74]],[[159308,207220],[-71,83]],[[159237,207303],[-2326,3894],[-1540,1114],[112,11407],[4249,7077],[3639,1276]],[[181830,212062],[-1347,-2048],[-8829,-2974],[-12346,180]],[[172397,206851],[3500,802]],[[159308,207220],[237,-1927],[6892,-1713],[3944,-563],[2591,-2860],[374,-3434],[-518,-2744],[-3633,-6336],[-3310,-2758],[-1690,278],[-4047,-2055],[-3505,-3496],[-3183,67],[-1797,-2223],[1050,-3101],[-1617,-4980],[-7927,-2478],[-6508,5659],[-2598,1736],[-6328,1856],[-3407,203],[-478,5054],[2234,1836],[6600,3984],[11977,8440],[2,1957],[1954,2576],[2409,349],[3983,4095],[4765,1520],[1463,1141]],[[184057,147183],[-4288,389]],[[179769,147572],[-59,2402],[-4268,750],[-1677,4700],[-3416,282],[-1166,5063],[-2888,-373],[-1691,5419],[2375,672],[-811,2209],[6354,-97],[-145,4142],[2708,3448],[-1095,2701],[-3663,4782],[-2783,-824],[-940,1238]],[[166604,184086],[3184,2709],[2913,5321],[1183,4456]],[[188232,175778],[-1431,-554],[-1191,-3452],[601,-1788],[-978,-3347],[1289,-3129],[197,-3915],[2043,-5142],[-1825,-1617],[-2880,-5651]],[[195051,164408],[1386,-5473],[-639,-2896],[633,-4198],[1590,-387],[376,-2370],[2189,-152],[825,-2677],[-200,-4516],[2366,-3308],[-2871,-1969],[-7227,416],[-3714,-1445]],[[189765,135433],[-2004,1548],[-4908,-879]],[[182853,136102],[-1999,1545],[2350,4226],[-1243,3117],[2096,2193]],[[140185,115391],[-1516,1615]],[[138669,117006],[892,109],[3416,4332],[2447,4454],[4336,622],[4167,1356],[8735,-714],[8385,-2739]],[[171047,124426],[-3124,-5266],[2713,-3585],[1820,1724],[3308,396],[1259,1972],[-1159,4221],[2627,1036],[2282,-2075],[1507,365],[2842,4222],[-2349,1790],[-2226,3956]],[[180547,133182],[732,2624],[1574,296]],[[189765,135433],[147,-4228],[4313,-2696]],[[194225,128509],[-1974,-791],[1350,-3166],[1558,-886],[-13,-2321],[-5257,1228],[-2421,11],[-4168,-2443],[-2181,644],[-1219,-1498],[2331,-2878],[856,-3456],[-2576,-2108]],[[180511,110845],[-2622,533],[-1501,2782],[-1951,-2263]],[[174437,111897],[-5914,-619],[-2101,530],[-4421,3796],[-1520,355],[-1848,2746],[-3343,1146],[-3318,-1509],[-3436,1582],[-1706,-2135],[-1787,-181],[-2348,1401],[-2510,-3618]],[[171047,124426],[885,2621],[-3351,5140],[2859,766],[5394,-1457],[2041,2911],[1672,-1225]],[[138669,117006],[-3523,2184],[-6626,-1474],[-4993,556],[-2087,1120],[-4861,-720]],[[116579,118672],[1813,5799],[4151,1853],[4645,8870]],[[127188,135194],[2268,-803],[2226,1959],[4996,-2574],[2085,1430],[2932,317]],[[141695,135523],[2712,1392],[3859,67],[4544,-2918],[3672,-1577],[1379,3415],[-1410,2249]],[[156451,138151],[2160,-244],[6556,1005],[842,2103],[4669,504],[2497,3095],[3398,-151],[3196,3109]],[[140185,115391],[-1070,-3815]],[[139115,111576],[-4014,-2077],[-3485,-276],[-1679,1034],[-6400,-640],[651,3928],[-2525,1589],[-2265,-787],[-1331,1996],[-3260,2584]],[[114807,118927],[1772,-255]],[[142552,166235],[8501,1908],[2170,5369],[3561,3900],[4524,3557],[5296,3117]],[[156451,138151],[-3316,6074],[345,3274],[-5399,-975],[937,6746],[-1301,3843],[-2091,247]],[[145626,157360],[-1724,366],[1039,3070],[-3065,2476],[676,2963]],[[235496,152883],[-581,-3717],[-3804,-1800],[-438,-3355],[4491,-1191],[5129,-3783],[197,-3270],[-2026,-640],[-285,-2611],[-1607,-2156],[-3270,-2300],[-2054,2038],[-10293,-3746],[-4747,-3278],[-1494,1248],[-3445,434],[118,-4704],[-2706,909],[-1255,1668],[-2669,-241],[-415,1702],[-5897,289],[-4220,4130]],[[126014,150739],[750,800],[2905,8262]],[[129669,159801],[1905,-2074],[1450,-5021],[3180,-1842]],[[136204,150864],[1463,-2712],[501,-2862],[5049,-3262],[4954,3010],[-580,-3810],[-2142,-2687],[-3119,-1059],[-635,-1959]],[[127188,135194],[-2201,877],[-1929,2716]],[[123058,138787],[522,6133]],[[123580,144920],[2120,373],[192,2157],[1777,1677],[-1655,1612]],[[129702,161518],[-33,-1717]],[[126014,150739],[-3756,2902],[-822,2452],[1410,2732],[-6064,-2038],[-372,-1298],[-3279,-2208],[-3188,-891],[1956,-5709],[7472,-1674],[4209,-87]],[[123058,138787],[-3570,-561],[-2380,-2746],[-2768,740],[-1543,-1780],[-1833,454],[-2201,-2438],[-2349,-472]],[[106414,131984],[-1179,3367],[-3877,5161],[1826,3961],[-241,6367],[-2263,1718],[2745,2414],[2917,-615],[-487,3854]],[[105855,158211],[-3654,3159],[-1258,2799]],[[100943,164169],[3883,1308],[1299,1609]],[[106125,167086],[2790,-86],[3054,2831]],[[116496,172496],[1440,-2228],[-1024,-1688],[3098,-5832],[4129,-122],[768,-1940],[-1463,-1752],[4675,-354],[1583,2938]],[[145626,157360],[-3452,-3664],[-2899,314],[-3071,-3146]],[[129702,161518],[516,2334],[2932,6269],[2769,-474]],[[135919,169647],[3883,-1002],[2750,-2410]],[[126639,249984],[-8613,-7513],[4992,-9521],[-688,-7958]],[[122330,224992],[-4754,-2486],[-5899,267],[-2394,5546]],[[109283,228319],[-1229,4950],[1234,2645],[-2226,1760]],[[107062,237674],[4215,1858],[1967,2841],[5777,1157],[7558,6524]],[[88554,173950],[1280,2639],[2946,1465],[345,2933]],[[93125,180987],[3715,984],[1669,-965]],[[102687,175142],[-205,-1645],[-2288,-2851],[-3900,-2358],[-3831,-3595]],[[92463,164693],[-2593,-1596],[-5378,743]],[[84492,163840],[1050,5130],[1385,1312],[1627,3668]],[[100943,164169],[-4879,-1091],[88,1734],[-3689,-119]],[[108848,174330],[-2102,-4399],[-621,-2845]],[[89800,210237],[2032,13962],[1631,3977],[2117,7950],[595,6595],[1153,3357],[2477,302],[2259,-1407],[-686,-1857],[1031,-2623],[4653,-2819]],[[109283,228319],[-8096,544],[-2668,-2262],[-3261,-6070],[1113,-3978],[1415,-1828]],[[97786,214725],[-1902,-4216],[-6084,-272]],[[98613,260795],[5332,8143],[1902,1604],[3506,-5341],[-756,-6300],[-3303,-4861],[-1959,-606],[-2356,-3017],[-4562,-1463],[-490,3112],[1179,5912],[1507,2817]],[[122330,224992],[3441,-3693],[2539,1502],[4389,-174],[1683,-1254],[-203,-5578],[-2259,-740],[-729,-3157],[-5099,-3567],[-2166,139],[-3169,1824],[-3967,-1047],[-247,-2272]],[[116543,206975],[-1010,-1635],[-3731,-240],[-95,2020],[-4339,-5],[-225,2290],[-2835,1406],[-581,-1467],[-2590,650]],[[101137,209994],[-1714,1468],[881,2768],[-2518,495]],[[93125,180987],[-35,3662],[2140,3058],[-2218,1982],[2750,4174],[-1478,1980],[160,3747],[1658,774],[-12,3167],[2601,1254],[2446,5209]],[[116543,206975],[746,-4984],[3679,-7115],[-3197,-4305],[1972,-5424]],[[115895,177097],[1309,-1145],[3114,676],[3843,-1387],[1863,-2381],[4897,614],[4271,-1860],[727,-1967]],[[88554,173950],[-3282,-448],[-4727,2169]],[[80545,175671],[4276,10443],[813,5048],[1918,5093],[2248,13982]],[[72281,121689],[4556,-1166],[6600,-107],[2096,-2590],[3070,-900],[3495,2172]],[[92098,119098],[5450,39],[2573,-753],[6677,106]],[[106798,118490],[-2693,-1963],[-1689,37]],[[102416,116564],[-1671,104],[-3269,-1992],[-931,-2428],[-2903,-2513],[-3066,-707],[-5845,-2525],[-2631,-622],[-8361,2444],[-650,-1199]],[[73089,107126],[-22,8]],[[73067,107134],[455,1316],[-5964,3320],[-4691,1565],[-571,2171],[-3995,2240],[-1736,1997],[-1958,-320],[-3674,2658],[-1749,-1158]],[[49184,120923],[-15,22]],[[49169,120945],[1344,1851],[-2628,4284],[1755,3462],[-3893,-139]],[[85608,128301],[2979,-1526]],[[88587,126775],[3444,-5308],[67,-2369]],[[61148,132904],[4996,-2318],[1590,1795],[4435,2805]],[[73089,107126],[349,-1412]],[[73438,105714],[-660,-559]],[[72778,105155],[-2527,-2422],[-5379,-1813],[-3319,843],[-2943,2427],[-2222,-20]],[[56388,104170],[-138,114]],[[56250,104284],[-2295,2602],[-3572,204],[-3195,3969],[-73,4053],[-2032,2548],[-2821,219],[-3610,-1003],[-3918,-4027]],[[34734,112849],[-166,192]],[[34568,113041],[1848,3090],[-523,2815],[1792,1186],[8752,2503],[2732,-1690]],[[49184,120923],[953,-2064],[6698,-3791],[1996,-725],[5188,-5555],[4325,-2563],[3903,-88],[820,997]],[[71917,149809],[3182,3271],[3398,5016],[1738,3433],[1733,1718],[2524,593]],[[105855,158211],[-1042,-794],[-4102,966],[-5917,-2445],[-1764,1178],[-4170,-403]],[[88860,156713],[-3163,-684],[-2588,-3689],[-184,-5093],[1593,-1331]],[[84518,145916],[-3643,-3220],[-1917,-2],[-1775,1979],[-5027,1296],[-2837,1682],[2598,2158]],[[88860,156713],[178,-2846],[1294,-3974],[4363,-357],[645,-1443],[-3786,-1948]],[[91554,146145],[-1568,1098],[-5468,-1327]],[[106414,131984],[-3145,111],[-1818,-1772],[-2892,-803],[-2746,-1894],[-3798,-892],[-3428,41]],[[83819,128733],[5770,3263],[1222,4685],[-2271,2281],[4422,3158],[-1408,4025]],[[114807,118927],[-2161,314]],[[112646,119241],[-2308,532],[-3540,-1283]],[[71917,149809],[-1991,388],[-2678,3373]],[[67248,153570],[5609,7520],[3024,5226],[4664,9355]],[[54932,139601],[8974,10675],[3342,3294]],[[34734,112849],[848,-2092],[2277,620],[1670,-1452],[4066,180],[2423,-3423],[524,-1871],[2041,-265],[3381,-1890],[1087,1038],[3199,590]],[[56388,104170],[-3626,-1000],[-706,-2892],[-1746,-1577],[-4259,-1557],[-2903,-313],[-1513,1354],[-3879,670],[-791,3976],[-3593,1895],[-702,1602],[-6724,-3397],[-1877,1427],[-633,3034],[1746,2627],[4530,1432],[3473,-419],[1383,2009]],[[61777,98661],[-2721,-1705],[-511,-2291],[3056,-5296]],[[61601,89369],[-790,-2908]],[[60811,86461],[-1309,-1922],[766,-2123]],[[60268,82416],[-64,-9]],[[60204,82407],[-2767,1615],[-863,2374],[-6273,610],[-3397,4496],[-2733,1580],[5537,3374],[4427,10],[-1752,3356],[2466,1090],[3900,-2090],[3028,-161]],[[19995,94297],[-61,137]],[[19934,94434],[3253,1139],[2847,-922],[6339,1412],[3399,-662],[2035,-3175],[18,-1526],[-2759,-1490],[-1199,1326],[-2279,-878],[-2971,883],[-3204,-2112],[-1773,2415],[-3645,3453]],[[61100,82535],[-280,-40]],[[60820,82495],[4,685]],[[60824,83180],[276,-645]],[[19995,94297],[-504,-1331],[2800,-2797],[1230,-3064],[2481,-80],[2039,2654],[2777,-752],[1962,912],[2754,-1280],[4635,529],[2060,-1536],[3264,-1094],[2630,-2210],[776,-2295],[2636,-4000],[2690,-1636],[3429,1295],[2847,-590],[-297,5385]],[[60268,82416],[552,79]],[[61100,82535],[146,-343]],[[61246,82192],[-1,-3030],[1753,-1072]],[[62998,78090],[1319,-8137]],[[64317,69953],[-2500,-106],[-752,2204],[-2224,1366],[-3175,-1262],[-6440,2247],[-1020,1424],[-4876,4093],[-3790,-1900],[271,-1126],[-1845,-4380],[-6158,-894],[-6291,4709],[-4036,3713],[-1467,-1684],[-4926,-266],[-2686,2209],[-2208,3883],[-3320,2413],[-601,3122],[9626,5543],[4035,-827]],[[21725,70448],[3760,-2700],[4615,-112],[1231,-1219],[4144,-382],[639,1096],[5042,2239],[1918,4253],[3100,-577],[2188,-3908],[2465,-297],[3215,-2527],[1640,575],[2436,3216],[3043,-3207],[-4773,-5915],[-7772,-5530],[-3001,239],[-4005,-3188],[-5065,-1638],[-1858,1224],[-4871,688],[512,4449],[-2736,1523],[-4302,857],[-7113,3326],[-5309,-1786],[764,-4552],[-5675,-388],[-4035,3638],[-613,3271],[-1309,1414],[1941,2091],[-1106,3902],[961,1012],[7469,2050],[3843,681],[2937,-2088],[5680,-1730]],[[61777,98661],[7886,1463],[5266,5360],[4644,-1586],[7557,1458],[3257,1850]],[[90387,107206],[2466,-5306],[949,-3166]],[[93802,98734],[-2338,-395]],[[91464,98339],[-2845,-1087],[-4474,536],[-2850,-2300],[-2654,1372],[-3734,-840],[910,-5924],[-4379,-1532],[-5662,1145],[-3037,1915],[-1138,-2255]],[[73438,105714],[-660,-559]],[[103405,106963],[2146,706],[6261,335],[2077,-649]],[[113889,107355],[4513,-576],[1930,1146],[1743,-1296],[-408,-3776]],[[121667,102853],[-3624,-1663],[-3922,1643],[-361,-2409],[-2028,-332],[-3325,-2398],[224,-3527],[-3421,-2241]],[[105210,91926],[-1515,914],[30,3466],[-1612,1591],[-3448,-171],[-2547,1553],[-2316,-545]],[[90387,107206],[6355,976],[5388,-1586],[1275,367]],[[104103,111833],[9,-3203]],[[104112,108630],[-703,-1367],[-2960,71],[-2672,1220],[3045,3090],[3281,189]],[[104103,111833],[-4199,60],[-2056,2196],[1161,1475],[3407,1000]],[[112646,119241],[-925,-2982],[-1667,-884],[28,-3792],[3966,-330],[-159,-3898]],[[103405,106963],[707,1667]],[[139115,111576],[4017,729]],[[143132,112305],[-424,-2646],[1666,-4095]],[[144374,105564],[-3902,-186],[-1520,-1854],[-3273,-1940],[1139,-3343],[-2974,-1826],[-2146,1512],[-267,1853],[-2614,2277],[-2630,-84],[-464,-3281],[-3740,-361],[-316,4522]],[[91464,98339],[-139,-3336],[1259,-614],[770,-6032],[-3552,-2922],[-1265,338],[-5396,-5264]],[[83141,80509],[-676,1026],[-6672,-1443],[-4037,-2101],[-122,-3143],[3275,-5171],[-3303,-2249],[-3031,397],[-427,2242],[-3831,-114]],[[62998,78090],[1494,2353],[-3246,1749]],[[60824,83180],[-13,3281]],[[105210,91926],[-128,-2274]],[[105082,89652],[-2242,-756],[-5837,-3854],[878,-1442]],[[97881,83600],[-4703,-5593],[-1846,-798],[201,-2003],[-6595,787],[-2743,-1061],[-352,2955],[1298,2622]],[[105082,89652],[232,-2119],[3078,-3179],[3150,958],[1250,2342],[3379,-162],[2287,-1013],[3405,797],[4565,-2928],[3715,725],[262,-2035],[-1296,-3699],[-225,-3438],[1595,-1007],[3462,2731],[3784,2028],[1876,-2820],[-454,-3847],[2409,-3579],[1711,825],[1438,-6634],[-2596,-1324],[-636,-3034],[2073,-2535]],[[143546,56705],[-4967,1505],[-682,-1417],[-2823,-168],[-4881,804],[1058,4112],[-2849,1896],[-2621,-1364],[-1972,580],[-172,3482],[-4195,5214],[2343,4204],[-1752,4468],[-4742,119],[-441,-3094],[-5326,-5380],[-2949,2332],[-6733,-799],[-187,2614],[2927,-990],[-341,2762],[1314,3568],[-1859,1592],[-3815,855]],[[144374,105564],[1882,-1532],[-823,-2603],[-2135,-1699],[-2367,-295],[1040,-4526],[-935,-2013],[1662,-4369],[2921,-3998],[-473,-1808],[4855,93],[-164,-2873],[2702,-4125],[1347,838],[2264,-2567],[2821,470],[-11,-3711],[1115,-3916],[-1625,-2937],[-1812,469],[-2603,-1199],[-3624,-2907]],[[150411,60356],[-2163,550],[-2995,-1992],[-1707,-2209]],[[174437,111897],[1426,-3286],[4844,-2018],[701,-6278],[3792,-3326],[2045,-7122],[-3028,1278],[-4770,-1887],[-6749,1384]],[[172698,90642],[-2594,1323],[-991,2185],[-1940,-480],[-1927,8889],[-3642,-1020],[-5448,4813],[-1337,2565],[-5670,1536],[-2365,2049],[-3652,-197]],[[172698,90642],[1051,-6927],[1361,-5989],[4196,-7272],[-3942,-3520],[-14068,-4324],[-3224,-4696],[-474,-4852],[-3653,-951]],[[153945,52111],[-713,5089],[-2821,3156]],[[180511,110845],[2852,-1007],[2247,-3216],[750,-4051],[5062,-2833],[-1203,-4558],[4598,-4354],[1407,-3089],[2468,-2773],[850,-4265],[-1177,-8407],[1520,-4343],[-3995,-3087],[-3004,-6510],[-3584,-3618],[96,-6647],[1959,-1302],[2642,295],[1706,-2282],[-4903,-2040],[-3874,-4289],[-2707,-1392],[-2078,-4425],[-2061,-1074],[-1774,3521]],[[178308,35099],[-5630,3152],[-1272,-62]],[[171406,38189],[-487,2089],[3296,3449],[-2182,2545],[-3276,-1846],[-87,3036],[-2169,1213],[-2409,-903],[-3699,348],[-947,1740],[-5501,2251]],[[178308,35099],[-1812,-1649],[-573,-3790],[1897,-1764],[-570,-3042],[4069,1538],[777,-945],[3687,470],[12,-5465],[4508,-1423],[-442,-3461],[914,-1999],[-954,-2889],[-3890,-66],[456,-3582],[-1492,-1414],[1734,-3059],[-961,-2095],[-3921,774],[-4035,-1238],[-1070,2063],[-2373,-1411],[-3200,-150],[-2165,2872],[-2630,-2822],[-3940,526],[1245,2372],[-681,3219],[-2510,1355],[-1224,2591],[362,2631],[2629,1800],[1154,2479],[2077,1656],[2088,3446],[-2558,855],[3123,3855],[699,2699],[-1170,983],[912,3464],[1301,-341],[1625,4047]]],"transform":{"scale":[1,1],"translate":[13563,306958]},"objects":{"landbouwgebied_1997":{"type":"GeometryCollection","geometries":[{"arcs":[[[0,1,2,3,4,5,6]],[[7,8,9,10,11]],[[12,13]]],"type":"MultiPolygon","properties":{"id":282488,"statcode":"LB0000","statnaam":"zie GSC","jrstatcode":"1997LB0000","rubriek":"landbouwgebied","FID":"landbouwgebied_gegeneraliseerd_1997.3da547b0-b458-4aaf-8ef5-8771274ade5d"},"id":"LB0000"},{"arcs":[[14,15,16,17]],"type":"Polygon","properties":{"id":282489,"statcode":"LB2001","statnaam":"De Marne","jrstatcode":"1997LB2001","rubriek":"landbouwgebied","FID":"landbouwgebied_gegeneraliseerd_1997.431df323-5582-4c98-aff2-7e0054f7cc98"},"id":"LB2001"},{"arcs":[[18,19,20,21,22,23,24,-18,25]],"type":"Polygon","properties":{"id":282490,"statcode":"LB2002","statnaam":"Centraal weidegebied in Groningen","jrstatcode":"1997LB2002","rubriek":"landbouwgebied","FID":"landbouwgebied_gegeneraliseerd_1997.2a6c6e82-9261-48cf-9873-6f5ed08b9057"},"id":"LB2002"},{"arcs":[[26,27,-19,28,29,30]],"type":"Polygon","properties":{"id":282491,"statcode":"LB2003","statnaam":"Oostelijke bouwstreek in Groningen","jrstatcode":"1997LB2003","rubriek":"landbouwgebied","FID":"landbouwgebied_gegeneraliseerd_1997.c53f3b05-3e7b-4dab-9a67-4273a3542715"},"id":"LB2003"},{"arcs":[[31,32,33,-20,-28]],"type":"Polygon","properties":{"id":282492,"statcode":"LB2004","statnaam":"Westerwolde en Groninger Veenkolonien","jrstatcode":"1997LB2004","rubriek":"landbouwgebied","FID":"landbouwgebied_gegeneraliseerd_1997.50295dc9-7612-4c70-beb4-32d29b2ffe93"},"id":"LB2004"},{"arcs":[[34,35,36,-23]],"type":"Polygon","properties":{"id":282493,"statcode":"LB2005","statnaam":"Groninger zuidelijk Westerkwartier","jrstatcode":"1997LB2005","rubriek":"landbouwgebied","FID":"landbouwgebied_gegeneraliseerd_1997.34106d04-3303-4fe0-bfdb-d178395a8227"},"id":"LB2005"},{"arcs":[[[-26,-17,37,-29]],[[38]]],"type":"MultiPolygon","properties":{"id":282494,"statcode":"LB2006","statnaam":"Oostelijk Hogeland","jrstatcode":"1997LB2006","rubriek":"landbouwgebied","FID":"landbouwgebied_gegeneraliseerd_1997.c32a1c7e-c054-447f-bb86-75e5028aa2f8"},"id":"LB2006"},{"arcs":[[39,-15,-25,40,41]],"type":"Polygon","properties":{"id":282495,"statcode":"LB2101","statnaam":"Noordelijk Friesland","jrstatcode":"1997LB2101","rubriek":"landbouwgebied","FID":"landbouwgebied_gegeneraliseerd_1997.4529a2ec-43db-4632-b896-4b5c24023550"},"id":"LB2101"},{"arcs":[[42,43,44,45,-42]],"type":"Polygon","properties":{"id":282496,"statcode":"LB2102","statnaam":"Weidestreek in Friesland","jrstatcode":"1997LB2102","rubriek":"landbouwgebied","FID":"landbouwgebied_gegeneraliseerd_1997.3e714274-1f04-4253-b262-2f68d0a3e634"},"id":"LB2102"},{"arcs":[[48,49,50,-43,-41,-24,-37]],"type":"Polygon","properties":{"id":282497,"statcode":"LB2103","statnaam":"De Wouden","jrstatcode":"1997LB2103","rubriek":"landbouwgebied","FID":"landbouwgebied_gegeneraliseerd_1997.d8832a88-1bfe-4401-82fe-206186c39a9d"},"id":"LB2103"},{"arcs":[[[51]],[[52]],[[55]],[[56]]],"type":"MultiPolygon","properties":{"id":282498,"statcode":"LB2104","statnaam":"Eilanden","jrstatcode":"1997LB2104","rubriek":"landbouwgebied","FID":"landbouwgebied_gegeneraliseerd_1997.a16e672f-a15f-42ad-8585-a19eef4a5dd6"},"id":"LB2104"},{"arcs":[[-35,-22,57]],"type":"Polygon","properties":{"id":282499,"statcode":"LB2201","statnaam":"Weidegebied van het Noorderveld","jrstatcode":"1997LB2201","rubriek":"landbouwgebied","FID":"landbouwgebied_gegeneraliseerd_1997.c875c11c-7e69-4ef5-80af-fbf4964c5f34"},"id":"LB2201"},{"arcs":[[58,59,-49,-36,-58,-21,-34,60]],"type":"Polygon","properties":{"id":282500,"statcode":"LB2202","statnaam":"Smilde en Centraal zandgebied in Drenthe","jrstatcode":"1997LB2202","rubriek":"landbouwgebied","FID":"landbouwgebied_gegeneraliseerd_1997.0a4088d6-81ca-4c18-aa65-aca5c1ad9c55"},"id":"LB2202"},{"arcs":[[61,62,-50,-60,63]],"type":"Polygon","properties":{"id":282501,"statcode":"LB2203","statnaam":"Zuidwestelijk weidegebied in Drenthe","jrstatcode":"1997LB2203","rubriek":"landbouwgebied","FID":"landbouwgebied_gegeneraliseerd_1997.69eda1b1-3341-4275-9092-5e35379fa62b"},"id":"LB2203"},{"arcs":[[64,65,66,-64,-59]],"type":"Polygon","properties":{"id":282502,"statcode":"LB2204","statnaam":"Zuidelijk zandgebied in Drenthe","jrstatcode":"1997LB2204","rubriek":"landbouwgebied","FID":"landbouwgebied_gegeneraliseerd_1997.a27fe9f1-02b0-4984-b6b1-385376d7b6fd"},"id":"LB2204"},{"arcs":[[67,-65,-61,-33]],"type":"Polygon","properties":{"id":282503,"statcode":"LB2205","statnaam":"Drentse Veenkolonien en Hondsrug","jrstatcode":"1997LB2205","rubriek":"landbouwgebied","FID":"landbouwgebied_gegeneraliseerd_1997.963c5c37-da05-4ec5-8e9c-b5a12e86c40d"},"id":"LB2205"},{"arcs":[[68,69,70,71,72,-44,-51,-63,73,74]],"type":"Polygon","properties":{"id":282504,"statcode":"LB2301","statnaam":"Weidegebied in Overijssel","jrstatcode":"1997LB2301","rubriek":"landbouwgebied","FID":"landbouwgebied_gegeneraliseerd_1997.1e5094e2-d707-4785-b34e-01c60f324e56"},"id":"LB2301"},{"arcs":[[75,76,77,-74,-62,-67]],"type":"Polygon","properties":{"id":282505,"statcode":"LB2302","statnaam":"Noordoost Overijssel","jrstatcode":"1997LB2302","rubriek":"landbouwgebied","FID":"landbouwgebied_gegeneraliseerd_1997.25eea736-44b3-4852-89a0-4bff26e8c198"},"id":"LB2302"},{"arcs":[[78,79,-77,80]],"type":"Polygon","properties":{"id":282506,"statcode":"LB2303","statnaam":"Twente","jrstatcode":"1997LB2303","rubriek":"landbouwgebied","FID":"landbouwgebied_gegeneraliseerd_1997.6112f360-66e7-4968-9293-d8bb4ae7aabc"},"id":"LB2303"},{"arcs":[[81,82,-75,-78,-80,83]],"type":"Polygon","properties":{"id":282507,"statcode":"LB2304","statnaam":"Salland","jrstatcode":"1997LB2304","rubriek":"landbouwgebied","FID":"landbouwgebied_gegeneraliseerd_1997.21cb3120-8b7e-42ea-888f-2028f3228751"},"id":"LB2304"},{"arcs":[[84,85,-45,-73,86]],"type":"Polygon","properties":{"id":282508,"statcode":"LB2401","statnaam":"Noordoostelijke Polder","jrstatcode":"1997LB2401","rubriek":"landbouwgebied","FID":"landbouwgebied_gegeneraliseerd_1997.46edca0a-950a-4ca9-977c-17472f273046"},"id":"LB2401"},{"arcs":[[-85,88]],"type":"Polygon","properties":{"id":282509,"statcode":"LB2402","statnaam":"Zuidelijke IJsselmeerpolders","jrstatcode":"1997LB2402","rubriek":"landbouwgebied","FID":"landbouwgebied_gegeneraliseerd_1997.c0b3227f-c206-40cd-92c3-426d906ebd42"},"id":"LB2402"},{"arcs":[[89,90,91,-69,-83,92]],"type":"Polygon","properties":{"id":282510,"statcode":"LB2501","statnaam":"Oostelijke Veluwe","jrstatcode":"1997LB2501","rubriek":"landbouwgebied","FID":"landbouwgebied_gegeneraliseerd_1997.9a4ab716-e663-4109-877b-1b7805392904"},"id":"LB2501"},{"arcs":[[-82,93,94,95,-93]],"type":"Polygon","properties":{"id":282511,"statcode":"LB2502","statnaam":"IJsselstreek","jrstatcode":"1997LB2502","rubriek":"landbouwgebied","FID":"landbouwgebied_gegeneraliseerd_1997.87f44e6f-4693-40b3-a82e-9bfb7d4eff9d"},"id":"LB2502"},{"arcs":[[96,97,98,99,-95,100,101,102,103]],"type":"Polygon","properties":{"id":282512,"statcode":"LB2503","statnaam":"Zuidelijk Gelderland","jrstatcode":"1997LB2503","rubriek":"landbouwgebied","FID":"landbouwgebied_gegeneraliseerd_1997.61ec8d77-73c1-438d-9c10-660278a6fc1d"},"id":"LB2503"},{"arcs":[[-99,104]],"type":"Polygon","properties":{"id":282513,"statcode":"LB2504","statnaam":"Oostelijke Betuwe en Nijmegen","jrstatcode":"1997LB2504","rubriek":"landbouwgebied","FID":"landbouwgebied_gegeneraliseerd_1997.2e986b22-ced0-4bd8-af9e-6a609e402ce5"},"id":"LB2504"},{"arcs":[[105,106,107,108,109,-90,-96,-100,-105,-98]],"type":"Polygon","properties":{"id":282514,"statcode":"LB2505","statnaam":"Veluwezoom en Betuwe","jrstatcode":"1997LB2505","rubriek":"landbouwgebied","FID":"landbouwgebied_gegeneraliseerd_1997.b4bdf28e-9379-499c-9a03-1592dcba5afa"},"id":"LB2505"},{"arcs":[[110,111,112,-106,-97]],"type":"Polygon","properties":{"id":282515,"statcode":"LB2506","statnaam":"Bommelerwaard","jrstatcode":"1997LB2506","rubriek":"landbouwgebied","FID":"landbouwgebied_gegeneraliseerd_1997.1a43bf17-3232-4407-af0e-51e56eefade3"},"id":"LB2506"},{"arcs":[[113,-91,-110,114,115]],"type":"Polygon","properties":{"id":282516,"statcode":"LB2507","statnaam":"Westelijke Veluwe","jrstatcode":"1997LB2507","rubriek":"landbouwgebied","FID":"landbouwgebied_gegeneraliseerd_1997.9fb601da-9405-427a-b116-02030400b7ea"},"id":"LB2507"},{"arcs":[[-84,-79,116,-101,-94]],"type":"Polygon","properties":{"id":282517,"statcode":"LB2508","statnaam":"Achterhoek","jrstatcode":"1997LB2508","rubriek":"landbouwgebied","FID":"landbouwgebied_gegeneraliseerd_1997.b0460b6e-d356-48c1-aeb0-a3bef789940d"},"id":"LB2508"},{"arcs":[[117,118,119,-108,120,121,122]],"type":"Polygon","properties":{"id":282518,"statcode":"LB2601","statnaam":"Kromme Rijn-streek en Heuvelrug","jrstatcode":"1997LB2601","rubriek":"landbouwgebied","FID":"landbouwgebied_gegeneraliseerd_1997.ca50605a-5d66-429a-8d55-2abff44dd62f"},"id":"LB2601"},{"arcs":[[123,-118,124,-122,125,126,127,128,129,-14,130]],"type":"Polygon","properties":{"id":282519,"statcode":"LB2602","statnaam":"Westelijk weidegebied in Utrecht","jrstatcode":"1997LB2602","rubriek":"landbouwgebied","FID":"landbouwgebied_gegeneraliseerd_1997.104fc040-9ad3-413e-86a1-a66ec77ec7b1"},"id":"LB2602"},{"arcs":[[-123,-125]],"type":"Polygon","properties":{"id":282520,"statcode":"LB2603","statnaam":"Centraal tuinbouwgebied in Utrecht","jrstatcode":"1997LB2603","rubriek":"landbouwgebied","FID":"landbouwgebied_gegeneraliseerd_1997.b8e8abb2-42a2-4e6b-a77d-35c8f7b0ef65"},"id":"LB2603"},{"arcs":[[-116,131,-119,-124,132,133]],"type":"Polygon","properties":{"id":282521,"statcode":"LB2604","statnaam":"Eemland","jrstatcode":"1997LB2604","rubriek":"landbouwgebied","FID":"landbouwgebied_gegeneraliseerd_1997.84e24495-9e26-4967-88ec-73b05b89d5b3"},"id":"LB2604"},{"arcs":[[-132,-115,-109,-120]],"type":"Polygon","properties":{"id":282522,"statcode":"LB2605","statnaam":"Zandgebied in Utrecht","jrstatcode":"1997LB2605","rubriek":"landbouwgebied","FID":"landbouwgebied_gegeneraliseerd_1997.4066f428-47cb-4e15-a7c9-b67de676ed5f"},"id":"LB2605"},{"arcs":[[-47,134,135,136,137]],"type":"Polygon","properties":{"id":282523,"statcode":"LB2701","statnaam":"Wieringen en Wieringermeer","jrstatcode":"1997LB2701","rubriek":"landbouwgebied","FID":"landbouwgebied_gegeneraliseerd_1997.7bbe395e-28b9-49db-9f86-b75424da2fd7"},"id":"LB2701"},{"arcs":[[138,139,-10,140,141,142]],"type":"Polygon","properties":{"id":282524,"statcode":"LB2702","statnaam":"Haarlemmermeer","jrstatcode":"1997LB2702","rubriek":"landbouwgebied","FID":"landbouwgebied_gegeneraliseerd_1997.7c9d8789-fb1a-4133-8f2d-6575fc9c8eaf"},"id":"LB2702"},{"arcs":[[143,-141,-9,144,-129]],"type":"Polygon","properties":{"id":282525,"statcode":"LB2703","statnaam":"Amstelland en Aalsmeer","jrstatcode":"1997LB2703","rubriek":"landbouwgebied","FID":"landbouwgebied_gegeneraliseerd_1997.b097cee1-178f-46bb-b8e0-787601158fe7"},"id":"LB2703"},{"arcs":[[[145,-137,146,147]],[[148]]],"type":"MultiPolygon","properties":{"id":282526,"statcode":"LB2704","statnaam":"Texel en Land van Zijpe","jrstatcode":"1997LB2704","rubriek":"landbouwgebied","FID":"landbouwgebied_gegeneraliseerd_1997.a11ad72f-0c6b-4c91-af86-fa93552e1d13"},"id":"LB2704"},{"arcs":[[-136,149,150,151,-147]],"type":"Polygon","properties":{"id":282527,"statcode":"LB2705","statnaam":"West-Friesland en omgeving","jrstatcode":"1997LB2705","rubriek":"landbouwgebied","FID":"landbouwgebied_gegeneraliseerd_1997.fe1a0ee2-aa67-4043-9bce-a60c5e03221f"},"id":"LB2705"},{"arcs":[[-140,152,-151,153,-11]],"type":"Polygon","properties":{"id":282528,"statcode":"LB2706","statnaam":"Waterland en Noordhollandse Droogmakerij","jrstatcode":"1997LB2706","rubriek":"landbouwgebied","FID":"landbouwgebied_gegeneraliseerd_1997.9967f0a3-2e94-4b9f-9cea-76385cbfa16b"},"id":"LB2706"},{"arcs":[[-145,-8,154,-133,-131,-13,-130]],"type":"Polygon","properties":{"id":282529,"statcode":"LB2707","statnaam":"'t Gein en Gooiland","jrstatcode":"1997LB2707","rubriek":"landbouwgebied","FID":"landbouwgebied_gegeneraliseerd_1997.0c30bd02-69f4-46bf-b493-c39df8a0285f"},"id":"LB2707"},{"arcs":[[-139,155,156,-148,-152,-153]],"type":"Polygon","properties":{"id":282530,"statcode":"LB2708","statnaam":"Kennemerland","jrstatcode":"1997LB2708","rubriek":"landbouwgebied","FID":"landbouwgebied_gegeneraliseerd_1997.ca03a053-9179-4b9b-93a5-5d24365fd952"},"id":"LB2708"},{"arcs":[[-1,157,158,159,160,161,162,163,164]],"type":"Polygon","properties":{"id":282531,"statcode":"LB2801","statnaam":"Voorne-Putten en Hoeksche Waard","jrstatcode":"1997LB2801","rubriek":"landbouwgebied","FID":"landbouwgebied_gegeneraliseerd_1997.8e262d4b-72be-4259-b3f6-14c61b951f71"},"id":"LB2801"},{"arcs":[[[-158,-7,165,166]],[[-4,167]]],"type":"MultiPolygon","properties":{"id":282532,"statcode":"LB2802","statnaam":"Rotterdam en omgeving","jrstatcode":"1997LB2802","rubriek":"landbouwgebied","FID":"landbouwgebied_gegeneraliseerd_1997.2fd2fcf2-08f4-4830-a213-cab2442b3f5f"},"id":"LB2802"},{"arcs":[[-162,168,169,170,171,172,173,174,-164,175]],"type":"Polygon","properties":{"id":282533,"statcode":"LB2803","statnaam":"Goeree-Overflakkee","jrstatcode":"1997LB2803","rubriek":"landbouwgebied","FID":"landbouwgebied_gegeneraliseerd_1997.c51ce3df-b1e4-4b7f-893d-0c227a850ad7"},"id":"LB2803"},{"arcs":[[176,-142,-144,-128,177,178,179]],"type":"Polygon","properties":{"id":282534,"statcode":"LB2804","statnaam":"Westelijk Rijnland","jrstatcode":"1997LB2804","rubriek":"landbouwgebied","FID":"landbouwgebied_gegeneraliseerd_1997.24af7004-1504-43de-87e2-9580cbb67973"},"id":"LB2804"},{"arcs":[[-179,180,181]],"type":"Polygon","properties":{"id":282535,"statcode":"LB2805","statnaam":"Boskoop en Rijneveld","jrstatcode":"1997LB2805","rubriek":"landbouwgebied","FID":"landbouwgebied_gegeneraliseerd_1997.b9e903d1-fcda-4205-a346-ae3aa3624db0"},"id":"LB2805"},{"arcs":[[-178,-127,182,-166,-6,183,-181]],"type":"Polygon","properties":{"id":282536,"statcode":"LB2806","statnaam":"Krimpenerwaard en Oostelijk Rijnland","jrstatcode":"1997LB2806","rubriek":"landbouwgebied","FID":"landbouwgebied_gegeneraliseerd_1997.0b8d3b14-11d1-4726-8105-48d230bf2352"},"id":"LB2806"},{"arcs":[[-183,-126,-121,-107,-113,184,185,-159,-167]],"type":"Polygon","properties":{"id":282537,"statcode":"LB2807","statnaam":"Alblasserwaard en Vijfherenlanden","jrstatcode":"1997LB2807","rubriek":"landbouwgebied","FID":"landbouwgebied_gegeneraliseerd_1997.cba01493-c77d-44e5-8897-070134ad117b"},"id":"LB2807"},{"arcs":[[-177,186,187,-156,-143]],"type":"Polygon","properties":{"id":282538,"statcode":"LB2808","statnaam":"Bollenstreek","jrstatcode":"1997LB2808","rubriek":"landbouwgebied","FID":"landbouwgebied_gegeneraliseerd_1997.c445559d-f2e8-4007-bf2a-e4b81975d405"},"id":"LB2808"},{"arcs":[[-182,-184,-5,-168,-3,188,-187,-180]],"type":"Polygon","properties":{"id":282539,"statcode":"LB2809","statnaam":"Westland en Zuidhollandse Droogmakerijen","jrstatcode":"1997LB2809","rubriek":"landbouwgebied","FID":"landbouwgebied_gegeneraliseerd_1997.52e6e68f-15ac-4b83-ba85-8d98a6e8d574"},"id":"LB2809"},{"arcs":[[[-174,189,-172,190]],[[191,192,193,194,195]],[[196,197]],[[198,199,200]]],"type":"MultiPolygon","properties":{"id":282540,"statcode":"LB2901","statnaam":"Noordelijk Zeeland","jrstatcode":"1997LB2901","rubriek":"landbouwgebied","FID":"landbouwgebied_gegeneraliseerd_1997.82dc991e-b15d-4fa4-a0d4-438f4e28369f"},"id":"LB2901"},{"arcs":[[-197,201,-195,202,-199,203,204,205,206]],"type":"Polygon","properties":{"id":282541,"statcode":"LB2902","statnaam":"Walcheren en Zuid-Beveland","jrstatcode":"1997LB2902","rubriek":"landbouwgebied","FID":"landbouwgebied_gegeneraliseerd_1997.7d646c6b-3369-49c9-a280-b3cd0bdfd758"},"id":"LB2902"},{"arcs":[[207]],"type":"Polygon","properties":{"id":282542,"statcode":"LB2903","statnaam":"Zeeuwsch-Vlaanderen","jrstatcode":"1997LB2903","rubriek":"landbouwgebied","FID":"landbouwgebied_gegeneraliseerd_1997.e59b30e7-6299-4abf-ae3a-2dc1264c296d"},"id":"LB2903"},{"arcs":[[-192,208,209,210,211]],"type":"Polygon","properties":{"id":282543,"statcode":"LB3001","statnaam":"Noordwesthoek","jrstatcode":"1997LB3001","rubriek":"landbouwgebied","FID":"landbouwgebied_gegeneraliseerd_1997.4b36c452-fd6f-43d4-9f15-492d36116a80"},"id":"LB3001"},{"arcs":[[[213,214,215,216,-210,217]],[[218,219]]],"type":"MultiPolygon","properties":{"id":282544,"statcode":"LB3002","statnaam":"Westelijke Langstraat","jrstatcode":"1997LB3002","rubriek":"landbouwgebied","FID":"landbouwgebied_gegeneraliseerd_1997.a70e09be-25bd-4389-8cfe-b8b5d29b261b"},"id":"LB3002"},{"arcs":[[220,-160,-186,221,-214,222,-219]],"type":"Polygon","properties":{"id":282545,"statcode":"LB3003","statnaam":"Biesbosch","jrstatcode":"1997LB3003","rubriek":"landbouwgebied","FID":"landbouwgebied_gegeneraliseerd_1997.724c3b48-d791-45ef-8d5d-b17eaf1ee09c"},"id":"LB3003"},{"arcs":[[-215,-222,-185,-112,223,224,225]],"type":"Polygon","properties":{"id":282546,"statcode":"LB3004","statnaam":"Oostelijke Langstraat","jrstatcode":"1997LB3004","rubriek":"landbouwgebied","FID":"landbouwgebied_gegeneraliseerd_1997.3f00515a-99c2-48a3-a71d-83868d8aceaa"},"id":"LB3004"},{"arcs":[[226,227,-206,228,-204,-201,229,-193,-212]],"type":"Polygon","properties":{"id":282547,"statcode":"LB3005","statnaam":"Westelijke Zandgronden","jrstatcode":"1997LB3005","rubriek":"landbouwgebied","FID":"landbouwgebied_gegeneraliseerd_1997.08db112f-d2cd-4c11-b97e-15b14abbe929"},"id":"LB3005"},{"arcs":[[-227,-211,-217,230,231,232]],"type":"Polygon","properties":{"id":282548,"statcode":"LB3006","statnaam":"Land van Breda","jrstatcode":"1997LB3006","rubriek":"landbouwgebied","FID":"landbouwgebied_gegeneraliseerd_1997.5b95ec63-27db-4a0a-9fa3-cbbadf6a5a80"},"id":"LB3006"},{"arcs":[[-232,233,234]],"type":"Polygon","properties":{"id":282549,"statcode":"LB3007","statnaam":"De Kempen","jrstatcode":"1997LB3007","rubriek":"landbouwgebied","FID":"landbouwgebied_gegeneraliseerd_1997.63e2c671-5940-4016-afa8-7a8545ccfca0"},"id":"LB3007"},{"arcs":[[-231,-216,-226,235,236,-234]],"type":"Polygon","properties":{"id":282550,"statcode":"LB3008","statnaam":"Midden Noord-Brabant","jrstatcode":"1997LB3008","rubriek":"landbouwgebied","FID":"landbouwgebied_gegeneraliseerd_1997.5130dc2c-8a9c-4187-ab73-e93dc662febd"},"id":"LB3008"},{"arcs":[[-224,-111,-104,237,238]],"type":"Polygon","properties":{"id":282551,"statcode":"LB3009","statnaam":"Maaskant en Land van Cuijk","jrstatcode":"1997LB3009","rubriek":"landbouwgebied","FID":"landbouwgebied_gegeneraliseerd_1997.ba785661-9ce7-4bd1-b523-53c99b3de157"},"id":"LB3009"},{"arcs":[[-225,-239,239,240,-236]],"type":"Polygon","properties":{"id":282552,"statcode":"LB3010","statnaam":"Westelijk Peelgebied","jrstatcode":"1997LB3010","rubriek":"landbouwgebied","FID":"landbouwgebied_gegeneraliseerd_1997.26fbf2d5-2895-4c74-85e5-bb6c6e4a3a5b"},"id":"LB3010"},{"arcs":[[241,242,243,-240,-238,-103]],"type":"Polygon","properties":{"id":282553,"statcode":"LB3101","statnaam":"Noord-Limburg","jrstatcode":"1997LB3101","rubriek":"landbouwgebied","FID":"landbouwgebied_gegeneraliseerd_1997.bacd0ee5-a87c-47e5-a083-2bf3d1a392ab"},"id":"LB3101"},{"arcs":[[-243,244]],"type":"Polygon","properties":{"id":282554,"statcode":"LB3102","statnaam":"Zuid-Limburg","jrstatcode":"1997LB3102","rubriek":"landbouwgebied","FID":"landbouwgebied_gegeneraliseerd_1997.dead9722-65c3-48ee-871b-2aedd43f7b86"},"id":"LB3102"}]}}}