{"type":"FeatureCollection", "features": [
{"type":"Feature","geometry":{"type":"MultiPolygon","coordinates":[[[[85844,428647],[86078,431362],[88229,431987],[91494,430787],[96094,431482],[98631,432495],[99171,435259],[97382,435691],[98527,437825],[98693,441389],[100223,442546],[100544,445403],[94883,441905],[91955,443950],[89086,443553],[85732,442144],[88266,437342],[86781,434716],[77450,434829],[75238,435610],[74711,439862],[72811,442568],[69820,444390],[68495,446559],[64615,444179],[60831,444097],[60835,441446],[59029,438814],[59310,437361],[64000,439026],[67012,439390],[70755,438291],[74265,435251],[75950,432230],[77812,431265],[82516,431163],[85844,428647]]],[[[129458,484055],[125985,486286],[130356,489052],[133306,492105],[128683,493139],[125108,492732],[123954,491632],[119327,493710],[118858,492212],[110929,493911],[110186,490521],[112168,490061],[112072,487964],[111975,485588],[116250,482100],[122411,481288],[122278,482551],[125372,483564],[126537,485433],[129458,484055]]],[[[125532,476789],[130059,479454],[127107,482651],[123787,480029],[125532,476789]]]]},"properties":{"id":282488,"statcode":"LB0000","statnaam":"zie GSC","jrstatcode":"1997LB0000","rubriek":"landbouwgebied","FID":"landbouwgebied_gegeneraliseerd_1997.3da547b0-b458-4aaf-8ef5-8771274ade5d"},"id":"LB0000"},
{"type":"Feature","geometry":{"type":"Polygon","coordinates":[[[214931,595371],[216929,592957],[219465,592419],[225594,593748],[228108,595865],[227038,600169],[229515,602067],[230004,604969],[232142,605089],[232002,605712],[221828,603732],[217919,602461],[216297,601132],[212791,603537],[208481,603050],[206943,600774],[207488,598194],[214931,595371]]]},"properties":{"id":282489,"statcode":"LB2001","statnaam":"De Marne","jrstatcode":"1997LB2001","rubriek":"landbouwgebied","FID":"landbouwgebied_gegeneraliseerd_1997.431df323-5582-4c98-aff2-7e0054f7cc98"},"id":"LB2001"},
{"type":"Feature","geometry":{"type":"Polygon","coordinates":[[[247396,589398],[245504,592021],[243115,592311],[241848,590907],[237153,592701],[236143,595247],[232573,597595],[230763,600224],[232142,605089],[230004,604969],[229515,602067],[227038,600169],[228108,595865],[225594,593748],[219465,592419],[216929,592957],[214931,595371],[214479,591134],[212820,589478],[211391,585908],[211381,585824],[214493,584653],[218887,585486],[224424,582332],[226915,579812],[231785,579384],[233766,575226],[237445,572163],[238558,569531],[242541,571269],[242169,574533],[239918,577862],[240507,580244],[238883,583887],[247396,589398]]]},"properties":{"id":282490,"statcode":"LB2002","statnaam":"Centraal weidegebied in Groningen","jrstatcode":"1997LB2002","rubriek":"landbouwgebied","FID":"landbouwgebied_gegeneraliseerd_1997.2a6c6e82-9261-48cf-9873-6f5ed08b9057"},"id":"LB2002"},
{"type":"Feature","geometry":{"type":"Polygon","coordinates":[[[257512,593727],[258494,594982],[255689,597111],[254843,602091],[253882,603435],[251819,604994],[247456,602187],[249100,598670],[250730,597834],[251722,594766],[249390,593097],[250145,591062],[247396,589398],[238883,583887],[240507,580244],[243950,577134],[250870,578188],[249790,571743],[255340,572358],[262161,571127],[264872,571167],[265862,569588],[264125,566226],[265437,565464],[269994,565183],[271915,562755],[276822,564719],[276562,571156],[274898,573912],[277316,580573],[276348,584894],[269474,586475],[267883,587777],[268111,591481],[257512,593727]]]},"properties":{"id":282491,"statcode":"LB2003","statnaam":"Oostelijke bouwstreek in Groningen","jrstatcode":"1997LB2003","rubriek":"landbouwgebied","FID":"landbouwgebied_gegeneraliseerd_1997.c53f3b05-3e7b-4dab-9a67-4273a3542715"},"id":"LB2003"},
{"type":"Feature","geometry":{"type":"Polygon","coordinates":[[[276822,564719],[271915,562755],[269994,565183],[265437,565464],[264125,566226],[265862,569588],[264872,571167],[262161,571127],[255340,572358],[249790,571743],[250870,578188],[243950,577134],[240507,580244],[239918,577862],[242169,574533],[242541,571269],[245407,571143],[248063,568447],[258962,557389],[264376,550047],[266539,548928],[264591,544102],[266297,544126],[269919,540356],[270634,543238],[275614,552004],[277529,559786],[276822,564719]]]},"properties":{"id":282492,"statcode":"LB2004","statnaam":"Westerwolde en Groninger Veenkolonien","jrstatcode":"1997LB2004","rubriek":"landbouwgebied","FID":"landbouwgebied_gegeneraliseerd_1997.50295dc9-7612-4c70-beb4-32d29b2ffe93"},"id":"LB2004"},
{"type":"Feature","geometry":{"type":"Polygon","coordinates":[[[226915,579812],[224424,582332],[218887,585486],[214493,584653],[211381,585824],[210494,584222],[211288,581555],[209296,579393],[207841,575852],[207769,572327],[209753,570179],[213568,570074],[217167,567871],[219137,567131],[220373,569424],[221505,574540],[223242,577315],[226915,579812]]]},"properties":{"id":282493,"statcode":"LB2005","statnaam":"Groninger zuidelijk Westerkwartier","jrstatcode":"1997LB2005","rubriek":"landbouwgebied","FID":"landbouwgebied_gegeneraliseerd_1997.34106d04-3303-4fe0-bfdb-d178395a8227"},"id":"LB2005"},
{"type":"Feature","geometry":{"type":"MultiPolygon","coordinates":[[[[247396,589398],[250145,591062],[249390,593097],[251722,594766],[250730,597834],[249100,598670],[247456,602187],[251819,604994],[253882,603435],[254506,607222],[249739,609501],[248652,608490],[245151,609715],[239285,608624],[232002,605712],[232142,605089],[230763,600224],[232573,597595],[236143,595247],[237153,592701],[241848,590907],[243115,592311],[245504,592021],[247396,589398]]],[[[228692,617383],[226316,619218],[225209,617683],[226766,615925],[228692,617383]]]]},"properties":{"id":282494,"statcode":"LB2006","statnaam":"Oostelijk Hogeland","jrstatcode":"1997LB2006","rubriek":"landbouwgebied","FID":"landbouwgebied_gegeneraliseerd_1997.c32a1c7e-c054-447f-bb86-75e5028aa2f8"},"id":"LB2006"},
{"type":"Feature","geometry":{"type":"Polygon","coordinates":[[[156625,573909],[158209,574080],[162740,572351],[164417,573256],[166935,571433],[169550,573089],[167829,575112],[168589,576803],[172774,575546],[175432,577069],[178440,576261],[178888,579077],[177871,583241],[183588,582208],[184687,584132],[184734,586976],[186569,589196],[193457,593089],[194259,591311],[197255,591579],[197327,593254],[200866,593315],[200729,589761],[199489,589568],[198846,584304],[205302,586686],[208799,587351],[211391,585908],[212820,589478],[214479,591134],[214931,595371],[207488,598194],[206943,600774],[208481,603050],[204988,602159],[202017,602648],[196333,601823],[187006,599477],[174613,593148],[168343,590467],[164361,585661],[161381,583781],[158375,580338],[156625,573909]]]},"properties":{"id":282495,"statcode":"LB2101","statnaam":"Noordelijk Friesland","jrstatcode":"1997LB2101","rubriek":"landbouwgebied","FID":"landbouwgebied_gegeneraliseerd_1997.4529a2ec-43db-4632-b896-4b5c24023550"},"id":"LB2101"},
{"type":"Feature","geometry":{"type":"Polygon","coordinates":[[[184687,584132],[183588,582208],[177871,583241],[178888,579077],[178440,576261],[175432,577069],[172774,575546],[168589,576803],[167829,575112],[169550,573089],[166935,571433],[164417,573256],[162740,572351],[158209,574080],[156625,573909],[156151,570541],[154446,569028],[156404,559264],[155771,556045],[156689,552919],[155943,550199],[156290,546978],[152754,544333],[155466,541323],[157616,540109],[159474,540876],[165596,538469],[168304,540264],[172326,541503],[173219,539643],[176934,539029],[179358,539235],[182509,535550],[184167,536758],[186610,542702],[188578,545356],[191752,547663],[188601,554315],[188623,558770],[192269,561742],[191603,565835],[187370,566178],[188145,569014],[191606,569283],[192247,570698],[189887,573221],[191042,575893],[186749,576186],[186428,579801],[187954,582155],[184687,584132]]]},"properties":{"id":282496,"statcode":"LB2102","statnaam":"Weidestreek in Friesland","jrstatcode":"1997LB2102","rubriek":"landbouwgebied","FID":"landbouwgebied_gegeneraliseerd_1997.3e714274-1f04-4253-b262-2f68d0a3e634"},"id":"LB2102"},
{"type":"Feature","geometry":{"type":"Polygon","coordinates":[[[217167,567871],[213568,570074],[209753,570179],[207769,572327],[207841,575852],[209296,579393],[211288,581555],[210494,584222],[211381,585824],[211391,585908],[208799,587351],[205302,586686],[198846,584304],[199489,589568],[200729,589761],[200866,593315],[197327,593254],[197255,591579],[194259,591311],[193457,593089],[186569,589196],[184734,586976],[184687,584132],[187954,582155],[186428,579801],[186749,576186],[191042,575893],[189887,573221],[192247,570698],[191606,569283],[188145,569014],[187370,566178],[191603,565835],[192269,561742],[188623,558770],[188601,554315],[191752,547663],[188578,545356],[186610,542702],[184167,536758],[188015,534950],[194420,539596],[196189,536783],[198417,536614],[204348,541038],[210172,545165],[213463,549306],[216561,549058],[219330,547484],[222663,550000],[224893,554369],[220444,561195],[220722,564943],[216522,566425],[217167,567871]]]},"properties":{"id":282497,"statcode":"LB2103","statnaam":"De Wouden","jrstatcode":"1997LB2103","rubriek":"landbouwgebied","FID":"landbouwgebied_gegeneraliseerd_1997.d8832a88-1bfe-4401-82fe-206186c39a9d"},"id":"LB2103"},
{"type":"Feature","geometry":{"type":"MultiPolygon","coordinates":[[[[152496,599860],[154683,601664],[159623,601918],[160239,603091],[165299,605339],[163239,607150],[158756,605420],[150229,602846],[144119,601633],[141973,600723],[139905,598005],[141025,595304],[144301,597738],[148776,598245],[152496,599860]]],[[[188026,607544],[187945,609064],[179608,608201],[171006,608958],[170073,606569],[173520,603743],[177784,606372],[182791,605805],[188026,607544]]],[[[203033,612599],[206361,609827],[212456,610447],[213382,613482],[205995,613201],[203033,612599]]],[[[135427,589908],[133464,591304],[131559,590653],[126504,587204],[123898,584764],[119604,581939],[120388,580770],[124203,581325],[128019,584710],[127162,586607],[135427,589908]]]]},"properties":{"id":282498,"statcode":"LB2104","statnaam":"Eilanden","jrstatcode":"1997LB2104","rubriek":"landbouwgebied","FID":"landbouwgebied_gegeneraliseerd_1997.a16e672f-a15f-42ad-8585-a19eef4a5dd6"},"id":"LB2104"},
{"type":"Feature","geometry":{"type":"Polygon","coordinates":[[[220373,569424],[223582,567682],[228174,570999],[232096,572367],[232787,570201],[237445,572163],[233766,575226],[231785,579384],[226915,579812],[223242,577315],[221505,574540],[220373,569424]]]},"properties":{"id":282499,"statcode":"LB2201","statnaam":"Weidegebied van het Noorderveld","jrstatcode":"1997LB2201","rubriek":"landbouwgebied","FID":"landbouwgebied_gegeneraliseerd_1997.c875c11c-7e69-4ef5-80af-fbf4964c5f34"},"id":"LB2201"},
{"type":"Feature","geometry":{"type":"Polygon","coordinates":[[[254430,524208],[252506,533506],[253628,536263],[247975,541094],[245908,543933],[244913,550868],[245084,552802],[243771,555111],[241396,556362],[240780,559543],[239169,562845],[241096,565007],[242738,564928],[248063,568447],[245407,571143],[242541,571269],[238558,569531],[237445,572163],[232787,570201],[232096,572367],[228174,570999],[223582,567682],[220373,569424],[219137,567131],[217167,567871],[216522,566425],[220722,564943],[220444,561195],[224893,554369],[222663,550000],[219330,547484],[220450,545707],[224538,544404],[225303,540869],[227477,539661],[225904,535717],[229508,534551],[231914,529061],[233459,527069],[236718,526921],[237607,522745],[244667,525479],[244964,528357],[247489,529250],[248879,528171],[249889,525036],[254430,524208]]]},"properties":{"id":282500,"statcode":"LB2202","statnaam":"Smilde en Centraal zandgebied in Drenthe","jrstatcode":"1997LB2202","rubriek":"landbouwgebied","FID":"landbouwgebied_gegeneraliseerd_1997.0a4088d6-81ca-4c18-aa65-aca5c1ad9c55"},"id":"LB2202"},
{"type":"Feature","geometry":{"type":"Polygon","coordinates":[[[232286,519175],[231379,523393],[226756,523457],[226280,527117],[229329,529240],[231914,529061],[229508,534551],[225904,535717],[227477,539661],[225303,540869],[224538,544404],[220450,545707],[219330,547484],[216561,549058],[213463,549306],[210172,545165],[204348,541038],[209934,534362],[206937,530873],[204481,529549],[206952,523172],[208836,521142],[210927,522430],[213496,520623],[218638,519440],[221147,517749],[222476,514329],[225856,515953],[231621,514665],[231276,518275],[232286,519175]]]},"properties":{"id":282501,"statcode":"LB2203","statnaam":"Zuidwestelijk weidegebied in Drenthe","jrstatcode":"1997LB2203","rubriek":"landbouwgebied","FID":"landbouwgebied_gegeneraliseerd_1997.69eda1b1-3341-4275-9092-5e35379fa62b"},"id":"LB2203"},
{"type":"Feature","geometry":{"type":"Polygon","coordinates":[[[254430,524208],[249889,525036],[248879,528171],[247489,529250],[244964,528357],[244667,525479],[237607,522745],[236718,526921],[233459,527069],[231914,529061],[229329,529240],[226280,527117],[226756,523457],[231379,523393],[232286,519175],[233848,520436],[238013,521445],[244418,518745],[244564,516407],[246690,518398],[249070,519146],[252075,518762],[257170,519280],[260000,517834],[262516,518823],[267010,517417],[267922,518662],[268036,522345],[261342,522675],[260706,522124],[256517,524036],[254430,524208]]]},"properties":{"id":282502,"statcode":"LB2204","statnaam":"Zuidelijk zandgebied in Drenthe","jrstatcode":"1997LB2204","rubriek":"landbouwgebied","FID":"landbouwgebied_gegeneraliseerd_1997.a27fe9f1-02b0-4984-b6b1-385376d7b6fd"},"id":"LB2204"},
{"type":"Feature","geometry":{"type":"Polygon","coordinates":[[[269919,540356],[266297,544126],[264591,544102],[266539,548928],[264376,550047],[258962,557389],[248063,568447],[242738,564928],[241096,565007],[239169,562845],[240780,559543],[241396,556362],[243771,555111],[245084,552802],[244913,550868],[245908,543933],[247975,541094],[253628,536263],[252506,533506],[254430,524208],[256517,524036],[260706,522124],[261342,522675],[268036,522345],[268563,537221],[269919,540356]]]},"properties":{"id":282503,"statcode":"LB2205","statnaam":"Drentse Veenkolonien en Hondsrug","jrstatcode":"1997LB2205","rubriek":"landbouwgebied","FID":"landbouwgebied_gegeneraliseerd_1997.963c5c37-da05-4ec5-8e9c-b5a12e86c40d"},"id":"LB2205"},
{"type":"Feature","geometry":{"type":"Polygon","coordinates":[[[204133,495000],[206165,495144],[212501,493071],[218076,494321],[219429,493381],[222556,494010],[222378,496979],[219940,496999],[219154,503169],[221118,504521],[218179,512807],[217049,512565],[218638,519440],[213496,520623],[210927,522430],[208836,521142],[206952,523172],[204481,529549],[206937,530873],[209934,534362],[204348,541038],[198417,536614],[196189,536783],[194420,539596],[188015,534950],[184167,536758],[182509,535550],[184131,533139],[186203,533146],[191092,529453],[194046,523005],[191961,521023],[195393,519020],[197631,517504],[195808,515467],[191934,514174],[189460,514611],[185960,513809],[185396,509803],[187058,506091],[187447,503530],[189917,502120],[191568,498616],[194279,498906],[198491,502634],[203401,498274],[204133,495000]]]},"properties":{"id":282504,"statcode":"LB2301","statnaam":"Weidegebied in Overijssel","jrstatcode":"1997LB2301","rubriek":"landbouwgebied","FID":"landbouwgebied_gegeneraliseerd_1997.1e5094e2-d707-4785-b34e-01c60f324e56"},"id":"LB2301"},
{"type":"Feature","geometry":{"type":"Polygon","coordinates":[[[244564,516407],[244418,518745],[238013,521445],[233848,520436],[232286,519175],[231276,518275],[231621,514665],[225856,515953],[222476,514329],[221147,517749],[218638,519440],[217049,512565],[218179,512807],[221118,504521],[219154,503169],[219940,496999],[222378,496979],[222556,494010],[223246,493834],[225838,495055],[227458,497462],[228964,495364],[231445,494965],[233569,496570],[235532,496081],[238785,497057],[242060,501569],[244003,500646],[245136,507584],[245759,515008],[244564,516407]]]},"properties":{"id":282505,"statcode":"LB2302","statnaam":"Noordoost Overijssel","jrstatcode":"1997LB2302","rubriek":"landbouwgebied","FID":"landbouwgebied_gegeneraliseerd_1997.25eea736-44b3-4852-89a0-4bff26e8c198"},"id":"LB2302"},
{"type":"Feature","geometry":{"type":"Polygon","coordinates":[[[249059,459841],[255553,460155],[257286,464143],[259025,466404],[261966,467033],[263902,471470],[269353,473170],[266938,477928],[266828,479486],[269731,488545],[268520,491664],[267209,491812],[265420,494719],[264182,498738],[260703,495317],[255239,496976],[254709,497894],[249285,497778],[244003,500646],[242060,501569],[238785,497057],[235532,496081],[233569,496570],[231445,494965],[228964,495364],[227458,497462],[225838,495055],[223246,493834],[224249,492459],[223168,488455],[220103,487331],[219478,485251],[221042,481588],[225535,482456],[228209,481867],[228978,476066],[225313,473188],[226209,471071],[229668,466629],[234886,466101],[237337,466684],[242904,464875],[242318,460985],[246031,459721],[249059,459841]]]},"properties":{"id":282506,"statcode":"LB2303","statnaam":"Twente","jrstatcode":"1997LB2303","rubriek":"landbouwgebied","FID":"landbouwgebied_gegeneraliseerd_1997.6112f360-66e7-4968-9293-d8bb4ae7aabc"},"id":"LB2303"},
{"type":"Feature","geometry":{"type":"Polygon","coordinates":[[[208614,471366],[220006,471440],[220812,473060],[225313,473188],[228978,476066],[228209,481867],[225535,482456],[221042,481588],[219478,485251],[220103,487331],[223168,488455],[224249,492459],[223246,493834],[222556,494010],[219429,493381],[218076,494321],[212501,493071],[206165,495144],[204133,495000],[204243,491355],[205587,490484],[204543,487964],[202450,487405],[201795,482736],[203728,479493],[206940,471352],[208614,471366]]]},"properties":{"id":282507,"statcode":"LB2304","statnaam":"Salland","jrstatcode":"1997LB2304","rubriek":"landbouwgebied","FID":"landbouwgebied_gegeneraliseerd_1997.21cb3120-8b7e-42ea-888f-2028f3228751"},"id":"LB2304"},
{"type":"Feature","geometry":{"type":"Polygon","coordinates":[[[172871,514178],[185217,513998],[194046,516972],[195393,519020],[191961,521023],[194046,523005],[191092,529453],[186203,533146],[184131,533139],[182509,535550],[179358,539235],[176934,539029],[173295,537753],[169046,530676],[168934,519269],[170474,518155],[172800,514261],[172871,514178]]]},"properties":{"id":282508,"statcode":"LB2401","statnaam":"Noordoostelijke Polder","jrstatcode":"1997LB2401","rubriek":"landbouwgebied","FID":"landbouwgebied_gegeneraliseerd_1997.46edca0a-950a-4ca9-977c-17472f273046"},"id":"LB2401"},
{"type":"Feature","geometry":{"type":"Polygon","coordinates":[[[172800,514261],[171337,513120],[166572,511600],[162589,507505],[160180,507156],[158226,504580],[158224,502623],[146247,494183],[139647,490199],[137413,488363],[137891,483309],[141298,483106],[147626,481250],[150224,479514],[156732,473855],[164659,476333],[166276,481313],[165226,484414],[167023,486637],[170206,486570],[173711,490066],[177758,492121],[179448,491843],[182758,494601],[186391,500937],[186909,503681],[186535,507115],[183944,509975],[180000,510538],[173108,512251],[172871,514178],[172800,514261]]]},"properties":{"id":282509,"statcode":"LB2402","statnaam":"Zuidelijke IJsselmeerpolders","jrstatcode":"1997LB2402","rubriek":"landbouwgebied","FID":"landbouwgebied_gegeneraliseerd_1997.c0b3227f-c206-40cd-92c3-426d906ebd42"},"id":"LB2402"},
{"type":"Feature","geometry":{"type":"Polygon","coordinates":[[[197620,454141],[200500,459792],[202325,461409],[200282,466551],[200085,470466],[198796,473595],[199774,476942],[199173,478730],[200364,482182],[201795,482736],[202450,487405],[204543,487964],[205587,490484],[204243,491355],[204133,495000],[203401,498274],[198491,502634],[194279,498906],[191568,498616],[189917,502120],[187447,503530],[186264,499074],[183351,493753],[180167,491044],[181107,489806],[183890,490630],[187553,485848],[188648,483147],[185940,479699],[186085,475557],[179731,475654],[180542,473445],[178167,472773],[179858,467354],[182746,467727],[183912,462664],[187328,462382],[189005,457682],[193273,456932],[193332,454530],[197620,454141]]]},"properties":{"id":282510,"statcode":"LB2501","statnaam":"Oostelijke Veluwe","jrstatcode":"1997LB2501","rubriek":"landbouwgebied","FID":"landbouwgebied_gegeneraliseerd_1997.9a4ab716-e663-4109-877b-1b7805392904"},"id":"LB2501"},
{"type":"Feature","geometry":{"type":"Polygon","coordinates":[[[201795,482736],[200364,482182],[199173,478730],[199774,476942],[198796,473595],[200085,470466],[200282,466551],[202325,461409],[200500,459792],[197620,454141],[195524,451948],[196767,448831],[194417,444605],[196416,443060],[201324,443939],[203328,442391],[207042,443836],[214269,443420],[217140,445389],[214774,448697],[214974,453213],[214149,455890],[211960,456042],[211584,458412],[209994,458799],[209361,462997],[210000,465893],[208614,471366],[206940,471352],[203728,479493],[201795,482736]]]},"properties":{"id":282511,"statcode":"LB2502","statnaam":"IJsselstreek","jrstatcode":"1997LB2502","rubriek":"landbouwgebied","FID":"landbouwgebied_gegeneraliseerd_1997.87f44e6f-4693-40b3-a82e-9bfb7d4eff9d"},"id":"LB2502"},
{"type":"Feature","geometry":{"type":"Polygon","coordinates":[[[153748,422349],[156258,425967],[158606,424566],[160393,424747],[162099,426882],[165535,425300],[168853,426809],[172196,425663],[174044,422917],[175564,422562],[179985,418766],[182086,418236],[188000,418855],[189951,421118],[191452,418336],[194074,417803],[196650,419911],[195794,423367],[193463,426245],[194682,427743],[196863,427099],[201031,429542],[203452,429531],[208709,428303],[208722,430624],[207164,431510],[205814,434676],[207788,435467],[203475,438163],[203328,442391],[201324,443939],[196416,443060],[194842,442764],[194110,440140],[196336,436184],[198685,434394],[195843,430172],[194336,429807],[192054,431882],[189427,430846],[190586,426625],[189327,424653],[186019,424257],[184199,422533],[181486,426118],[184610,431384],[176225,434123],[167490,434837],[163323,433481],[158987,432859],[156540,428405],[153124,424073],[152232,423964],[153748,422349]]]},"properties":{"id":282512,"statcode":"LB2503","statnaam":"Zuidelijk Gelderland","jrstatcode":"1997LB2503","rubriek":"landbouwgebied","FID":"landbouwgebied_gegeneraliseerd_1997.61ec8d77-73c1-438d-9c10-660278a6fc1d"},"id":"LB2503"},
{"type":"Feature","geometry":{"type":"Polygon","coordinates":[[[194110,440140],[192438,441365],[190397,438454],[185003,439911],[182144,439145],[185495,434005],[184610,431384],[181486,426118],[184199,422533],[186019,424257],[189327,424653],[190586,426625],[189427,430846],[192054,431882],[194336,429807],[195843,430172],[198685,434394],[196336,436184],[194110,440140]]]},"properties":{"id":282513,"statcode":"LB2504","statnaam":"Oostelijke Betuwe en Nijmegen","jrstatcode":"1997LB2504","rubriek":"landbouwgebied","FID":"landbouwgebied_gegeneraliseerd_1997.2e986b22-ced0-4bd8-af9e-6a609e402ce5"},"id":"LB2504"},
{"type":"Feature","geometry":{"type":"Polygon","coordinates":[[[152232,423964],[153124,424073],[156540,428405],[158987,432859],[163323,433481],[167490,434837],[176225,434123],[184610,431384],[185495,434005],[182144,439145],[185003,439911],[190397,438454],[192438,441365],[194110,440140],[194842,442764],[196416,443060],[194417,444605],[196767,448831],[195524,451948],[197620,454141],[193332,454530],[190136,451421],[186738,451572],[184241,448477],[179572,447973],[178730,445870],[172174,444865],[170014,445109],[171424,442860],[170045,439445],[166373,441022],[161829,443940],[157970,443873],[155258,442481],[152326,442164],[150241,440734],[145245,443308],[143019,441349],[140751,442152],[136106,433282],[131955,431429],[130142,425630],[135003,426350],[137090,425230],[142083,424674],[148709,426148],[152232,423964]]]},"properties":{"id":282514,"statcode":"LB2505","statnaam":"Veluwezoom en Betuwe","jrstatcode":"1997LB2505","rubriek":"landbouwgebied","FID":"landbouwgebied_gegeneraliseerd_1997.b4bdf28e-9379-499c-9a03-1592dcba5afa"},"id":"LB2505"},
{"type":"Feature","geometry":{"type":"Polygon","coordinates":[[[153748,422349],[152232,423964],[148709,426148],[142083,424674],[137090,425230],[135003,426350],[130142,425630],[128370,425885],[131630,423301],[132961,421305],[135226,422092],[137751,420503],[137100,416575],[143500,417215],[145179,416181],[148664,416457],[152678,418534],[153748,422349]]]},"properties":{"id":282515,"statcode":"LB2506","statnaam":"Bommelerwaard","jrstatcode":"1997LB2506","rubriek":"landbouwgebied","FID":"landbouwgebied_gegeneraliseerd_1997.1a43bf17-3232-4407-af0e-51e56eefade3"},"id":"LB2506"},
{"type":"Feature","geometry":{"type":"Polygon","coordinates":[[[156115,473193],[155439,470230],[158504,467754],[157465,464684],[159189,464318],[161280,464071],[162581,460228],[161644,453482],[167043,454457],[166698,451183],[170014,445109],[172174,444865],[178730,445870],[179572,447973],[184241,448477],[186738,451572],[190136,451421],[193332,454530],[193273,456932],[189005,457682],[187328,462382],[183912,462664],[182746,467727],[179858,467354],[178167,472773],[180542,473445],[179731,475654],[186085,475557],[185940,479699],[188648,483147],[187553,485848],[183890,490630],[181107,489806],[180167,491044],[174871,487927],[170347,484370],[166786,480470],[164616,475101],[156115,473193]]]},"properties":{"id":282516,"statcode":"LB2507","statnaam":"Westelijke Veluwe","jrstatcode":"1997LB2507","rubriek":"landbouwgebied","FID":"landbouwgebied_gegeneraliseerd_1997.9fb601da-9405-427a-b116-02030400b7ea"},"id":"LB2507"},
{"type":"Feature","geometry":{"type":"Polygon","coordinates":[[[208614,471366],[210000,465893],[209361,462997],[209994,458799],[211584,458412],[211960,456042],[214149,455890],[214974,453213],[214774,448697],[217140,445389],[214269,443420],[207042,443836],[203328,442391],[203475,438163],[207788,435467],[212008,431337],[217905,431048],[218320,429346],[220989,429587],[222244,427919],[224950,427010],[224832,431714],[228277,431280],[229771,430032],[234518,433310],[244811,437056],[246865,435018],[250135,437318],[251742,439474],[252027,442085],[254053,442725],[253856,445995],[248727,449778],[244236,450969],[244674,454324],[248478,456124],[249059,459841],[246031,459721],[242318,460985],[242904,464875],[237337,466684],[234886,466101],[229668,466629],[226209,471071],[225313,473188],[220812,473060],[220006,471440],[208614,471366]]]},"properties":{"id":282517,"statcode":"LB2508","statnaam":"Achterhoek","jrstatcode":"1997LB2508","rubriek":"landbouwgebied","FID":"landbouwgebied_gegeneraliseerd_1997.b0460b6e-d356-48c1-aeb0-a3bef789940d"},"id":"LB2508"},
{"type":"Feature","geometry":{"type":"Polygon","coordinates":[[[139577,457697],[141232,456085],[139455,454408],[139263,452251],[137143,451878],[136621,445745],[138550,443029],[140751,442152],[143019,441349],[145245,443308],[150241,440734],[152326,442164],[155258,442481],[155893,444440],[159012,445499],[161154,448186],[161734,451996],[156780,448986],[151731,452248],[151230,455110],[149767,457822],[146587,459664],[145137,464685],[143232,466759],[140327,458497],[139577,457697]]]},"properties":{"id":282518,"statcode":"LB2601","statnaam":"Kromme Rijn-streek en Heuvelrug","jrstatcode":"1997LB2601","rubriek":"landbouwgebied","FID":"landbouwgebied_gegeneraliseerd_1997.ca50605a-5d66-429a-8d55-2abff44dd62f"},"id":"LB2601"},
{"type":"Feature","geometry":{"type":"Polygon","coordinates":[[[143265,468476],[141682,465538],[137007,465892],[138470,467644],[137702,469584],[133573,469706],[130475,475538],[131499,477226],[130059,479454],[125532,476789],[122478,473958],[119688,474044],[118389,472435],[114506,471127],[115764,468328],[119418,465169],[119905,461315],[116988,461930],[114243,459516],[116506,457798],[116747,451431],[114921,447470],[118798,442309],[119977,438942],[122326,439414],[124527,441852],[126360,441398],[127903,443178],[130671,442438],[133051,445184],[136621,445745],[137143,451878],[132934,451965],[125462,453639],[123506,459348],[126694,460239],[129973,462447],[130345,463745],[136409,465783],[134999,463051],[135821,460599],[139577,457697],[140327,458497],[143232,466759],[143265,468476]]]},"properties":{"id":282519,"statcode":"LB2602","statnaam":"Westelijk weidegebied in Utrecht","jrstatcode":"1997LB2602","rubriek":"landbouwgebied","FID":"landbouwgebied_gegeneraliseerd_1997.104fc040-9ad3-413e-86a1-a66ec77ec7b1"},"id":"LB2602"},
{"type":"Feature","geometry":{"type":"Polygon","coordinates":[[[139577,457697],[135821,460599],[134999,463051],[136409,465783],[130345,463745],[129973,462447],[126694,460239],[123506,459348],[125462,453639],[132934,451965],[137143,451878],[139263,452251],[139455,454408],[141232,456085],[139577,457697]]]},"properties":{"id":282520,"statcode":"LB2603","statnaam":"Centraal tuinbouwgebied in Utrecht","jrstatcode":"1997LB2603","rubriek":"landbouwgebied","FID":"landbouwgebied_gegeneraliseerd_1997.b8e8abb2-42a2-4e6b-a77d-35c8f7b0ef65"},"id":"LB2603"},
{"type":"Feature","geometry":{"type":"Polygon","coordinates":[[[156115,473193],[153365,475603],[149482,476605],[146713,477079],[143781,470810],[143265,468476],[143232,466759],[145137,464685],[146587,459664],[149767,457822],[152838,460968],[155737,460654],[159189,464318],[157465,464684],[158504,467754],[155439,470230],[156115,473193]]]},"properties":{"id":282521,"statcode":"LB2604","statnaam":"Eemland","jrstatcode":"1997LB2604","rubriek":"landbouwgebied","FID":"landbouwgebied_gegeneraliseerd_1997.84e24495-9e26-4967-88ec-73b05b89d5b3"},"id":"LB2604"},
{"type":"Feature","geometry":{"type":"Polygon","coordinates":[[[149767,457822],[151230,455110],[151731,452248],[156780,448986],[161734,451996],[161154,448186],[159012,445499],[155893,444440],[155258,442481],[157970,443873],[161829,443940],[166373,441022],[170045,439445],[171424,442860],[170014,445109],[166698,451183],[167043,454457],[161644,453482],[162581,460228],[161280,464071],[159189,464318],[155737,460654],[152838,460968],[149767,457822]]]},"properties":{"id":282522,"statcode":"LB2605","statnaam":"Zandgebied in Utrecht","jrstatcode":"1997LB2605","rubriek":"landbouwgebied","FID":"landbouwgebied_gegeneraliseerd_1997.4066f428-47cb-4e15-a7c9-b67de676ed5f"},"id":"LB2605"},
{"type":"Feature","geometry":{"type":"Polygon","coordinates":[[[140142,557012],[132584,550488],[126807,549331],[124840,546490],[120625,544632],[122851,542872],[121617,540227],[122846,535277],[125240,529731],[131139,529464],[135893,531950],[136581,539908],[131589,549429],[140202,556942],[140142,557012]]]},"properties":{"id":282523,"statcode":"LB2701","statnaam":"Wieringen en Wieringermeer","jrstatcode":"1997LB2701","rubriek":"landbouwgebied","FID":"landbouwgebied_gegeneraliseerd_1997.7bbe395e-28b9-49db-9f86-b75424da2fd7"},"id":"LB2701"},
{"type":"Feature","geometry":{"type":"Polygon","coordinates":[[[102117,480908],[100490,477240],[99105,475928],[98055,470798],[103433,470055],[106026,471651],[109857,475246],[113757,477604],[116045,480455],[116250,482100],[111975,485588],[112072,487964],[110403,488929],[106688,487945],[106343,485012],[103397,483547],[102117,480908]]]},"properties":{"id":282524,"statcode":"LB2702","statnaam":"Haarlemmermeer","jrstatcode":"1997LB2702","rubriek":"landbouwgebied","FID":"landbouwgebied_gegeneraliseerd_1997.7c9d8789-fb1a-4133-8f2d-6575fc9c8eaf"},"id":"LB2702"},
{"type":"Feature","geometry":{"type":"Polygon","coordinates":[[[114506,471127],[118389,472435],[119688,474044],[120309,476889],[122411,481288],[116250,482100],[116045,480455],[113757,477604],[109857,475246],[106026,471651],[109715,471770],[109627,470036],[114506,471127]]]},"properties":{"id":282525,"statcode":"LB2703","statnaam":"Amstelland en Aalsmeer","jrstatcode":"1997LB2703","rubriek":"landbouwgebied","FID":"landbouwgebied_gegeneraliseerd_1997.b097cee1-178f-46bb-b8e0-787601158fe7"},"id":"LB2703"},
{"type":"Feature","geometry":{"type":"MultiPolygon","coordinates":[[[[103363,517195],[109447,517467],[111349,521683],[109934,523511],[108821,527489],[112082,533559],[114750,535821],[122846,535277],[121617,540227],[122851,542872],[120625,544632],[115972,547451],[114941,550074],[115627,551931],[113368,553338],[110891,553036],[109738,549679],[109143,543084],[107026,535134],[105395,531157],[103363,517195]]],[[[112176,567753],[110669,564936],[109490,559024],[109980,555912],[114542,557375],[116898,560392],[118857,560998],[122160,565859],[122916,572159],[119410,577500],[117508,575896],[112176,567753]]]]},"properties":{"id":282526,"statcode":"LB2704","statnaam":"Texel en Land van Zijpe","jrstatcode":"1997LB2704","rubriek":"landbouwgebied","FID":"landbouwgebied_gegeneraliseerd_1997.a11ad72f-0c6b-4c91-af86-fa93552e1d13"},"id":"LB2704"},
{"type":"Feature","geometry":{"type":"Polygon","coordinates":[[[122846,535277],[114750,535821],[112082,533559],[108821,527489],[109934,523511],[111349,521683],[113867,521188],[112986,518420],[114700,516952],[117290,516302],[117871,517769],[120706,516363],[120931,514073],[125270,514078],[125365,512058],[129096,512298],[130106,513933],[130353,516205],[134320,517252],[137489,515428],[139655,515289],[144754,518856],[145483,522013],[147742,522753],[147945,528331],[146262,529585],[141873,529759],[139334,528257],[135893,531950],[131139,529464],[125240,529731],[122846,535277]]]},"properties":{"id":282527,"statcode":"LB2705","statnaam":"West-Friesland en omgeving","jrstatcode":"1997LB2705","rubriek":"landbouwgebied","FID":"landbouwgebied_gegeneraliseerd_1997.fe1a0ee2-aa67-4043-9bce-a60c5e03221f"},"id":"LB2705"},
{"type":"Feature","geometry":{"type":"Polygon","coordinates":[[[112072,487964],[112168,490061],[110186,490521],[110929,493911],[118858,492212],[119327,493710],[123954,491632],[125108,492732],[128683,493139],[133306,492105],[131334,497529],[134531,501834],[130852,508949],[130106,513933],[129096,512298],[125365,512058],[125270,514078],[120931,514073],[120706,516363],[117871,517769],[117290,516302],[114700,516952],[112254,511743],[109653,510489],[109665,507322],[108007,506548],[107847,502801],[109325,500821],[106575,496647],[108793,494665],[106653,491607],[106688,487945],[110403,488929],[112072,487964]]]},"properties":{"id":282528,"statcode":"LB2706","statnaam":"Waterland en Noordhollandse Droogmakerij","jrstatcode":"1997LB2706","rubriek":"landbouwgebied","FID":"landbouwgebied_gegeneraliseerd_1997.9967f0a3-2e94-4b9f-9cea-76385cbfa16b"},"id":"LB2706"},
{"type":"Feature","geometry":{"type":"Polygon","coordinates":[[[119688,474044],[122478,473958],[125532,476789],[123787,480029],[127107,482651],[130059,479454],[131499,477226],[130475,475538],[133573,469706],[137702,469584],[138470,467644],[137007,465892],[141682,465538],[143265,468476],[143781,470810],[146713,477079],[149482,476605],[148755,478572],[144484,480432],[139587,479818],[137724,482199],[133881,483586],[130767,482910],[129458,484055],[126537,485433],[125372,483564],[122278,482551],[122411,481288],[120309,476889],[119688,474044]]]},"properties":{"id":282529,"statcode":"LB2707","statnaam":"'t Gein en Gooiland","jrstatcode":"1997LB2707","rubriek":"landbouwgebied","FID":"landbouwgebied_gegeneraliseerd_1997.0c30bd02-69f4-46bf-b493-c39df8a0285f"},"id":"LB2707"},
{"type":"Feature","geometry":{"type":"Polygon","coordinates":[[[106688,487945],[106653,491607],[108793,494665],[106575,496647],[109325,500821],[107847,502801],[108007,506548],[109665,507322],[109653,510489],[112254,511743],[114700,516952],[112986,518420],[113867,521188],[111349,521683],[109447,517467],[103363,517195],[101115,503213],[99197,498120],[98384,493072],[94108,482629],[98835,480460],[102117,480908],[103397,483547],[106343,485012],[106688,487945]]]},"properties":{"id":282530,"statcode":"LB2708","statnaam":"Kennemerland","jrstatcode":"1997LB2708","rubriek":"landbouwgebied","FID":"landbouwgebied_gegeneraliseerd_1997.ca03a053-9179-4b9b-93a5-5d24365fd952"},"id":"LB2708"},
{"type":"Feature","geometry":{"type":"Polygon","coordinates":[[[59310,437361],[63203,437500],[61448,434038],[64076,429754],[62732,427903],[62747,427881],[64496,429039],[68170,426381],[70128,426701],[71864,424704],[75859,422464],[76430,420293],[81121,418728],[87085,415408],[86630,414092],[86652,414084],[87302,415283],[95663,412839],[98294,413461],[104139,415986],[107205,416693],[110108,419206],[111039,421634],[114308,423626],[115979,423522],[117668,423485],[120361,425448],[113684,425342],[111111,426095],[105661,426056],[102166,423884],[99096,424784],[97000,427374],[90400,427481],[85844,428647],[82516,431163],[77812,431265],[75950,432230],[74265,435251],[70755,438291],[67012,439390],[64000,439026],[59310,437361]]]},"properties":{"id":282531,"statcode":"LB2801","statnaam":"Voorne-Putten en Hoeksche Waard","jrstatcode":"1997LB2801","rubriek":"landbouwgebied","FID":"landbouwgebied_gegeneraliseerd_1997.8e262d4b-72be-4259-b3f6-14c61b951f71"},"id":"LB2801"},
{"type":"Feature","geometry":{"type":"MultiPolygon","coordinates":[[[[105661,426056],[105594,428425],[102150,433733],[99171,435259],[98631,432495],[96094,431482],[91494,430787],[88229,431987],[86078,431362],[85844,428647],[90400,427481],[97000,427374],[99096,424784],[102166,423884],[105661,426056]]],[[[85732,442144],[81297,439339],[79707,437544],[74711,439862],[75238,435610],[77450,434829],[86781,434716],[88266,437342],[85732,442144]]]]},"properties":{"id":282532,"statcode":"LB2802","statnaam":"Rotterdam en omgeving","jrstatcode":"1997LB2802","rubriek":"landbouwgebied","FID":"landbouwgebied_gegeneraliseerd_1997.2fd2fcf2-08f4-4830-a213-cab2442b3f5f"},"id":"LB2802"},
{"type":"Feature","geometry":{"type":"Polygon","coordinates":[[[86630,414092],[85810,413095],[81907,413183],[77582,415746],[72394,421301],[70398,422026],[63700,425817],[62747,427881],[62732,427903],[60000,429593],[51248,427090],[49456,425904],[49979,423089],[48131,419999],[48297,419807],[52215,423834],[55825,424837],[58646,424618],[60678,422070],[60751,418017],[63946,414048],[67518,413844],[69813,411242],[69951,411128],[72173,411148],[75116,408721],[78435,407878],[83814,409691],[86341,412113],[87001,412672],[86652,414084],[86630,414092]]]},"properties":{"id":282533,"statcode":"LB2803","statnaam":"Goeree-Overflakkee","jrstatcode":"1997LB2803","rubriek":"landbouwgebied","FID":"landbouwgebied_gegeneraliseerd_1997.c51ce3df-b1e4-4b7f-893d-0c227a850ad7"},"id":"LB2803"},
{"type":"Feature","geometry":{"type":"Polygon","coordinates":[[[85480,456767],[82882,454609],[85719,452927],[90746,451631],[92521,449652],[94438,449654],[98081,452874],[96488,454205],[96672,459298],[99260,462987],[102423,463671],[106593,464074],[108357,462896],[114274,465341],[118376,464375],[119418,465169],[115764,468328],[114506,471127],[109627,470036],[109715,471770],[106026,471651],[103433,470055],[98055,470798],[95531,470205],[93798,468487],[92060,465054],[88662,460038],[85480,456767]]]},"properties":{"id":282534,"statcode":"LB2804","statnaam":"Westelijk Rijnland","jrstatcode":"1997LB2804","rubriek":"landbouwgebied","FID":"landbouwgebied_gegeneraliseerd_1997.24af7004-1504-43de-87e2-9580cbb67973"},"id":"LB2804"},
{"type":"Feature","geometry":{"type":"Polygon","coordinates":[[[98081,452874],[103549,454201],[105117,453103],[108903,455051],[108258,456494],[103895,456851],[102601,460825],[102423,463671],[99260,462987],[96672,459298],[96488,454205],[98081,452874]]]},"properties":{"id":282535,"statcode":"LB2805","statnaam":"Boskoop en Rijneveld","jrstatcode":"1997LB2805","rubriek":"landbouwgebied","FID":"landbouwgebied_gegeneraliseerd_1997.b9e903d1-fcda-4205-a346-ae3aa3624db0"},"id":"LB2805"},
{"type":"Feature","geometry":{"type":"Polygon","coordinates":[[[102423,463671],[102601,460825],[103895,456851],[108258,456494],[108903,455051],[105117,453103],[106525,449078],[102103,445920],[104374,443639],[103152,438954],[97382,435691],[99171,435259],[102150,433733],[105578,433692],[109376,434584],[112122,436478],[115014,437281],[116832,439053],[119977,438942],[118798,442309],[114921,447470],[116747,451431],[116506,457798],[114243,459516],[116988,461930],[119905,461315],[119418,465169],[118376,464375],[114274,465341],[108357,462896],[106593,464074],[102423,463671]]]},"properties":{"id":282536,"statcode":"LB2806","statnaam":"Krimpenerwaard en Oostelijk Rijnland","jrstatcode":"1997LB2806","rubriek":"landbouwgebied","FID":"landbouwgebied_gegeneraliseerd_1997.0b8d3b14-11d1-4726-8105-48d230bf2352"},"id":"LB2806"},
{"type":"Feature","geometry":{"type":"Polygon","coordinates":[[[102150,433733],[105594,428425],[105661,426056],[111111,426095],[113684,425342],[120361,425448],[123901,426731],[126209,426199],[128370,425885],[130142,425630],[131955,431429],[136106,433282],[140751,442152],[138550,443029],[136621,445745],[133051,445184],[130671,442438],[127903,443178],[126360,441398],[124527,441852],[122326,439414],[119977,438942],[116832,439053],[115014,437281],[112122,436478],[109376,434584],[105578,433692],[102150,433733]]]},"properties":{"id":282537,"statcode":"LB2807","statnaam":"Alblasserwaard en Vijfherenlanden","jrstatcode":"1997LB2807","rubriek":"landbouwgebied","FID":"landbouwgebied_gegeneraliseerd_1997.cba01493-c77d-44e5-8897-070134ad117b"},"id":"LB2807"},
{"type":"Feature","geometry":{"type":"Polygon","coordinates":[[[98055,470798],[99105,475928],[100490,477240],[102117,480908],[98835,480460],[94108,482629],[89444,473274],[86420,468048],[80811,460528],[83489,457155],[85480,456767],[88662,460038],[92060,465054],[93798,468487],[95531,470205],[98055,470798]]]},"properties":{"id":282538,"statcode":"LB2808","statnaam":"Bollenstreek","jrstatcode":"1997LB2808","rubriek":"landbouwgebied","FID":"landbouwgebied_gegeneraliseerd_1997.c445559d-f2e8-4007-bf2a-e4b81975d405"},"id":"LB2808"},
{"type":"Feature","geometry":{"type":"Polygon","coordinates":[[[98081,452874],[94438,449654],[92521,449652],[90746,451631],[85719,452927],[82882,454609],[85480,456767],[83489,457155],[80811,460528],[77469,457234],[68495,446559],[69820,444390],[72811,442568],[74711,439862],[79707,437544],[81297,439339],[85732,442144],[89086,443553],[91955,443950],[94883,441905],[100544,445403],[100223,442546],[98693,441389],[98527,437825],[97382,435691],[103152,438954],[104374,443639],[102103,445920],[106525,449078],[105117,453103],[103549,454201],[98081,452874]]]},"properties":{"id":282539,"statcode":"LB2809","statnaam":"Westland en Zuidhollandse Droogmakerijen","jrstatcode":"1997LB2809","rubriek":"landbouwgebied","FID":"landbouwgebied_gegeneraliseerd_1997.52e6e68f-15ac-4b83-ba85-8d98a6e8d574"},"id":"LB2809"},
{"type":"Feature","geometry":{"type":"MultiPolygon","coordinates":[[[[48131,419999],[46748,417990],[43275,418409],[38745,416977],[36999,414350],[37632,411316],[39509,409889],[46233,413286],[46935,411684],[50528,409789],[51319,405813],[55198,405143],[56711,403789],[59614,404102],[63873,405659],[65619,407236],[66325,410128],[69951,411128],[69813,411242],[66614,410652],[65527,409614],[62146,411504],[60105,411769],[59581,413640],[57158,417063],[53092,416883],[51422,418335],[49145,417715],[48297,419807],[48131,419999]]],[[[75340,405619],[72312,405780],[68412,407870],[65946,406780],[67698,403424],[63271,403414],[57734,400040],[60467,398460],[63864,393964],[70137,393354],[71000,390980],[73767,389365],[73831,389374],[73065,391497],[74374,393419],[75164,396327],[72108,401623],[72619,403914],[75340,405619]]],[[[33558,401255],[37203,397802],[38976,395387],[42180,397499],[45151,396616],[47430,397494],[48629,396168],[51388,397658],[51370,399184],[49335,402359],[45936,403021],[39597,401609],[36750,402531],[33497,401392],[33558,401255]]],[[[74663,389493],[74387,390138],[74383,389453],[74663,389493]]]]},"properties":{"id":282540,"statcode":"LB2901","statnaam":"Noordelijk Zeeland","jrstatcode":"1997LB2901","rubriek":"landbouwgebied","FID":"landbouwgebied_gegeneraliseerd_1997.82dc991e-b15d-4fa4-a0d4-438f4e28369f"},"id":"LB2901"},
{"type":"Feature","geometry":{"type":"Polygon","coordinates":[[[33497,401392],[29462,402219],[19836,396676],[20437,393554],[23757,391141],[25965,387258],[28651,385049],[33577,385315],[35044,386999],[39080,383286],[45371,378577],[51529,379471],[53374,383851],[53103,384977],[56893,386877],[61769,382784],[62789,381360],[69229,379113],[72404,380375],[74628,379009],[75380,376805],[77880,376911],[76561,385048],[74808,386120],[74809,389150],[74663,389493],[74383,389453],[73831,389374],[73767,389365],[74064,383980],[71217,384570],[67788,383275],[65098,384911],[62462,388911],[61686,391206],[59056,393416],[55792,394510],[53732,396046],[49097,395517],[46343,396797],[44381,395885],[41604,396637],[39565,393983],[37084,394063],[35854,397127],[33054,399924],[33558,401255],[33497,401392]]]},"properties":{"id":282541,"statcode":"LB2902","statnaam":"Walcheren en Zuid-Beveland","jrstatcode":"1997LB2902","rubriek":"landbouwgebied","FID":"landbouwgebied_gegeneraliseerd_1997.7d646c6b-3369-49c9-a280-b3cd0bdfd758"},"id":"LB2902"},
{"type":"Feature","geometry":{"type":"Polygon","coordinates":[[[35288,377406],[29608,379136],[26671,381224],[22828,380543],[15359,378493],[14398,377481],[15504,373579],[13563,371488],[14872,370074],[15485,366803],[19520,363165],[25195,363553],[24431,368105],[29740,369891],[36853,366565],[41155,365708],[43891,364185],[43379,359736],[48250,359048],[50108,357824],[55173,359462],[59178,362650],[62179,362411],[69951,367941],[74724,373856],[71681,377063],[69245,373847],[67605,373272],[64390,375799],[61925,376096],[59737,380004],[56637,380581],[54719,376328],[49677,374089],[49038,372993],[44894,373375],[43663,374594],[39048,374706],[35288,377406]]]},"properties":{"id":282542,"statcode":"LB2903","statnaam":"Zeeuwsch-Vlaanderen","jrstatcode":"1997LB2903","rubriek":"landbouwgebied","FID":"landbouwgebied_gegeneraliseerd_1997.e59b30e7-6299-4abf-ae3a-2dc1264c296d"},"id":"LB2903"},
{"type":"Feature","geometry":{"type":"Polygon","coordinates":[[[75164,396327],[76302,398582],[79339,396667],[85001,395522],[89380,397054],[88470,402978],[92204,403818],[94858,402446],[97708,404746],[102182,404210],[105027,405297],[107365,405692],[106416,408858],[103950,414164],[100693,412314],[93136,410856],[88492,412442],[83226,407082],[75340,405619],[72619,403914],[72108,401623],[75164,396327]]]},"properties":{"id":282543,"statcode":"LB3001","statnaam":"Noordwesthoek","jrstatcode":"1997LB3001","rubriek":"landbouwgebied","FID":"landbouwgebied_gegeneraliseerd_1997.4b36c452-fd6f-43d4-9f15-492d36116a80"},"id":"LB3001"},
{"type":"Feature","geometry":{"type":"MultiPolygon","coordinates":[[[[116968,413921],[115693,413554],[110305,415140],[103950,414164],[106416,408858],[107365,405692],[109681,406237],[112228,404684],[115676,404855],[117288,403264],[117258,399798],[118773,398884],[122194,401125],[121970,404652],[125295,407050],[127323,407382],[127684,409791],[131606,408148],[135230,409811],[135638,413587],[133895,414883],[131965,413737],[127452,414313],[125375,414962],[119114,414627],[116968,413921]]],[[[117666,418791],[114385,418602],[111340,415512],[114012,414292],[116972,414221],[117675,415588],[117666,418791]]]]},"properties":{"id":282544,"statcode":"LB3002","statnaam":"Westelijke Langstraat","jrstatcode":"1997LB3002","rubriek":"landbouwgebied","FID":"landbouwgebied_gegeneraliseerd_1997.a70e09be-25bd-4389-8cfe-b8b5d29b261b"},"id":"LB3002"},
{"type":"Feature","geometry":{"type":"Polygon","coordinates":[[[117666,418791],[117675,415588],[116968,413921],[119114,414627],[125375,414962],[127452,414313],[127611,418211],[123645,418541],[123617,422333],[125284,423217],[126209,426199],[123901,426731],[120361,425448],[117668,423485],[115979,423522],[112572,422522],[111411,421047],[113467,418851],[117666,418791]]]},"properties":{"id":282545,"statcode":"LB3003","statnaam":"Biesbosch","jrstatcode":"1997LB3003","rubriek":"landbouwgebied","FID":"landbouwgebied_gegeneraliseerd_1997.724c3b48-d791-45ef-8d5d-b17eaf1ee09c"},"id":"LB3003"},
{"type":"Feature","geometry":{"type":"Polygon","coordinates":[[[135230,409811],[135546,405289],[139286,405650],[139750,408931],[142380,409015],[144994,406738],[145261,404885],[147407,403373],[150381,405199],[149242,408542],[152515,410482],[154035,412336],[157937,412522],[156271,416617],[156695,419263],[152678,418534],[148664,416457],[145179,416181],[143500,417215],[137100,416575],[137751,420503],[135226,422092],[132961,421305],[131630,423301],[128370,425885],[126209,426199],[125284,423217],[123617,422333],[123645,418541],[127611,418211],[127452,414313],[131965,413737],[133895,414883],[135638,413587],[135230,409811]]]},"properties":{"id":282546,"statcode":"LB3004","statnaam":"Oostelijke Langstraat","jrstatcode":"1997LB3004","rubriek":"landbouwgebied","FID":"landbouwgebied_gegeneraliseerd_1997.3f00515a-99c2-48a3-a71d-83868d8aceaa"},"id":"LB3004"},
{"type":"Feature","geometry":{"type":"Polygon","coordinates":[[[105027,405297],[102182,404210],[97708,404746],[94858,402446],[92204,403818],[88470,402978],[89380,397054],[85001,395522],[79339,396667],[76302,398582],[75164,396327],[74374,393419],[74387,390138],[74663,389493],[74809,389150],[78055,387401],[76561,385048],[77880,376911],[81711,377025],[82138,374783],[85169,374386],[88472,376635],[85197,381806],[85319,384949],[89356,387050],[96028,388493],[96704,387467],[102100,392731],[103365,392393],[106917,395315],[106147,401347],[104888,401961],[105027,405297]]]},"properties":{"id":282547,"statcode":"LB3005","statnaam":"Westelijke Zandgronden","jrstatcode":"1997LB3005","rubriek":"landbouwgebied","FID":"landbouwgebied_gegeneraliseerd_1997.08db112f-d2cd-4c11-b97e-15b14abbe929"},"id":"LB3005"},
{"type":"Feature","geometry":{"type":"Polygon","coordinates":[[[96704,387467],[95406,384845],[95758,381890],[98501,382951],[105096,382164],[104895,384167],[106741,384965],[111444,390558],[110566,392000],[116403,395854],[118645,396610],[118773,398884],[117258,399798],[117288,403264],[115676,404855],[112228,404684],[109681,406237],[107365,405692],[105027,405297],[104888,401961],[106147,401347],[106917,395315],[103365,392393],[102100,392731],[96704,387467]]]},"properties":{"id":282548,"statcode":"LB3006","statnaam":"Land van Breda","jrstatcode":"1997LB3006","rubriek":"landbouwgebied","FID":"landbouwgebied_gegeneraliseerd_1997.5b95ec63-27db-4a0a-9fa3-cbbadf6a5a80"},"id":"LB3006"},
{"type":"Feature","geometry":{"type":"Polygon","coordinates":[[[111444,390558],[115259,389703],[117118,388111],[115804,384543],[116145,381781],[113218,382771],[113405,380157],[120138,380956],[123087,378624],[128413,384004],[128854,387098],[133596,386979],[135348,382511],[133005,378307],[137200,373093],[137372,369611],[139344,369031],[141965,370395],[144814,368499],[143756,364387],[148637,363583],[151460,363751],[152142,365168],[157109,363663],[155036,366198],[155672,369232],[158268,370556],[156830,377190],[155119,376365],[152710,379944],[153164,383791],[151288,386611],[147504,384583],[144042,381852],[142447,382859],[142672,386297],[143968,389996],[143706,392031],[139991,391306],[135426,394234],[132021,393437],[129734,394450],[126355,394612],[125105,392270],[121955,391312],[118877,394491],[118645,396610],[116403,395854],[110566,392000],[111444,390558]]]},"properties":{"id":282549,"statcode":"LB3007","statnaam":"De Kempen","jrstatcode":"1997LB3007","rubriek":"landbouwgebied","FID":"landbouwgebied_gegeneraliseerd_1997.63e2c671-5940-4016-afa8-7a8545ccfca0"},"id":"LB3007"},
{"type":"Feature","geometry":{"type":"Polygon","coordinates":[[[118645,396610],[118877,394491],[121955,391312],[125105,392270],[126355,394612],[129734,394450],[132021,393437],[135426,394234],[139991,391306],[143706,392031],[143968,389996],[142672,386297],[142447,382859],[144042,381852],[147504,384583],[151288,386611],[153164,383791],[152710,379944],[155119,376365],[156830,377190],[158268,370556],[155672,369232],[155036,366198],[157109,363663],[158816,365872],[161811,367864],[163974,367314],[167598,370221],[170201,371420],[172013,370951],[173638,373888],[172523,377804],[172534,381515],[169713,381045],[167449,383612],[166102,382774],[163400,386899],[163564,389772],[158709,389679],[159182,391487],[156261,395485],[154599,399854],[155534,401867],[154494,406393],[156861,406688],[158996,408387],[159819,410990],[157937,412522],[154035,412336],[152515,410482],[149242,408542],[150381,405199],[147407,403373],[145261,404885],[144994,406738],[142380,409015],[139750,408931],[139286,405650],[135546,405289],[135230,409811],[131606,408148],[127684,409791],[127323,407382],[125295,407050],[121970,404652],[122194,401125],[118773,398884],[118645,396610]]]},"properties":{"id":282550,"statcode":"LB3008","statnaam":"Midden Noord-Brabant","jrstatcode":"1997LB3008","rubriek":"landbouwgebied","FID":"landbouwgebied_gegeneraliseerd_1997.5130dc2c-8a9c-4187-ab73-e93dc662febd"},"id":"LB3008"},
{"type":"Feature","geometry":{"type":"Polygon","coordinates":[[[156695,419263],[160347,419460],[162712,417411],[168382,415875],[169719,413310],[175167,408497],[178809,409517],[180736,400628],[182676,401108],[183667,398923],[186261,397600],[193010,396216],[197780,398103],[200808,396825],[198763,403947],[194971,407273],[194270,413551],[189426,415569],[188000,418855],[182086,418236],[179985,418766],[175564,422562],[174044,422917],[172196,425663],[168853,426809],[165535,425300],[162099,426882],[160393,424747],[158606,424566],[156258,425967],[153748,422349],[152678,418534],[156695,419263]]]},"properties":{"id":282551,"statcode":"LB3009","statnaam":"Maaskant en Land van Cuijk","jrstatcode":"1997LB3009","rubriek":"landbouwgebied","FID":"landbouwgebied_gegeneraliseerd_1997.ba785661-9ce7-4bd1-b523-53c99b3de157"},"id":"LB3009"},
{"type":"Feature","geometry":{"type":"Polygon","coordinates":[[[157937,412522],[159819,410990],[158996,408387],[156861,406688],[154494,406393],[155534,401867],[154599,399854],[156261,395485],[159182,391487],[158709,389679],[163564,389772],[163400,386899],[166102,382774],[167449,383612],[169713,381045],[172534,381515],[172523,377804],[173638,373888],[172013,370951],[170201,371420],[167598,370221],[163974,367314],[166795,364158],[167508,359069],[171161,360020],[171635,364872],[174859,369568],[188927,373892],[192869,377412],[188673,384684],[187312,390673],[186261,397600],[183667,398923],[182676,401108],[180736,400628],[178809,409517],[175167,408497],[169719,413310],[168382,415875],[162712,417411],[160347,419460],[156695,419263],[156271,416617],[157937,412522]]]},"properties":{"id":282552,"statcode":"LB3010","statnaam":"Westelijk Peelgebied","jrstatcode":"1997LB3010","rubriek":"landbouwgebied","FID":"landbouwgebied_gegeneraliseerd_1997.26fbf2d5-2895-4c74-85e5-bb6c6e4a3a5b"},"id":"LB3010"},
{"type":"Feature","geometry":{"type":"Polygon","coordinates":[[[194074,417803],[191452,418336],[189951,421118],[188000,418855],[189426,415569],[194270,413551],[194971,407273],[198763,403947],[200808,396825],[197780,398103],[193010,396216],[186261,397600],[187312,390673],[188673,384684],[192869,377412],[188927,373892],[174859,369568],[171635,364872],[171161,360020],[167508,359069],[173009,356818],[173956,355078],[177655,354730],[180064,355633],[182233,354420],[182320,351384],[185596,353230],[187778,350685],[184482,347236],[184969,345147],[186241,345209],[191871,342057],[193645,338536],[195706,339610],[197784,344035],[200491,345427],[204365,349716],[209268,351756],[207562,354038],[204920,353743],[202961,355045],[202865,361692],[206449,365310],[209453,371820],[213448,374907],[211928,379250],[213105,387657],[212255,391922],[209787,394695],[208380,397784],[203782,402138],[204985,406696],[199923,409529],[199173,413580],[196926,416796],[194074,417803]]]},"properties":{"id":282553,"statcode":"LB3101","statnaam":"Noord-Limburg","jrstatcode":"1997LB3101","rubriek":"landbouwgebied","FID":"landbouwgebied_gegeneraliseerd_1997.bacd0ee5-a87c-47e5-a083-2bf3d1a392ab"},"id":"LB3101"},
{"type":"Feature","geometry":{"type":"Polygon","coordinates":[[[184969,345147],[183344,341100],[182043,341441],[181131,337977],[182301,336994],[181602,334295],[178479,330440],[181037,329585],[178949,326139],[176872,324483],[175718,322004],[173089,320204],[172727,317573],[173951,314982],[176461,313627],[177142,310408],[175897,308036],[179837,307510],[182467,310332],[184632,307460],[187832,307610],[190205,309021],[191275,306958],[195310,308196],[199231,307422],[200192,309517],[198458,312576],[199950,313990],[199494,317572],[203384,317638],[204338,320527],[203424,322526],[203866,325987],[199358,327410],[199346,332875],[195659,332405],[194882,333350],[190813,331812],[191383,334854],[189486,336618],[190059,340408],[191871,342057],[186241,345209],[184969,345147]]]},"properties":{"id":282554,"statcode":"LB3102","statnaam":"Zuid-Limburg","jrstatcode":"1997LB3102","rubriek":"landbouwgebied","FID":"landbouwgebied_gegeneraliseerd_1997.dead9722-65c3-48ee-871b-2aedd43f7b86"},"id":"LB3102"}
]}