{"type":"FeatureCollection", "features": [
{"type":"Feature","geometry":{"type":"MultiPolygon","coordinates":[[[[85844,428647],[86078,431362],[88229,431987],[91494,430787],[98631,432495],[99171,435259],[97382,435691],[98527,437825],[98693,441389],[100223,442546],[100544,445403],[94883,441905],[91955,443950],[85732,442144],[88266,437342],[86781,434716],[77450,434829],[75238,435610],[74711,439862],[72811,442568],[69820,444390],[68496,446559],[64620,444177],[60711,444510],[60840,441459],[59702,437500],[67014,439406],[70755,438291],[74265,435251],[75950,432230],[77812,431265],[82516,431163],[85844,428647]]],[[[133306,492105],[128665,493138],[123954,491632],[119328,493698],[118858,492212],[112856,493620],[112072,487964],[111975,485588],[116250,482100],[122411,481288],[126537,485433],[129459,484063],[126028,486258],[129519,488547],[133306,492105]]],[[[125532,476789],[130059,479454],[127107,482651],[123787,480029],[125532,476789]]]]},"properties":{"id":310137,"statcode":"LB0000","statnaam":"Zie Gscjxx","jrstatcode":"1996LB0000","rubriek":"landbouwgebied","FID":"landbouwgebied_gegeneraliseerd_1996.bdf3ecf5-0365-492f-87fb-17958f4012b3"},"id":"LB0000"},
{"type":"Feature","geometry":{"type":"Polygon","coordinates":[[[214921,595372],[216929,592957],[219465,592419],[225594,593748],[228118,595855],[227038,600169],[229515,602067],[230004,604969],[232142,605089],[232002,605712],[221828,603730],[216150,601067],[212779,603527],[208480,603049],[206943,600774],[207488,598194],[214921,595372]]]},"properties":{"id":310138,"statcode":"LB2001","statnaam":"De Marne","jrstatcode":"1996LB2001","rubriek":"landbouwgebied","FID":"landbouwgebied_gegeneraliseerd_1996.8139e8ee-21bd-4a1e-bfb2-d20852ee9b45"},"id":"LB2001"},
{"type":"Feature","geometry":{"type":"Polygon","coordinates":[[[247396,589398],[245514,591996],[241848,590907],[237153,592701],[236143,595247],[234180,596320],[232154,599803],[230576,600441],[232142,605089],[230004,604969],[229515,602067],[227038,600169],[228118,595855],[225594,593748],[219465,592419],[216929,592957],[214921,595372],[214479,591134],[212820,589478],[211391,585908],[211381,585824],[214493,584653],[218883,585486],[224557,582458],[226915,579812],[231785,579384],[233766,575226],[237445,572163],[238558,569531],[242541,571269],[242057,575000],[238725,578425],[240507,580244],[238883,583887],[247396,589398]]]},"properties":{"id":310139,"statcode":"LB2002","statnaam":"Centraal weidegebied in Groningen","jrstatcode":"1996LB2002","rubriek":"landbouwgebied","FID":"landbouwgebied_gegeneraliseerd_1996.3cde8c59-7d95-47d7-a240-54a14317d44f"},"id":"LB2002"},
{"type":"Feature","geometry":{"type":"Polygon","coordinates":[[[240507,580244],[243950,577134],[250870,578188],[249790,571743],[255340,572358],[262161,571127],[264872,571167],[265862,569588],[264125,566226],[269993,565182],[271915,562755],[276822,564719],[276562,571156],[274897,573869],[277316,580573],[276220,584896],[269473,586474],[267883,587777],[268110,591474],[263195,592293],[258965,594315],[255689,597111],[254844,602091],[253882,603435],[251819,604994],[247456,602187],[251722,594766],[249390,593097],[250145,591062],[247396,589398],[238883,583887],[240507,580244]]]},"properties":{"id":310140,"statcode":"LB2003","statnaam":"Oostelijke bouwstreek in Groningen","jrstatcode":"1996LB2003","rubriek":"landbouwgebied","FID":"landbouwgebied_gegeneraliseerd_1996.c783a198-c367-4272-9b0b-9970c26dc77d"},"id":"LB2003"},
{"type":"Feature","geometry":{"type":"Polygon","coordinates":[[[242541,571269],[245407,571143],[248063,568447],[258963,557389],[264376,550047],[266539,548928],[264591,544102],[266297,544126],[269919,540356],[270634,543238],[275614,552003],[277529,559786],[276822,564719],[271915,562755],[269993,565182],[264125,566226],[265862,569588],[264872,571167],[262161,571127],[255340,572358],[249790,571743],[250870,578188],[243950,577134],[240507,580244],[238725,578425],[242057,575000],[242541,571269]]]},"properties":{"id":310141,"statcode":"LB2004","statnaam":"Westerwolde en Groninger Veenkolonien","jrstatcode":"1996LB2004","rubriek":"landbouwgebied","FID":"landbouwgebied_gegeneraliseerd_1996.07a1d7d0-e03b-4acf-9ef3-964d9f3f3f60"},"id":"LB2004"},
{"type":"Feature","geometry":{"type":"Polygon","coordinates":[[[226915,579812],[224557,582458],[218883,585486],[214493,584653],[211381,585824],[211288,581555],[209296,579393],[207841,575852],[207769,572327],[209753,570179],[213569,570074],[217167,567871],[219137,567131],[220373,569424],[221505,574540],[223250,577320],[226915,579812]]]},"properties":{"id":310142,"statcode":"LB2005","statnaam":"Groninger zuidelijk Westerkwartier","jrstatcode":"1996LB2005","rubriek":"landbouwgebied","FID":"landbouwgebied_gegeneraliseerd_1996.4ea07569-aa62-4aeb-9518-843565384098"},"id":"LB2005"},
{"type":"Feature","geometry":{"type":"Polygon","coordinates":[[[247396,589398],[250145,591062],[249390,593097],[251722,594766],[247456,602187],[251819,604994],[253882,603435],[254506,607222],[249739,609501],[248652,608490],[245151,609715],[239285,608624],[232002,605712],[232142,605089],[230576,600441],[232154,599803],[234180,596320],[236143,595247],[237153,592701],[241848,590907],[245514,591996],[247396,589398]]]},"properties":{"id":310143,"statcode":"LB2006","statnaam":"Oostelijk Hogeland","jrstatcode":"1996LB2006","rubriek":"landbouwgebied","FID":"landbouwgebied_gegeneraliseerd_1996.b4cb30cc-e773-4cdf-b4e5-1bfa6742a2cf"},"id":"LB2006"},
{"type":"Feature","geometry":{"type":"Polygon","coordinates":[[[208480,603049],[204992,602159],[202017,602648],[196333,601823],[190649,600129],[188266,600115],[174613,593148],[168343,590467],[164359,585661],[159045,581443],[157323,577590],[156634,573915],[158209,574080],[162740,572351],[164417,573256],[166935,571433],[169550,573089],[167829,575112],[168589,576803],[172774,575546],[175432,577069],[178440,576261],[178888,579077],[177871,583241],[183588,582208],[184687,584134],[184734,586976],[186569,589196],[193457,593089],[194262,591312],[197255,591579],[197327,593254],[200866,593315],[199489,589568],[198846,584304],[205302,586686],[208799,587351],[211391,585908],[212820,589478],[214479,591134],[214921,595372],[207488,598194],[206943,600774],[208480,603049]]]},"properties":{"id":310144,"statcode":"LB2101","statnaam":"Noordelijk Friesland","jrstatcode":"1996LB2101","rubriek":"landbouwgebied","FID":"landbouwgebied_gegeneraliseerd_1996.cb73027a-7cae-4043-b5d8-1cb78e62e832"},"id":"LB2101"},
{"type":"Feature","geometry":{"type":"Polygon","coordinates":[[[184167,536758],[186610,542702],[188578,545356],[191752,547663],[188601,554315],[188623,558770],[192269,561742],[191603,565835],[187370,566178],[188145,569014],[191606,569283],[192247,570698],[189887,573221],[191042,575893],[186749,576186],[186428,579801],[187954,582155],[184687,584134],[183588,582208],[177871,583241],[178888,579077],[178440,576261],[175432,577069],[172774,575546],[168589,576803],[167829,575112],[169550,573089],[166935,571433],[164417,573256],[162740,572351],[158209,574080],[156634,573915],[156158,570541],[152502,565722],[148672,564383],[140142,557012],[140202,556942],[148899,564447],[151731,565101],[154480,567204],[155919,563097],[156441,559275],[155752,556105],[156706,552990],[155943,550199],[156335,547045],[153771,545655],[153416,543254],[156869,540336],[161153,540472],[166167,538382],[168356,540285],[172323,541508],[173226,539642],[176957,539028],[179358,539235],[182509,535550],[184167,536758]]]},"properties":{"id":310145,"statcode":"LB2102","statnaam":"Weidestreek in Friesland","jrstatcode":"1996LB2102","rubriek":"landbouwgebied","FID":"landbouwgebied_gegeneraliseerd_1996.d72c3835-e32e-4ac4-b2d3-b3b256488478"},"id":"LB2102"},
{"type":"Feature","geometry":{"type":"Polygon","coordinates":[[[204348,541038],[210172,545165],[213463,549306],[216561,549058],[219330,547484],[222663,550000],[224893,554369],[220444,561195],[220722,564943],[216522,566425],[217167,567871],[213569,570074],[209753,570179],[207769,572327],[207841,575852],[209296,579393],[211288,581555],[211381,585824],[211391,585908],[208799,587351],[205302,586686],[198846,584304],[199489,589568],[200866,593315],[197327,593254],[197255,591579],[194262,591312],[193457,593089],[186569,589196],[184734,586976],[184687,584134],[187954,582155],[186428,579801],[186749,576186],[191042,575893],[189887,573221],[192247,570698],[191606,569283],[188145,569014],[187370,566178],[191603,565835],[192269,561742],[188623,558770],[188601,554315],[191752,547663],[188578,545356],[186610,542702],[184167,536758],[188015,534950],[194420,539596],[196189,536783],[198417,536614],[204348,541038]]]},"properties":{"id":310146,"statcode":"LB2103","statnaam":"De Wouden","jrstatcode":"1996LB2103","rubriek":"landbouwgebied","FID":"landbouwgebied_gegeneraliseerd_1996.7744548b-407d-4efa-9be1-4fa7f53be886"},"id":"LB2103"},
{"type":"Feature","geometry":{"type":"MultiPolygon","coordinates":[[[[145425,597760],[151698,599213],[154331,601497],[159624,601918],[161144,603577],[166546,606002],[165629,607458],[150229,602846],[142603,601444],[139433,597647],[141219,595284],[145425,597760]]],[[[187915,607573],[181400,608356],[175498,608296],[171699,609324],[170250,606021],[172444,604340],[176020,604879],[177784,606372],[182792,605805],[187915,607573]]],[[[213813,611471],[216424,614053],[208816,612963],[206558,613271],[204504,611461],[206366,609829],[212402,610424],[213813,611471]]],[[[133324,589670],[131559,590653],[119604,581939],[120388,580770],[124203,581325],[127991,584683],[127163,586607],[133324,589670]]]]},"properties":{"id":310147,"statcode":"LB2104","statnaam":"Eilanden","jrstatcode":"1996LB2104","rubriek":"landbouwgebied","FID":"landbouwgebied_gegeneraliseerd_1996.f56cd679-0385-4085-b665-f7e669baff17"},"id":"LB2104"},
{"type":"Feature","geometry":{"type":"Polygon","coordinates":[[[220373,569424],[223582,567682],[228174,570999],[232096,572367],[232787,570201],[237445,572163],[233766,575226],[231785,579384],[226915,579812],[223250,577320],[221505,574540],[220373,569424]]]},"properties":{"id":310148,"statcode":"LB2201","statnaam":"Weidegebied van het Noorderveld","jrstatcode":"1996LB2201","rubriek":"landbouwgebied","FID":"landbouwgebied_gegeneraliseerd_1996.6936172a-89af-453a-b524-7ded1b863bf4"},"id":"LB2201"},
{"type":"Feature","geometry":{"type":"Polygon","coordinates":[[[254430,524208],[252421,533297],[253628,536263],[247975,541094],[245908,543933],[244913,550868],[243858,555000],[241401,556355],[239169,562845],[248063,568447],[245407,571143],[242541,571269],[238558,569531],[237445,572163],[232787,570201],[232096,572367],[228174,570999],[223582,567682],[220373,569424],[219137,567131],[217167,567871],[216522,566425],[220722,564943],[220444,561195],[224893,554369],[222663,550000],[219330,547484],[220450,545707],[224538,544404],[225303,540869],[227477,539661],[225904,535717],[229508,534551],[231914,529061],[233460,527069],[236718,526921],[237607,522745],[244667,525479],[244964,528357],[247490,529250],[249889,525036],[254430,524208]]]},"properties":{"id":310149,"statcode":"LB2202","statnaam":"Smilde en Centraal zandgebied in Drenthe","jrstatcode":"1996LB2202","rubriek":"landbouwgebied","FID":"landbouwgebied_gegeneraliseerd_1996.e8ba6191-5915-406d-b369-3b67368a0ed2"},"id":"LB2202"},
{"type":"Feature","geometry":{"type":"Polygon","coordinates":[[[219330,547484],[216561,549058],[213463,549306],[210172,545165],[204348,541038],[209934,534362],[206937,530873],[204482,529549],[206953,523172],[208317,521735],[211080,522438],[213496,520623],[218638,519440],[221143,517699],[222012,514822],[227940,515687],[231621,514665],[231276,518275],[232286,519175],[231379,523393],[227713,523627],[226280,527117],[229329,529240],[231914,529061],[229508,534551],[225904,535717],[227477,539661],[225303,540869],[224538,544404],[220450,545707],[219330,547484]]]},"properties":{"id":310150,"statcode":"LB2203","statnaam":"Zuidwestelijk weidegebied in Drenthe","jrstatcode":"1996LB2203","rubriek":"landbouwgebied","FID":"landbouwgebied_gegeneraliseerd_1996.5a653394-d2b5-4df5-a5cb-177e9cb0c32a"},"id":"LB2203"},
{"type":"Feature","geometry":{"type":"Polygon","coordinates":[[[254430,524208],[249889,525036],[247490,529250],[244964,528357],[244667,525479],[237607,522745],[236718,526921],[233460,527069],[231914,529061],[229329,529240],[226280,527117],[227713,523627],[231379,523393],[232286,519175],[233848,520436],[238013,521445],[244418,518745],[244551,516404],[246691,518391],[257192,519273],[260000,517835],[262490,518826],[267010,517579],[268034,522345],[261342,522675],[254430,524208]]]},"properties":{"id":310151,"statcode":"LB2204","statnaam":"Zuidelijk zandgebied in Drenthe","jrstatcode":"1996LB2204","rubriek":"landbouwgebied","FID":"landbouwgebied_gegeneraliseerd_1996.cef9ef35-b30b-4a58-a402-8527affe8548"},"id":"LB2204"},
{"type":"Feature","geometry":{"type":"Polygon","coordinates":[[[248063,568447],[239169,562845],[241401,556355],[243858,555000],[244913,550868],[245908,543933],[247975,541094],[253628,536263],[252421,533297],[254430,524208],[261342,522675],[268034,522345],[268563,537221],[269919,540356],[266297,544126],[264591,544102],[266539,548928],[264376,550047],[258963,557389],[248063,568447]]]},"properties":{"id":310152,"statcode":"LB2205","statnaam":"Drentse Veenkolonien en Hondsrug","jrstatcode":"1996LB2205","rubriek":"landbouwgebied","FID":"landbouwgebied_gegeneraliseerd_1996.5c198a16-dd56-4b87-bbb3-ac574365dfb4"},"id":"LB2205"},
{"type":"Feature","geometry":{"type":"Polygon","coordinates":[[[218638,519440],[213496,520623],[211080,522438],[208317,521735],[206953,523172],[204482,529549],[206937,530873],[209934,534362],[204348,541038],[198417,536614],[196189,536783],[194420,539596],[188015,534950],[184167,536758],[182509,535550],[184131,533139],[186203,533146],[191092,529453],[194046,523005],[191961,521023],[195393,519020],[197951,517227],[195831,515517],[191899,514025],[188914,514449],[185936,513693],[185794,508690],[186712,507916],[187631,503630],[189917,502120],[191568,498616],[194279,498906],[198492,502634],[203401,498274],[204133,495000],[206165,495144],[212501,493071],[219886,494735],[220000,499775],[219154,503169],[221125,504549],[218179,512807],[218638,519440]]]},"properties":{"id":310153,"statcode":"LB2301","statnaam":"Weidegebied in Overijssel","jrstatcode":"1996LB2301","rubriek":"landbouwgebied","FID":"landbouwgebied_gegeneraliseerd_1996.168bb572-0310-4b85-9aca-026ae56a34be"},"id":"LB2301"},
{"type":"Feature","geometry":{"type":"Polygon","coordinates":[[[244551,516404],[244418,518745],[238013,521445],[233848,520436],[232286,519175],[231276,518275],[231621,514665],[227940,515687],[222012,514822],[221143,517699],[218638,519440],[218179,512807],[221125,504549],[219154,503169],[220000,499775],[219886,494735],[223246,493834],[225702,494992],[227458,497462],[228964,495364],[231439,494965],[233580,496573],[235529,496090],[238785,497057],[242060,501569],[244003,500646],[245144,507582],[245763,514993],[244551,516404]]]},"properties":{"id":310154,"statcode":"LB2302","statnaam":"Noordoost Overijssel","jrstatcode":"1996LB2302","rubriek":"landbouwgebied","FID":"landbouwgebied_gegeneraliseerd_1996.b04a3083-26aa-4bcb-af16-b716717bb160"},"id":"LB2302"},
{"type":"Feature","geometry":{"type":"Polygon","coordinates":[[[223246,493834],[224249,492459],[223168,488455],[220103,487331],[219480,485263],[221042,481588],[225535,482456],[228209,481867],[228978,476066],[225313,473188],[226209,471071],[229668,466629],[234886,466101],[237337,466684],[238809,464580],[241043,465858],[242904,464875],[242318,460985],[246031,459721],[249060,459843],[255559,460159],[259022,466406],[261967,467034],[264441,472184],[267897,472364],[268008,475525],[266830,479484],[269731,488545],[268520,491664],[265420,494719],[263742,499205],[260684,495317],[255264,496967],[254718,497906],[249333,497776],[244003,500646],[242060,501569],[238785,497057],[235529,496090],[233580,496573],[231439,494965],[228964,495364],[227458,497462],[225702,494992],[223246,493834]]]},"properties":{"id":310155,"statcode":"LB2303","statnaam":"Twente","jrstatcode":"1996LB2303","rubriek":"landbouwgebied","FID":"landbouwgebied_gegeneraliseerd_1996.79379fbf-240b-4c36-b778-6a66c5e5cb9d"},"id":"LB2303"},
{"type":"Feature","geometry":{"type":"Polygon","coordinates":[[[204133,495000],[204543,487964],[202450,487405],[201795,482736],[203728,479493],[206953,471341],[208614,471366],[220000,471442],[220812,473060],[225313,473188],[228978,476066],[228209,481867],[225535,482456],[221042,481588],[219480,485263],[220103,487331],[223168,488455],[224249,492459],[223246,493834],[219886,494735],[212501,493071],[206165,495144],[204133,495000]]]},"properties":{"id":310156,"statcode":"LB2304","statnaam":"Salland","jrstatcode":"1996LB2304","rubriek":"landbouwgebied","FID":"landbouwgebied_gegeneraliseerd_1996.64f92f8c-bafc-4853-98a3-c46c28f15e64"},"id":"LB2304"},
{"type":"Feature","geometry":{"type":"Polygon","coordinates":[[[195393,519020],[191961,521023],[194046,523005],[191092,529453],[186203,533146],[184131,533139],[182509,535550],[179358,539235],[176957,539028],[173556,538078],[169046,530675],[168923,519526],[172922,514394],[173922,513984],[185156,513988],[193972,516936],[195393,519020]]]},"properties":{"id":310157,"statcode":"LB2401","statnaam":"Noordoostelijke Polder","jrstatcode":"1996LB2401","rubriek":"landbouwgebied","FID":"landbouwgebied_gegeneraliseerd_1996.8f5e9b32-e0a3-403d-be03-9386ea654f55"},"id":"LB2401"},
{"type":"Feature","geometry":{"type":"Polygon","coordinates":[[[138102,481938],[141335,483122],[146489,481807],[149890,479561],[150017,479446],[155882,474158],[156885,473945],[164663,476345],[166026,480644],[165278,484653],[167032,486661],[170171,486429],[173593,490006],[177840,492146],[179267,491808],[182771,494714],[186427,501002],[186566,507078],[184082,509848],[173348,512135],[172128,513385],[166740,511734],[162685,507606],[159789,506934],[158220,502618],[146247,494183],[139652,490245],[137393,488356],[137815,482296],[138102,481938]]]},"properties":{"id":310158,"statcode":"LB2402","statnaam":"Zuidelijke IJsselmeerpolders","jrstatcode":"1996LB2402","rubriek":"landbouwgebied","FID":"landbouwgebied_gegeneraliseerd_1996.861fa6ca-7b78-4b2f-9edd-d7af527428ca"},"id":"LB2402"},
{"type":"Feature","geometry":{"type":"Polygon","coordinates":[[[204133,495000],[203401,498274],[198492,502634],[194279,498906],[191568,498616],[189917,502120],[187631,503630],[185496,496780],[180185,491025],[183890,490630],[187553,485848],[188648,483147],[185940,479699],[186085,475557],[179731,475654],[180542,473445],[178167,472773],[179858,467354],[182746,467727],[183912,462664],[187328,462382],[189005,457682],[193273,456932],[193332,454530],[197621,454141],[200511,459808],[202325,461409],[200281,466534],[200085,470466],[198795,473595],[199766,476968],[199173,478730],[200364,482182],[201795,482736],[202450,487405],[204543,487964],[204133,495000]]]},"properties":{"id":310159,"statcode":"LB2501","statnaam":"Oostelijke Veluwe","jrstatcode":"1996LB2501","rubriek":"landbouwgebied","FID":"landbouwgebied_gegeneraliseerd_1996.674df5ee-e9a0-4b02-b046-a205fdc8c7e3"},"id":"LB2501"},
{"type":"Feature","geometry":{"type":"Polygon","coordinates":[[[201795,482736],[200364,482182],[199173,478730],[199766,476968],[198795,473595],[200085,470466],[200281,466534],[202325,461409],[200511,459808],[197621,454141],[195524,451948],[196767,448831],[194417,444605],[196416,443060],[201324,443939],[203328,442391],[207042,443836],[212563,443655],[217140,445389],[214774,448697],[214974,453213],[214136,455886],[211960,456042],[209995,458799],[209361,462997],[210000,465893],[208614,471366],[206953,471341],[203728,479493],[201795,482736]]]},"properties":{"id":310160,"statcode":"LB2502","statnaam":"IJsselstreek","jrstatcode":"1996LB2502","rubriek":"landbouwgebied","FID":"landbouwgebied_gegeneraliseerd_1996.525b56b7-f0e6-41ae-bc78-f6645796f490"},"id":"LB2502"},
{"type":"Feature","geometry":{"type":"Polygon","coordinates":[[[194038,440213],[196336,436184],[198685,434394],[195884,430251],[194336,429807],[192054,431882],[189427,430846],[190586,426625],[189327,424653],[186019,424257],[184199,422533],[181486,426118],[184610,431384],[176225,434123],[167490,434837],[158987,432859],[156540,428405],[152232,423964],[153748,422349],[156258,425967],[160393,424747],[162099,426882],[165643,425317],[168853,426809],[172196,425664],[179984,418767],[182086,418236],[188000,418855],[189951,421118],[191452,418336],[194074,417803],[196637,419900],[195815,423380],[193456,426242],[194677,427746],[197388,427273],[201031,429542],[208709,428303],[205826,434668],[207788,435467],[203475,438163],[203328,442391],[201324,443939],[196416,443060],[194038,440213]]]},"properties":{"id":310161,"statcode":"LB2503","statnaam":"Zuidelijk Gelderland","jrstatcode":"1996LB2503","rubriek":"landbouwgebied","FID":"landbouwgebied_gegeneraliseerd_1996.ab0c6512-b45e-4a94-b7ec-3e40fafe8b7c"},"id":"LB2503"},
{"type":"Feature","geometry":{"type":"Polygon","coordinates":[[[184610,431384],[181486,426118],[184199,422533],[186019,424257],[189327,424653],[190586,426625],[189427,430846],[192054,431882],[194336,429807],[195884,430251],[198685,434394],[196336,436184],[194038,440213],[192438,441365],[190397,438454],[185003,439911],[182144,439145],[183943,435817],[184610,431384]]]},"properties":{"id":310162,"statcode":"LB2504","statnaam":"Oostelijke Betuwe en Nijmegen","jrstatcode":"1996LB2504","rubriek":"landbouwgebied","FID":"landbouwgebied_gegeneraliseerd_1996.2ab7f187-582f-46d7-bcc8-4e58c6d31823"},"id":"LB2504"},
{"type":"Feature","geometry":{"type":"Polygon","coordinates":[[[152232,423964],[156540,428405],[158987,432859],[167490,434837],[176225,434123],[184610,431384],[183943,435817],[182144,439145],[185003,439911],[190397,438454],[192438,441365],[194038,440213],[196416,443060],[194417,444605],[196767,448831],[195524,451948],[197621,454141],[193332,454530],[190136,451421],[186738,451572],[184241,448477],[179572,447973],[178730,445870],[172174,444865],[170014,445109],[171483,440875],[170045,439445],[166373,441023],[161830,443940],[157970,443874],[155258,442481],[152326,442164],[150241,440734],[144456,443296],[143056,441370],[140751,442152],[136106,433282],[131955,431429],[130142,425631],[135003,426350],[137090,425230],[142083,424674],[148709,426148],[152232,423964]]]},"properties":{"id":310163,"statcode":"LB2505","statnaam":"Veluwezoom en Betuwe","jrstatcode":"1996LB2505","rubriek":"landbouwgebied","FID":"landbouwgebied_gegeneraliseerd_1996.04db64eb-a6da-422c-b804-e5aaee332a7a"},"id":"LB2505"},
{"type":"Feature","geometry":{"type":"Polygon","coordinates":[[[153748,422349],[152232,423964],[148709,426148],[142083,424674],[137090,425230],[135003,426350],[130142,425631],[128370,425885],[132961,421305],[135226,422092],[137751,420503],[137100,416575],[143500,417215],[145282,416142],[148664,416457],[152678,418534],[153748,422349]]]},"properties":{"id":310164,"statcode":"LB2506","statnaam":"Bommelerwaard","jrstatcode":"1996LB2506","rubriek":"landbouwgebied","FID":"landbouwgebied_gegeneraliseerd_1996.69a0906b-6c09-4e24-b71d-a0e2d17d70f8"},"id":"LB2506"},
{"type":"Feature","geometry":{"type":"Polygon","coordinates":[[[193332,454530],[193273,456932],[189005,457682],[187328,462382],[183912,462664],[182746,467727],[179858,467354],[178167,472773],[180542,473445],[179731,475654],[186085,475557],[185940,479699],[188648,483147],[187553,485848],[183890,490630],[180185,491025],[172718,485989],[166781,480522],[164590,475086],[161928,474960],[156113,473185],[155439,470230],[158504,467754],[159189,464318],[161280,464071],[162581,460228],[161644,453482],[167043,454457],[166698,451183],[170014,445109],[172174,444865],[178730,445870],[179572,447973],[184241,448477],[186738,451572],[190136,451421],[193332,454530]]]},"properties":{"id":310165,"statcode":"LB2507","statnaam":"Westelijke Veluwe","jrstatcode":"1996LB2507","rubriek":"landbouwgebied","FID":"landbouwgebied_gegeneraliseerd_1996.0514f5ca-c433-4815-ac97-6bda408caf63"},"id":"LB2507"},
{"type":"Feature","geometry":{"type":"Polygon","coordinates":[[[207788,435467],[212008,431337],[217906,431054],[224091,427658],[225396,429904],[228277,431280],[229772,430032],[231714,431620],[237501,434632],[243584,437168],[246865,435018],[250135,437318],[251742,439474],[252027,442085],[254054,442725],[253857,445995],[248727,449778],[244240,450970],[244674,454324],[248351,455849],[249060,459843],[246031,459721],[242318,460985],[242904,464875],[241043,465858],[238809,464580],[237337,466684],[234886,466101],[229668,466629],[226209,471071],[225313,473188],[220812,473060],[220000,471442],[208614,471366],[210000,465893],[209361,462997],[209995,458799],[211960,456042],[214136,455886],[214974,453213],[214774,448697],[217140,445389],[212563,443655],[207042,443836],[203328,442391],[203475,438163],[207788,435467]]]},"properties":{"id":310166,"statcode":"LB2508","statnaam":"Achterhoek","jrstatcode":"1996LB2508","rubriek":"landbouwgebied","FID":"landbouwgebied_gegeneraliseerd_1996.02c0766e-e4cb-4da2-81be-fa82201d4f0c"},"id":"LB2508"},
{"type":"Feature","geometry":{"type":"Polygon","coordinates":[[[149767,457823],[146501,459859],[145137,464685],[143232,466759],[140327,458497],[139577,457697],[141232,456085],[137143,451878],[136621,445745],[138550,443029],[140751,442152],[143056,441370],[144456,443296],[150241,440734],[152326,442164],[155258,442481],[155893,444440],[159013,445499],[161154,448186],[161734,451996],[156780,448986],[151731,452248],[149767,457823]]]},"properties":{"id":310167,"statcode":"LB2601","statnaam":"Kromme Rijn-streek en Heuvelrug","jrstatcode":"1996LB2601","rubriek":"landbouwgebied","FID":"landbouwgebied_gegeneraliseerd_1996.d8655686-a2fc-4602-a16a-70c00456ff47"},"id":"LB2601"},
{"type":"Feature","geometry":{"type":"Polygon","coordinates":[[[139577,457697],[140327,458497],[143232,466759],[143265,468476],[141682,465538],[138470,467644],[137702,469584],[133573,469706],[130475,475538],[131499,477226],[130059,479454],[125532,476789],[122478,473958],[119689,474044],[117792,472056],[114506,471127],[115752,468306],[119418,465169],[119905,461315],[116988,461930],[114243,459516],[116506,457798],[116747,451431],[114921,447470],[118798,442309],[119977,438942],[122326,439414],[124527,441852],[127862,443153],[130671,442438],[133017,445160],[136621,445745],[137143,451878],[132934,451965],[125462,453639],[123506,459348],[126694,460239],[130345,463745],[136409,465783],[134999,463051],[135821,460599],[139577,457697]]]},"properties":{"id":310168,"statcode":"LB2602","statnaam":"Westelijk weidegebied in Utrecht","jrstatcode":"1996LB2602","rubriek":"landbouwgebied","FID":"landbouwgebied_gegeneraliseerd_1996.7a6101ea-3f78-4a3a-b0ce-c22a830e4400"},"id":"LB2602"},
{"type":"Feature","geometry":{"type":"Polygon","coordinates":[[[139577,457697],[135821,460599],[134999,463051],[136409,465783],[130345,463745],[126694,460239],[123506,459348],[125462,453639],[132934,451965],[137143,451878],[141232,456085],[139577,457697]]]},"properties":{"id":310169,"statcode":"LB2603","statnaam":"Centraal tuinbouwgebied in Utrecht","jrstatcode":"1996LB2603","rubriek":"landbouwgebied","FID":"landbouwgebied_gegeneraliseerd_1996.f30581ff-5ef1-4992-80f4-caed7e9d603f"},"id":"LB2603"},
{"type":"Feature","geometry":{"type":"Polygon","coordinates":[[[159189,464318],[158504,467754],[155439,470230],[156113,473185],[153443,475579],[149482,476605],[146713,477079],[143781,470810],[143265,468476],[143232,466759],[145137,464685],[146501,459859],[149767,457823],[152838,460968],[155718,460648],[159189,464318]]]},"properties":{"id":310170,"statcode":"LB2604","statnaam":"Eemland","jrstatcode":"1996LB2604","rubriek":"landbouwgebied","FID":"landbouwgebied_gegeneraliseerd_1996.4bd1e577-14e4-4d5f-af1b-d763c5dd29ea"},"id":"LB2604"},
{"type":"Feature","geometry":{"type":"Polygon","coordinates":[[[170014,445109],[166698,451183],[167043,454457],[161644,453482],[162581,460228],[161280,464071],[159189,464318],[155718,460648],[152838,460968],[149767,457823],[151731,452248],[156780,448986],[161734,451996],[161154,448186],[159013,445499],[155893,444440],[155258,442481],[157970,443874],[161830,443940],[166373,441023],[170045,439445],[171483,440875],[170014,445109]]]},"properties":{"id":310171,"statcode":"LB2605","statnaam":"Zandgebied in Utrecht","jrstatcode":"1996LB2605","rubriek":"landbouwgebied","FID":"landbouwgebied_gegeneraliseerd_1996.a1181f70-581b-412e-bbea-a5f4761eefd4"},"id":"LB2605"},
{"type":"Feature","geometry":{"type":"Polygon","coordinates":[[[122846,535277],[125240,529731],[131139,529465],[135886,531942],[136599,539844],[132234,548591],[131962,549892],[140202,556942],[140142,557012],[132592,550488],[126854,549273],[124870,546432],[120654,544614],[122851,542872],[121617,540227],[122846,535277]]]},"properties":{"id":310172,"statcode":"LB2701","statnaam":"Wieringen en Wieringermeer","jrstatcode":"1996LB2701","rubriek":"landbouwgebied","FID":"landbouwgebied_gegeneraliseerd_1996.4bec6fc9-0752-4213-b514-bbcf49e6cc53"},"id":"LB2701"},
{"type":"Feature","geometry":{"type":"Polygon","coordinates":[[[106026,471651],[109857,475246],[113757,477604],[116250,482100],[111975,485588],[112072,487964],[110403,488929],[106688,487945],[106343,485012],[103397,483547],[102117,480908],[99105,475928],[98055,470798],[103433,470055],[106026,471651]]]},"properties":{"id":310173,"statcode":"LB2702","statnaam":"Haarlemmermeer","jrstatcode":"1996LB2702","rubriek":"landbouwgebied","FID":"landbouwgebied_gegeneraliseerd_1996.c669eca0-46f8-43fc-bf18-828570e6ba1f"},"id":"LB2702"},
{"type":"Feature","geometry":{"type":"Polygon","coordinates":[[[116250,482100],[113757,477604],[109857,475246],[106026,471651],[109709,471777],[109627,470036],[114506,471127],[117792,472056],[119689,474044],[120309,476889],[122411,481288],[116250,482100]]]},"properties":{"id":310174,"statcode":"LB2703","statnaam":"Amstelland en Aalsmeer","jrstatcode":"1996LB2703","rubriek":"landbouwgebied","FID":"landbouwgebied_gegeneraliseerd_1996.8f8594c3-b31c-4527-ac0b-d6c04cb02ea5"},"id":"LB2703"},
{"type":"Feature","geometry":{"type":"MultiPolygon","coordinates":[[[[111349,521683],[109934,523511],[108821,527489],[112082,533559],[114750,535821],[120408,534760],[122846,535277],[121617,540227],[122851,542872],[120654,544614],[115985,547478],[114948,550020],[115621,553210],[110894,553045],[109844,550793],[109399,544282],[107417,536419],[104663,528112],[103327,517194],[109447,517467],[111349,521683]]],[[[122264,568260],[122911,572220],[119906,577354],[116563,574745],[110388,564320],[109453,558274],[110639,555655],[114352,557339],[116888,560399],[118750,560911],[122155,565841],[122264,568260]]]]},"properties":{"id":310175,"statcode":"LB2704","statnaam":"Texel en Land van Zijpe","jrstatcode":"1996LB2704","rubriek":"landbouwgebied","FID":"landbouwgebied_gegeneraliseerd_1996.328f4aff-7dad-4dba-8b36-4e96eab95991"},"id":"LB2704"},
{"type":"Feature","geometry":{"type":"Polygon","coordinates":[[[122846,535277],[120408,534760],[114750,535821],[112082,533559],[108821,527489],[109934,523511],[111349,521683],[113867,521188],[112986,518420],[114700,516952],[117871,517769],[120702,516363],[120931,514073],[125270,514078],[125365,512058],[129096,512298],[130103,513933],[130067,515907],[134313,517235],[139665,515298],[144758,518853],[145451,522027],[147325,522343],[148221,527657],[146301,529575],[141864,529752],[138779,528079],[135886,531942],[131139,529465],[125240,529731],[122846,535277]]]},"properties":{"id":310176,"statcode":"LB2705","statnaam":"West-Friesland en omgeving","jrstatcode":"1996LB2705","rubriek":"landbouwgebied","FID":"landbouwgebied_gegeneraliseerd_1996.8af7b4b3-0ecf-4b41-b380-7deb93ee757e"},"id":"LB2705"},
{"type":"Feature","geometry":{"type":"Polygon","coordinates":[[[112072,487964],[112856,493620],[118858,492212],[119328,493698],[123954,491632],[128665,493138],[133306,492105],[131334,497529],[134530,501829],[130841,508940],[130103,513933],[129096,512298],[125365,512058],[125270,514078],[120931,514073],[120702,516363],[117871,517769],[114700,516952],[112254,511743],[109653,510489],[109665,507322],[108007,506548],[107847,502801],[109340,500832],[106575,496648],[108793,494665],[106653,491607],[106688,487945],[110403,488929],[112072,487964]]]},"properties":{"id":310177,"statcode":"LB2706","statnaam":"Waterland en Noordhollandse Droogmakerijen","jrstatcode":"1996LB2706","rubriek":"landbouwgebied","FID":"landbouwgebied_gegeneraliseerd_1996.fcdfecbb-4141-4eca-97e9-9733d04ec97d"},"id":"LB2706"},
{"type":"Feature","geometry":{"type":"Polygon","coordinates":[[[130059,479454],[131499,477226],[130475,475538],[133573,469706],[137702,469584],[138470,467644],[141682,465538],[143265,468476],[143781,470810],[146713,477079],[149482,476605],[150017,479446],[149890,479561],[148634,478638],[145395,480391],[139846,479632],[138102,481938],[137815,482296],[133881,483586],[131137,482922],[129459,484063],[126537,485433],[122411,481288],[120309,476889],[119689,474044],[122478,473958],[125532,476789],[123787,480029],[127107,482651],[130059,479454]]]},"properties":{"id":310178,"statcode":"LB2707","statnaam":"'t Gein en Gooiland","jrstatcode":"1996LB2707","rubriek":"landbouwgebied","FID":"landbouwgebied_gegeneraliseerd_1996.74365381-f894-4f12-af51-06366c47c597"},"id":"LB2707"},
{"type":"Feature","geometry":{"type":"Polygon","coordinates":[[[102117,480908],[103397,483547],[106343,485012],[106688,487945],[106653,491607],[108793,494665],[106575,496648],[109340,500832],[107847,502801],[108007,506548],[109665,507322],[109653,510489],[112254,511743],[114700,516952],[112986,518420],[113867,521188],[111349,521683],[109447,517467],[103327,517194],[102313,509827],[100672,501559],[98476,497427],[98384,493072],[94101,482631],[98835,480460],[102117,480908]]]},"properties":{"id":310179,"statcode":"LB2708","statnaam":"Kennemerland","jrstatcode":"1996LB2708","rubriek":"landbouwgebied","FID":"landbouwgebied_gegeneraliseerd_1996.d4e075f5-6af8-4428-bbfe-136fc5217c53"},"id":"LB2708"},
{"type":"Feature","geometry":{"type":"Polygon","coordinates":[[[105661,426056],[102166,423884],[99096,424784],[97000,427374],[90400,427481],[85844,428647],[82516,431163],[77812,431265],[75950,432230],[74265,435251],[70755,438291],[67014,439406],[59702,437500],[62595,435906],[61826,433506],[63961,430124],[62734,427900],[62765,427853],[70556,426586],[75296,424049],[77709,419735],[83188,417772],[88029,414822],[91959,414421],[96089,413090],[106710,416312],[110225,419447],[112677,422909],[115979,423522],[120361,425448],[113684,425342],[111111,426095],[105661,426056]]]},"properties":{"id":310180,"statcode":"LB2801","statnaam":"Voorne-Putten en Hoeksche Waard","jrstatcode":"1996LB2801","rubriek":"landbouwgebied","FID":"landbouwgebied_gegeneraliseerd_1996.0bf51cd7-8045-49b2-99bf-1cd7ad25851b"},"id":"LB2801"},
{"type":"Feature","geometry":{"type":"MultiPolygon","coordinates":[[[[85844,428647],[90400,427481],[97000,427374],[99096,424784],[102166,423884],[105661,426056],[105787,428044],[102150,433733],[99171,435259],[98631,432495],[91494,430787],[88229,431987],[86078,431362],[85844,428647]]],[[[74711,439862],[75238,435610],[77450,434829],[86781,434716],[88266,437342],[85732,442144],[81297,439339],[79707,437544],[74711,439862]]]]},"properties":{"id":310181,"statcode":"LB2802","statnaam":"Rotterdam en omgeving","jrstatcode":"1996LB2802","rubriek":"landbouwgebied","FID":"landbouwgebied_gegeneraliseerd_1996.842ce253-c107-4f22-ab3a-b500a71360b6"},"id":"LB2802"},
{"type":"Feature","geometry":{"type":"Polygon","coordinates":[[[48304,419801],[51578,423760],[56197,424958],[59029,424992],[61626,422576],[63068,418447],[63269,414484],[69768,412747],[75617,408996],[78154,408081],[82358,408942],[84248,410627],[84324,413061],[81892,413138],[77928,415647],[72425,421344],[70535,421971],[62031,426712],[62765,427853],[62734,427900],[59222,429430],[49988,426500],[49989,423048],[48122,419980],[48304,419801]]]},"properties":{"id":310182,"statcode":"LB2803","statnaam":"Goeree-Overflakkee","jrstatcode":"1996LB2803","rubriek":"landbouwgebied","FID":"landbouwgebied_gegeneraliseerd_1996.98de7903-c3f7-41e4-b7a1-0b5d6e2acf69"},"id":"LB2803"},
{"type":"Feature","geometry":{"type":"Polygon","coordinates":[[[114506,471127],[109627,470036],[109709,471777],[106026,471651],[103433,470055],[98055,470798],[95531,470205],[88662,460038],[85480,456767],[82882,454609],[85719,452927],[90746,451631],[92521,449652],[94438,449654],[98081,452874],[96488,454205],[96672,459298],[99260,462987],[102423,463671],[106593,464074],[108357,462896],[114274,465341],[118376,464375],[119418,465169],[115752,468306],[114506,471127]]]},"properties":{"id":310183,"statcode":"LB2804","statnaam":"Westelijk Rijnland","jrstatcode":"1996LB2804","rubriek":"landbouwgebied","FID":"landbouwgebied_gegeneraliseerd_1996.048f5778-3925-4ef7-8421-802038ea9f8d"},"id":"LB2804"},
{"type":"Feature","geometry":{"type":"Polygon","coordinates":[[[105117,453103],[108787,454509],[108511,456371],[103895,456851],[102423,463671],[99260,462987],[96672,459298],[96488,454205],[98081,452874],[103550,454201],[105117,453103]]]},"properties":{"id":310184,"statcode":"LB2805","statnaam":"Boskoop en Rijneveld","jrstatcode":"1996LB2805","rubriek":"landbouwgebied","FID":"landbouwgebied_gegeneraliseerd_1996.e6942b0f-e913-4e85-b9d5-ef2aae23b57f"},"id":"LB2805"},
{"type":"Feature","geometry":{"type":"Polygon","coordinates":[[[102150,433733],[109376,434584],[115014,437281],[116832,439053],[119977,438942],[118798,442309],[114921,447470],[116747,451431],[116506,457798],[114243,459516],[116988,461930],[119905,461315],[119418,465169],[118376,464375],[114274,465341],[108357,462896],[106593,464074],[102423,463671],[103895,456851],[108511,456371],[108787,454509],[105117,453103],[106298,450867],[102103,445920],[104202,443800],[103152,438954],[97382,435691],[99171,435259],[102150,433733]]]},"properties":{"id":310185,"statcode":"LB2806","statnaam":"Krimpenerwaard en Oostelijk Rijnland","jrstatcode":"1996LB2806","rubriek":"landbouwgebied","FID":"landbouwgebied_gegeneraliseerd_1996.e74a515e-8f54-4049-88d2-2baf61c8e45e"},"id":"LB2806"},
{"type":"Feature","geometry":{"type":"Polygon","coordinates":[[[136621,445745],[133017,445160],[130671,442438],[127862,443153],[124527,441852],[122326,439414],[119977,438942],[116832,439053],[115014,437281],[109376,434584],[102150,433733],[105787,428044],[105661,426056],[111111,426095],[113684,425342],[120361,425448],[123901,426731],[126209,426199],[128370,425885],[130142,425631],[131955,431429],[136106,433282],[140751,442152],[138550,443029],[136621,445745]]]},"properties":{"id":310186,"statcode":"LB2807","statnaam":"Alblasserwaard en Vijfherenlanden","jrstatcode":"1996LB2807","rubriek":"landbouwgebied","FID":"landbouwgebied_gegeneraliseerd_1996.8131458e-2911-4b1d-88a6-8015c5220b9a"},"id":"LB2807"},
{"type":"Feature","geometry":{"type":"Polygon","coordinates":[[[80786,460560],[83481,457149],[85480,456767],[88662,460038],[95531,470205],[98055,470798],[99105,475928],[102117,480908],[98835,480460],[94101,482631],[89444,473274],[86420,468048],[80786,460560]]]},"properties":{"id":310187,"statcode":"LB2808","statnaam":"Bollenstreek","jrstatcode":"1996LB2808","rubriek":"landbouwgebied","FID":"landbouwgebied_gegeneraliseerd_1996.a0df81e2-5e33-4e50-86ea-667721aec8ce"},"id":"LB2808"},
{"type":"Feature","geometry":{"type":"Polygon","coordinates":[[[85732,442144],[91955,443950],[94883,441905],[100544,445403],[100223,442546],[98693,441389],[98527,437825],[97382,435691],[103152,438954],[104202,443800],[102103,445920],[106298,450867],[105117,453103],[103550,454201],[98081,452874],[94438,449654],[92521,449652],[90746,451631],[85719,452927],[82882,454609],[85480,456767],[83481,457149],[80786,460560],[77487,457217],[68496,446559],[69820,444390],[72811,442568],[74711,439862],[79707,437544],[81297,439339],[85732,442144]]]},"properties":{"id":310188,"statcode":"LB2809","statnaam":"Westland en Zuidhollandse Droogmakerijen","jrstatcode":"1996LB2809","rubriek":"landbouwgebied","FID":"landbouwgebied_gegeneraliseerd_1996.52eba750-47b7-48ff-9d62-5bc26a5d82ed"},"id":"LB2809"},
{"type":"Feature","geometry":{"type":"MultiPolygon","coordinates":[[[[48122,419980],[46748,417952],[43675,418368],[39694,417521],[37680,415907],[37108,412385],[39509,409888],[44811,413078],[50527,409789],[51325,405833],[54810,406065],[56725,403775],[64013,405789],[66296,408466],[59923,413031],[56966,417102],[53166,416750],[51494,418338],[49156,417701],[48304,419801],[48122,419980]]],[[[72736,404081],[72312,405780],[68393,407875],[65911,406574],[65891,403182],[63271,403413],[57746,400036],[62097,396829],[63864,393964],[70137,393354],[73921,392028],[75164,396327],[72646,400345],[72736,404081]]],[[[33534,401309],[34781,399156],[38073,396835],[38489,394827],[42203,397388],[48674,396173],[51758,398197],[49349,402346],[45195,403026],[39742,401603],[37051,404093],[37030,404121],[36750,402531],[33497,401392],[33534,401309]]]]},"properties":{"id":310189,"statcode":"LB2901","statnaam":"Noordelijk Zeeland","jrstatcode":"1996LB2901","rubriek":"landbouwgebied","FID":"landbouwgebied_gegeneraliseerd_1996.9ed3e74f-caf2-4414-84cb-253b019f2971"},"id":"LB2901"},
{"type":"Feature","geometry":{"type":"Polygon","coordinates":[[[33497,401392],[29462,402220],[19639,396670],[19364,394820],[23757,391141],[25965,387258],[28660,385043],[36426,385785],[45362,378593],[51543,379481],[53104,384977],[56893,386876],[63939,380689],[69356,379129],[72423,380353],[74636,379009],[75380,376805],[77880,376911],[77117,377748],[77032,383945],[71217,384570],[67788,383275],[65098,384911],[59946,392975],[55750,394507],[53701,396039],[48994,395490],[46088,396630],[41033,395646],[38195,392847],[36036,396841],[32925,399857],[33534,401309],[33497,401392]]]},"properties":{"id":310190,"statcode":"LB2902","statnaam":"Walcheren en Zuid-Beveland","jrstatcode":"1996LB2902","rubriek":"landbouwgebied","FID":"landbouwgebied_gegeneraliseerd_1996.8d4a9328-9bfa-414a-923e-2b11f6b95757"},"id":"LB2902"},
{"type":"Feature","geometry":{"type":"Polygon","coordinates":[[[43406,362334],[43380,359732],[48231,359030],[50108,357824],[53601,359067],[59172,362653],[62147,362405],[69955,367942],[74724,373856],[72767,376854],[68933,376207],[69691,374025],[67503,373230],[64412,375786],[61925,376096],[59737,380005],[56638,380551],[55439,376089],[52642,375702],[49038,372992],[43672,374587],[39161,374594],[36618,377182],[29555,379176],[28393,380627],[24963,381517],[14340,377387],[15504,373579],[13563,371488],[15472,366813],[18169,363536],[25195,363553],[24431,368105],[29740,369891],[36848,366552],[41155,365708],[43891,364185],[43406,362334]]]},"properties":{"id":310191,"statcode":"LB2903","statnaam":"Zeeuwsch-Vlaanderen","jrstatcode":"1996LB2903","rubriek":"landbouwgebied","FID":"landbouwgebied_gegeneraliseerd_1996.1dbcf64b-bbd4-425f-8ee9-e85fc5fb8e11"},"id":"LB2903"},
{"type":"Feature","geometry":{"type":"Polygon","coordinates":[[[72736,404081],[72646,400345],[75164,396327],[77018,397226],[84812,395458],[89378,397054],[88644,402739],[93040,403683],[94858,402446],[98089,404879],[102189,404125],[104960,406891],[109353,408495],[107696,411689],[105614,412902],[103831,411702],[101895,413332],[101188,412352],[93974,410562],[88394,412350],[85585,408689],[79104,405326],[72736,404081]]]},"properties":{"id":310192,"statcode":"LB3001","statnaam":"Noordwesthoek","jrstatcode":"1996LB3001","rubriek":"landbouwgebied","FID":"landbouwgebied_gegeneraliseerd_1996.956efc90-6235-4462-994c-8d847b8ce922"},"id":"LB3001"},
{"type":"Feature","geometry":{"type":"MultiPolygon","coordinates":[[[[107342,405693],[111444,405583],[112068,403560],[118773,398884],[122194,401125],[122159,405089],[123871,406814],[126742,407295],[126164,414792],[119114,414627],[116968,413921],[114218,413721],[111109,415003],[107202,414673],[101895,413332],[103831,411702],[105614,412902],[107696,411689],[109353,408495],[104960,406891],[102189,404125],[107342,405693]]],[[[117248,418757],[113499,418011],[111339,415567],[116400,413949],[117675,415588],[117248,418757]]]]},"properties":{"id":310193,"statcode":"LB3002","statnaam":"Westelijke Langstraat","jrstatcode":"1996LB3002","rubriek":"landbouwgebied","FID":"landbouwgebied_gegeneraliseerd_1996.cec42d78-0ea3-4fa7-8a71-e6b71abf8a0c"},"id":"LB3002"},
{"type":"Feature","geometry":{"type":"Polygon","coordinates":[[[116968,413921],[119114,414627],[126164,414792],[128279,416550],[127611,418211],[123645,418541],[123617,422333],[125284,423217],[126209,426199],[123901,426731],[120361,425448],[115979,423522],[112757,422508],[111432,420981],[113653,418893],[117248,418757],[117675,415588],[116968,413921]]]},"properties":{"id":310194,"statcode":"LB3003","statnaam":"Biesbosch","jrstatcode":"1996LB3003","rubriek":"landbouwgebied","FID":"landbouwgebied_gegeneraliseerd_1996.c1c99eff-83db-458b-8ce9-d4af5691b7d3"},"id":"LB3003"},
{"type":"Feature","geometry":{"type":"Polygon","coordinates":[[[152678,418534],[148664,416457],[145282,416142],[143500,417215],[137100,416575],[137751,420503],[135226,422092],[132961,421305],[128370,425885],[126209,426199],[125284,423217],[123617,422333],[123645,418541],[127611,418211],[128279,416550],[126164,414792],[126742,407295],[127684,409791],[131606,408148],[135604,409871],[135364,412673],[139095,414071],[140512,410315],[144993,406737],[147407,403373],[150381,405199],[149260,408229],[153700,410221],[152825,411972],[157937,412522],[156271,416617],[156695,419263],[152678,418534]]]},"properties":{"id":310195,"statcode":"LB3004","statnaam":"Oostelijke Langstraat","jrstatcode":"1996LB3004","rubriek":"landbouwgebied","FID":"landbouwgebied_gegeneraliseerd_1996.1c6a4181-64de-423c-9228-2128666dd2b7"},"id":"LB3004"},
{"type":"Feature","geometry":{"type":"Polygon","coordinates":[[[73921,392028],[74812,389144],[78578,387414],[78859,384771],[77032,383945],[77117,377748],[77880,376911],[81711,377025],[82138,374783],[85169,374386],[88472,376635],[85197,381806],[85319,384949],[89355,387049],[96028,388493],[96704,387467],[98459,391669],[101938,391225],[106917,395315],[106409,400092],[109050,401697],[107342,405693],[102189,404125],[98089,404879],[94858,402446],[93040,403683],[88644,402739],[89378,397054],[84812,395458],[77018,397226],[75164,396327],[73921,392028]]]},"properties":{"id":310196,"statcode":"LB3005","statnaam":"Westelijke Zandgronden","jrstatcode":"1996LB3005","rubriek":"landbouwgebied","FID":"landbouwgebied_gegeneraliseerd_1996.9e380f6a-c8e2-4bd6-b3c0-5fd7a141b4c8"},"id":"LB3005"},
{"type":"Feature","geometry":{"type":"Polygon","coordinates":[[[107342,405693],[109050,401697],[106409,400092],[106917,395315],[101938,391225],[98459,391669],[96704,387467],[95406,384845],[95758,381890],[98500,382951],[105097,382168],[110946,390275],[112424,390860],[116241,388225],[116334,393364],[118730,396027],[118773,398884],[112068,403560],[111444,405583],[107342,405693]]]},"properties":{"id":310197,"statcode":"LB3006","statnaam":"Land van Breda","jrstatcode":"1996LB3006","rubriek":"landbouwgebied","FID":"landbouwgebied_gegeneraliseerd_1996.1a0afec5-1bac-4335-89d2-3339411914ed"},"id":"LB3006"},
{"type":"Feature","geometry":{"type":"Polygon","coordinates":[[[116241,388225],[116145,381776],[120135,380955],[123167,378709],[128408,384023],[128859,387101],[133491,386970],[135343,382518],[133010,378295],[137199,373093],[137368,369613],[139348,369033],[141969,370396],[144882,368459],[143748,364340],[151460,363751],[152142,365168],[157109,363663],[155036,366198],[155672,369232],[158267,370552],[156830,377190],[155093,376411],[152710,379944],[153206,384598],[145553,391192],[143264,396329],[140288,396686],[137404,394040],[129523,394838],[126436,394651],[125114,392275],[121955,391312],[118877,394491],[116334,393364],[116241,388225]]]},"properties":{"id":310198,"statcode":"LB3007","statnaam":"De Kempen","jrstatcode":"1996LB3007","rubriek":"landbouwgebied","FID":"landbouwgebied_gegeneraliseerd_1996.16e94de3-2b2d-4cd5-a796-65f3ac551b6e"},"id":"LB3007"},
{"type":"Feature","geometry":{"type":"Polygon","coordinates":[[[161863,367854],[161018,371617],[162619,374044],[165877,375135],[168502,373572],[172522,377804],[167449,383612],[163401,386894],[163564,389772],[158726,389705],[159182,391487],[156261,395485],[154710,400935],[155534,401867],[154494,406393],[158996,408387],[159819,410990],[157937,412522],[152825,411972],[153700,410221],[149260,408229],[150381,405199],[147407,403373],[144993,406737],[140512,410315],[139095,414071],[135364,412673],[135604,409871],[131606,408148],[127684,409791],[126742,407295],[123871,406814],[122159,405089],[122194,401125],[118773,398884],[118730,396027],[116334,393364],[118877,394491],[121955,391312],[125114,392275],[126436,394651],[129523,394838],[137404,394040],[140288,396686],[143264,396329],[145553,391192],[153206,384598],[152710,379944],[155093,376411],[156830,377190],[158267,370552],[155672,369232],[155036,366198],[157109,363663],[158813,365868],[161863,367854]]]},"properties":{"id":310199,"statcode":"LB3008","statnaam":"Midden Noord-Brabant","jrstatcode":"1996LB3008","rubriek":"landbouwgebied","FID":"landbouwgebied_gegeneraliseerd_1996.1af34cfb-2b94-4086-a748-1102a2f82476"},"id":"LB3008"},
{"type":"Feature","geometry":{"type":"Polygon","coordinates":[[[156695,419263],[159541,419568],[164560,416832],[168382,415875],[169719,413310],[175167,408497],[178809,409517],[180736,400628],[186261,397600],[193010,396216],[197783,398100],[200808,396825],[198763,403947],[194971,407273],[194270,413551],[189426,415569],[188000,418855],[182086,418236],[179984,418767],[172196,425664],[168853,426809],[165643,425317],[162099,426882],[160393,424747],[156258,425967],[153748,422349],[152678,418534],[156695,419263]]]},"properties":{"id":310200,"statcode":"LB3009","statnaam":"Maaskant en Land van Cuijk","jrstatcode":"1996LB3009","rubriek":"landbouwgebied","FID":"landbouwgebied_gegeneraliseerd_1996.89944bd3-c02a-4ea3-ae0c-682ae3f406b9"},"id":"LB3009"},
{"type":"Feature","geometry":{"type":"Polygon","coordinates":[[[167510,359070],[171161,360020],[171635,364872],[174859,369568],[188801,373857],[192869,377412],[188671,384705],[186261,397600],[180736,400628],[178809,409517],[175167,408497],[169719,413310],[168382,415875],[164560,416832],[159541,419568],[156695,419263],[156271,416617],[157937,412522],[159819,410990],[158996,408387],[154494,406393],[155534,401867],[154710,400935],[156261,395485],[159182,391487],[158726,389705],[163564,389772],[163401,386894],[167449,383612],[172522,377804],[168502,373572],[165877,375135],[162619,374044],[161018,371617],[161863,367854],[164197,366691],[166919,363691],[167510,359070]]]},"properties":{"id":310201,"statcode":"LB3010","statnaam":"Westelijk Peelgebied","jrstatcode":"1996LB3010","rubriek":"landbouwgebied","FID":"landbouwgebied_gegeneraliseerd_1996.72bbcf75-f370-4ebc-b17e-9aef79e59b3f"},"id":"LB3010"},
{"type":"Feature","geometry":{"type":"Polygon","coordinates":[[[191871,342057],[193645,338536],[195706,339610],[197784,344035],[200491,345427],[204353,349716],[208937,351353],[207562,354038],[204836,353617],[202961,355045],[202865,361692],[206449,365310],[209453,371820],[213448,374907],[211928,379250],[213105,387657],[212255,391922],[209787,394695],[208380,397784],[203784,402121],[204985,406696],[199923,409529],[199178,413593],[196926,416796],[194074,417803],[191452,418336],[189951,421118],[188000,418855],[189426,415569],[194270,413551],[194971,407273],[198763,403947],[200808,396825],[197783,398100],[193010,396216],[186261,397600],[188671,384705],[192869,377412],[188801,373857],[174859,369568],[171635,364872],[171161,360020],[167510,359070],[173100,356766],[173939,355077],[181563,354992],[182307,351386],[185596,353247],[187778,350685],[184482,347236],[184969,345147],[186239,345208],[191871,342057]]]},"properties":{"id":310202,"statcode":"LB3101","statnaam":"Noord-Limburg","jrstatcode":"1996LB3101","rubriek":"landbouwgebied","FID":"landbouwgebied_gegeneraliseerd_1996.f28872fb-90d5-4569-b298-2acbb30de6e3"},"id":"LB3101"},
{"type":"Feature","geometry":{"type":"Polygon","coordinates":[[[184969,345147],[183983,341491],[182010,341378],[181029,338311],[182298,337014],[181596,334296],[178451,330377],[181038,329586],[178519,324399],[172917,319400],[173805,314502],[176534,313543],[177142,310408],[175897,308036],[179834,307509],[182467,310333],[184671,307428],[190447,307523],[192257,306840],[195310,308196],[199686,307368],[200188,309526],[196464,312172],[199952,313987],[199288,316740],[201115,318139],[203375,317641],[204340,320511],[203434,322513],[204581,325560],[199358,327410],[199346,332875],[194882,333350],[190813,331812],[191383,334854],[189486,336618],[190059,340408],[191871,342057],[186239,345208],[184969,345147]]]},"properties":{"id":310203,"statcode":"LB3102","statnaam":"Zuid-Limburg","jrstatcode":"1996LB3102","rubriek":"landbouwgebied","FID":"landbouwgebied_gegeneraliseerd_1996.2791d3c1-cd84-4955-b7c7-cd14364fc7c3"},"id":"LB3102"}
]}