{"type":"FeatureCollection", "features": [
{"type":"Feature","geometry":{"type":"Polygon","coordinates":[[[215285,595051],[216915,592990],[219441,592424],[225684,593974],[228099,595872],[227035,600174],[228996,601937],[230003,604957],[232146,605075],[231937,605798],[221679,604195],[216361,601476],[213087,603418],[208483,603053],[208453,603009],[207658,601374],[211292,598149],[211293,596585],[214056,595843],[214940,595434],[215285,595051]]]},"properties":{"id":207699,"statcode":"LB2001","statnaam":"De Marne","jrstatcode":"2016LB2001","rubriek":"landbouwgebied","FID":"landbouwgebied_gegeneraliseerd_2016.5ebb5b01-7a01-425a-9f82-a448d6bc2f4e"},"id":"LB2001"},
{"type":"Feature","geometry":{"type":"Polygon","coordinates":[[[247394,589397],[247355,590380],[243112,592314],[241848,590907],[237153,592700],[236143,595253],[234182,596323],[232134,599814],[230584,600436],[231941,602853],[232146,605075],[230003,604957],[228996,601937],[227035,600174],[228099,595872],[225684,593974],[219441,592424],[216915,592990],[215285,595051],[214926,595331],[214542,592190],[215446,591703],[214483,591129],[212751,589387],[211391,585908],[211375,585819],[214349,585835],[214525,584652],[218888,585482],[224438,582339],[226920,579805],[230265,579512],[231407,579374],[233688,575208],[237112,572806],[238651,570295],[242575,571284],[242173,574546],[239916,577853],[240508,580246],[238890,583895],[247394,589397]]]},"properties":{"id":207700,"statcode":"LB2002","statnaam":"Centraal Weidegebied in Groningen","jrstatcode":"2016LB2002","rubriek":"landbouwgebied","FID":"landbouwgebied_gegeneraliseerd_2016.916b3ef8-83c3-494b-8d4d-b34e2ce0e5b4"},"id":"LB2002"},
{"type":"Feature","geometry":{"type":"Polygon","coordinates":[[[240508,580246],[241553,580104],[243955,577139],[245780,576610],[247122,577830],[250870,578160],[250631,574608],[249790,571745],[256232,572319],[262155,571115],[264855,571176],[265868,569616],[264125,566224],[265371,565466],[269991,565155],[271914,562754],[276822,564724],[276562,571156],[274894,573894],[277316,580573],[276367,584878],[274257,585083],[268702,586895],[267904,587793],[268141,591461],[264273,591911],[257676,594711],[255531,597646],[254839,602105],[253887,603436],[251826,604995],[247461,602192],[249100,598670],[250540,598064],[251714,594771],[249624,594206],[250151,591065],[247394,589397],[238890,583895],[240508,580246]]]},"properties":{"id":207701,"statcode":"LB2003","statnaam":"Oostelijke Bouwstreek in Groningen","jrstatcode":"2016LB2003","rubriek":"landbouwgebied","FID":"landbouwgebied_gegeneraliseerd_2016.cca5a47b-380e-4d49-b545-fb51ddcab20e"},"id":"LB2003"},
{"type":"Feature","geometry":{"type":"Polygon","coordinates":[[[248063,568447],[259062,557273],[264380,550052],[266539,548929],[264580,544106],[266297,544126],[268516,541104],[269919,540356],[270634,543238],[275614,552003],[277529,559786],[276822,564724],[271914,562754],[269991,565155],[265371,565466],[264125,566224],[265868,569616],[264855,571176],[262155,571115],[256232,572319],[249790,571745],[250631,574608],[250870,578160],[247122,577830],[245780,576610],[243955,577139],[241553,580104],[240508,580246],[239916,577853],[242173,574546],[242575,571284],[245396,571145],[248063,568447]]]},"properties":{"id":207702,"statcode":"LB2004","statnaam":"Westerwolde en Groninger Veenkoloniën","jrstatcode":"2016LB2004","rubriek":"landbouwgebied","FID":"landbouwgebied_gegeneraliseerd_2016.25441ed3-3934-4998-896e-587bd14040dd"},"id":"LB2004"},
{"type":"Feature","geometry":{"type":"Polygon","coordinates":[[[211375,585819],[210235,583350],[211302,582088],[209356,579402],[207841,575877],[207769,572325],[209753,570173],[213553,570079],[217162,567871],[219134,567129],[221595,574109],[223258,577318],[226920,579805],[224438,582339],[218888,585482],[214525,584652],[214349,585835],[211375,585819]]]},"properties":{"id":207703,"statcode":"LB2005","statnaam":"Groninger zuidelijk Westerkwartier","jrstatcode":"2016LB2005","rubriek":"landbouwgebied","FID":"landbouwgebied_gegeneraliseerd_2016.8e2fba56-d330-4c4e-9eaa-839cb238895f"},"id":"LB2005"},
{"type":"Feature","geometry":{"type":"MultiPolygon","coordinates":[[[[247394,589397],[250151,591065],[249624,594206],[251714,594771],[250540,598064],[249100,598670],[247461,602192],[251826,604995],[253887,603436],[254427,607098],[249718,609494],[248648,608523],[245189,609718],[240690,609027],[235441,606718],[231937,605798],[232146,605075],[231941,602853],[230584,600436],[232134,599814],[234182,596323],[236143,595253],[237153,592700],[241848,590907],[243112,592314],[247355,590380],[247394,589397]]],[[[228874,617279],[226153,618233],[226783,615560],[228874,617279]]]]},"properties":{"id":207704,"statcode":"LB2006","statnaam":"Oostelijk Hogeland","jrstatcode":"2016LB2006","rubriek":"landbouwgebied","FID":"landbouwgebied_gegeneraliseerd_2016.5481a08a-5d12-4a47-95d1-2921bcd9319e"},"id":"LB2006"},
{"type":"Feature","geometry":{"type":"Polygon","coordinates":[[[156632,573913],[158193,574083],[162401,572672],[164643,573465],[166740,571511],[169552,573090],[167840,575103],[168507,576757],[172773,575547],[174524,576965],[178443,576263],[178881,579071],[177877,583237],[179986,583763],[180914,582279],[183110,582015],[184701,584123],[184712,586982],[186597,589236],[188022,587920],[189642,589162],[188958,590705],[193436,593087],[194255,591324],[197255,591578],[197330,593235],[200881,593308],[200728,589761],[199490,589568],[198844,584303],[205301,586690],[207952,586348],[208872,587327],[211391,585908],[212751,589387],[214483,591129],[215446,591703],[214542,592190],[214926,595331],[212687,596077],[210563,595414],[210303,596673],[207855,597062],[206075,601022],[206313,602699],[208453,603009],[208483,603053],[207506,603426],[205014,602173],[201805,602689],[197014,602047],[191349,600330],[189145,600374],[180569,596464],[177097,594322],[172795,592704],[168321,590461],[164355,585658],[161372,583778],[158372,580334],[156632,573913]]]},"properties":{"id":207705,"statcode":"LB2101","statnaam":"Noordelijk Friesland","jrstatcode":"2016LB2101","rubriek":"landbouwgebied","FID":"landbouwgebied_gegeneraliseerd_2016.3bee037b-9c42-4830-9982-969d07e7bd70"},"id":"LB2101"},
{"type":"Feature","geometry":{"type":"Polygon","coordinates":[[[155313,563076],[156408,559367],[155786,556160],[156715,552936],[155915,550259],[155929,546550],[152743,544317],[153541,542876],[157622,540106],[159405,540846],[165600,538420],[168342,540261],[172262,541517],[173208,539716],[176959,539030],[179347,539230],[182511,535552],[184159,536762],[186630,542749],[188576,545361],[190255,545761],[191735,547691],[188586,555064],[186567,559000],[182700,562415],[183842,565430],[187834,566618],[188136,569019],[191454,569451],[192236,570709],[189891,573236],[191548,575922],[186745,576196],[186440,579816],[189116,580350],[187899,583074],[184701,584123],[183110,582015],[180914,582279],[179986,583763],[177877,583237],[178881,579071],[178443,576263],[174524,576965],[172773,575547],[168507,576757],[167840,575103],[169552,573090],[166740,571511],[164643,573465],[162401,572672],[158193,574083],[156632,573913],[156154,570540],[154325,567518],[152409,565652],[148692,564400],[140141,557012],[140200,556944],[148877,564435],[152030,565212],[154478,567203],[155313,563076]]]},"properties":{"id":207706,"statcode":"LB2102","statnaam":"Weidestreek in Friesland","jrstatcode":"2016LB2102","rubriek":"landbouwgebied","FID":"landbouwgebied_gegeneraliseerd_2016.0188e3b7-3228-4be6-8a6d-70f8b84c01de"},"id":"LB2102"},
{"type":"Feature","geometry":{"type":"Polygon","coordinates":[[[211391,585908],[208872,587327],[207952,586348],[205301,586690],[198844,584303],[199490,589568],[200728,589761],[200881,593308],[197330,593235],[197255,591578],[194255,591324],[193436,593087],[188958,590705],[189642,589162],[188022,587920],[186597,589236],[184712,586982],[184701,584123],[187899,583074],[189116,580350],[186440,579816],[186745,576196],[191548,575922],[189891,573236],[192236,570709],[191454,569451],[188136,569019],[187834,566618],[183842,565430],[182700,562415],[186567,559000],[188586,555064],[191735,547691],[190255,545761],[188576,545361],[186630,542749],[184159,536762],[185770,535426],[188169,534965],[191190,537499],[191589,538782],[194447,539633],[195389,537353],[198411,536618],[204348,541032],[210113,545124],[213462,549304],[216585,549046],[218660,547004],[221031,548771],[222656,550003],[224887,554364],[223907,555883],[220425,561227],[220729,564947],[216524,566444],[217162,567871],[213553,570079],[209753,570173],[207769,572325],[207841,575877],[209356,579402],[211302,582088],[210235,583350],[211375,585819],[211391,585908]]]},"properties":{"id":207707,"statcode":"LB2103","statnaam":"De Wouden","jrstatcode":"2016LB2103","rubriek":"landbouwgebied","FID":"landbouwgebied_gegeneraliseerd_2016.b8a418c1-cc05-4941-9beb-d479f6f89449"},"id":"LB2103"},
{"type":"Feature","geometry":{"type":"MultiPolygon","coordinates":[[[[165138,605551],[163097,606631],[155986,604500],[144219,601463],[141990,600557],[139459,596791],[141971,595819],[146495,598521],[148762,598234],[152959,600147],[154346,601511],[158536,601960],[165138,605551]]],[[[175001,608267],[173138,609320],[171211,608783],[170472,605547],[173714,603819],[177779,606363],[182751,605777],[188478,607342],[192009,607887],[192087,609268],[181399,608360],[175001,608267]]],[[[221584,614833],[214936,613886],[206136,612985],[204391,610910],[204748,609481],[211956,610401],[214040,611893],[221646,614708],[221584,614833]]],[[[133305,589663],[130915,590246],[128065,588464],[124125,585073],[119205,581743],[123353,581158],[124649,583461],[127595,585286],[127302,586560],[133305,589663]]]]},"properties":{"id":207708,"statcode":"LB2104","statnaam":"Eilanden","jrstatcode":"2016LB2104","rubriek":"landbouwgebied","FID":"landbouwgebied_gegeneraliseerd_2016.2bc4f8ec-4aff-4398-a015-77300a1cf7ca"},"id":"LB2104"},
{"type":"Feature","geometry":{"type":"Polygon","coordinates":[[[226920,579805],[223258,577318],[221595,574109],[219134,567129],[217162,567871],[216524,566444],[220729,564947],[220425,561227],[223907,555883],[230032,558689],[229352,561014],[230476,565637],[228191,571004],[232076,572367],[231776,576339],[230265,579512],[226920,579805]]]},"properties":{"id":207709,"statcode":"LB2201","statnaam":"Weidegebied van het Noorderveld","jrstatcode":"2016LB2201","rubriek":"landbouwgebied","FID":"landbouwgebied_gegeneraliseerd_2016.dbaf65b9-cbfc-4c21-ab76-07450367b563"},"id":"LB2201"},
{"type":"Feature","geometry":{"type":"Polygon","coordinates":[[[227043,535343],[229507,534553],[229481,532077],[230977,531123],[234580,531567],[234030,529307],[236066,528266],[240895,535643],[242950,536631],[242808,538409],[244378,543155],[242474,543915],[241076,547691],[235615,548712],[233930,551710],[236200,554657],[237290,558250],[239629,560675],[239171,562848],[240944,564804],[242933,565057],[248063,568447],[245396,571145],[242575,571284],[238651,570295],[237112,572806],[233688,575208],[231407,579374],[230265,579512],[231776,576339],[232076,572367],[228191,571004],[230476,565637],[229352,561014],[230032,558689],[223907,555883],[224887,554364],[222656,550003],[221031,548771],[220436,545709],[224522,544406],[225304,540870],[228639,539417],[227043,535343]]]},"properties":{"id":207710,"statcode":"LB2202","statnaam":"Smilde en Centraal Zandgebied in Drenthe","jrstatcode":"2016LB2202","rubriek":"landbouwgebied","FID":"landbouwgebied_gegeneraliseerd_2016.5acffb83-278c-4303-9edf-4ee48632859f"},"id":"LB2202"},
{"type":"Feature","geometry":{"type":"Polygon","coordinates":[[[204348,541032],[209941,534357],[206941,530874],[204504,529459],[207464,521684],[208828,521161],[210929,522428],[213484,520635],[218640,519439],[221143,517736],[222615,514396],[225693,516161],[226462,514760],[229785,515198],[231627,514661],[231252,518241],[232285,519169],[232331,521170],[230235,521260],[229283,523477],[226906,524927],[223951,524851],[224959,528907],[224044,531330],[226459,532627],[227043,535343],[228639,539417],[225304,540870],[224522,544406],[220436,545709],[221031,548771],[218660,547004],[216585,549046],[213462,549304],[210113,545124],[204348,541032]]]},"properties":{"id":207711,"statcode":"LB2203","statnaam":"Zuidwestelijk Weidegebied in Drenthe","jrstatcode":"2016LB2203","rubriek":"landbouwgebied","FID":"landbouwgebied_gegeneraliseerd_2016.c3c2d5c6-20cc-4814-be8c-278a8df3948d"},"id":"LB2203"},
{"type":"Feature","geometry":{"type":"Polygon","coordinates":[[[244378,543155],[242808,538409],[242950,536631],[240895,535643],[236066,528266],[234030,529307],[234580,531567],[230977,531123],[229481,532077],[229507,534553],[227043,535343],[226459,532627],[224044,531330],[224959,528907],[223951,524851],[226906,524927],[229283,523477],[230235,521260],[232331,521170],[232285,519169],[233852,520428],[238010,521438],[244405,518736],[244564,516402],[246695,518399],[249066,519142],[254793,519041],[253797,524550],[252210,528026],[252975,530324],[252507,533507],[253627,536263],[247853,541190],[245822,544354],[244378,543155]]]},"properties":{"id":207712,"statcode":"LB2204","statnaam":"Zuidelijk Zandgebied in Drenthe","jrstatcode":"2016LB2204","rubriek":"landbouwgebied","FID":"landbouwgebied_gegeneraliseerd_2016.0e3ec0c9-e48b-407e-b632-f596abe859f0"},"id":"LB2204"},
{"type":"Feature","geometry":{"type":"Polygon","coordinates":[[[269919,540356],[268516,541104],[266297,544126],[264580,544106],[266539,548929],[264380,550052],[259062,557273],[248063,568447],[242933,565057],[240944,564804],[239171,562848],[239629,560675],[237290,558250],[236200,554657],[233930,551710],[235615,548712],[241076,547691],[242474,543915],[244378,543155],[245822,544354],[247853,541190],[253627,536263],[252507,533507],[252975,530324],[252210,528026],[253797,524550],[254793,519041],[257178,519277],[260013,517836],[262529,518821],[267018,517426],[267871,519035],[268563,537232],[269919,540356]]]},"properties":{"id":207713,"statcode":"LB2205","statnaam":"Drentse Veenkoloniën en Hondsrug","jrstatcode":"2016LB2205","rubriek":"landbouwgebied","FID":"landbouwgebied_gegeneraliseerd_2016.c5031ce6-53a5-4afb-80da-a2d307546646"},"id":"LB2205"},
{"type":"Feature","geometry":{"type":"Polygon","coordinates":[[[184998,510037],[186845,507247],[187137,504569],[187146,504526],[187485,503550],[190519,501189],[191578,498616],[194277,498903],[197091,501995],[200293,501552],[203388,498301],[204118,494995],[207186,496434],[206442,498042],[212691,497880],[215569,496947],[216533,494641],[220052,493484],[222560,494021],[221901,496250],[219940,497000],[219970,499890],[219172,503291],[221065,504802],[218176,512809],[217053,512569],[218640,519439],[213484,520635],[210929,522428],[208828,521161],[207464,521684],[204504,529459],[206941,530874],[209941,534357],[204348,541032],[198411,536618],[195389,537353],[194447,539633],[191589,538782],[191190,537499],[188169,534965],[185770,535426],[184159,536762],[182511,535552],[184118,533133],[186203,533150],[191097,529448],[192527,525435],[194073,523062],[191973,521036],[195256,519153],[197210,516806],[195796,515485],[190922,514033],[189452,514609],[185934,513815],[184998,510037]]]},"properties":{"id":207714,"statcode":"LB2301","statnaam":"Weidegebied in Overijssel","jrstatcode":"2016LB2301","rubriek":"landbouwgebied","FID":"landbouwgebied_gegeneraliseerd_2016.e16b5b49-9a13-4ce1-9e96-f312b8f212cd"},"id":"LB2301"},
{"type":"Feature","geometry":{"type":"Polygon","coordinates":[[[218640,519439],[217053,512569],[218176,512809],[221065,504802],[219172,503291],[219970,499890],[219940,497000],[221901,496250],[222560,494021],[223225,493844],[225887,495113],[227397,498505],[230837,499917],[230949,500948],[240224,498918],[242067,501580],[244005,500648],[244456,504530],[242737,508084],[245142,507606],[245829,509222],[245235,512060],[245758,514996],[244564,516402],[244405,518736],[238010,521438],[233852,520428],[232285,519169],[231252,518241],[231627,514661],[229785,515198],[226462,514760],[225693,516161],[222615,514396],[221143,517736],[218640,519439]]]},"properties":{"id":207715,"statcode":"LB2302","statnaam":"Noordoost-Overijssel","jrstatcode":"2016LB2302","rubriek":"landbouwgebied","FID":"landbouwgebied_gegeneraliseerd_2016.9c05098e-869a-45fc-b498-f16940ff5323"},"id":"LB2302"},
{"type":"Feature","geometry":{"type":"Polygon","coordinates":[[[223225,493844],[224253,492460],[223175,488481],[220098,487335],[219473,485254],[221056,481583],[225525,482474],[232542,482574],[234227,481142],[233769,477768],[229997,476879],[225295,473178],[226208,471073],[229247,467244],[230842,466028],[237333,466698],[238810,464597],[241039,465863],[242900,464864],[242316,460984],[246025,459728],[249058,459841],[255553,460156],[256745,461572],[257185,464147],[259250,466528],[261966,467033],[264461,472190],[266447,472077],[269357,473179],[266938,477931],[266830,479485],[268809,484747],[269742,488549],[268517,491662],[267206,491814],[265418,494726],[264182,498738],[260703,495317],[255239,496976],[254709,497894],[249292,497775],[244005,500648],[242067,501580],[240224,498918],[230949,500948],[230837,499917],[227397,498505],[225887,495113],[223225,493844]]]},"properties":{"id":207716,"statcode":"LB2303","statnaam":"Twente","jrstatcode":"2016LB2303","rubriek":"landbouwgebied","FID":"landbouwgebied_gegeneraliseerd_2016.833aedf7-7422-4fd7-8671-452d7aa5acfd"},"id":"LB2303"},
{"type":"Feature","geometry":{"type":"Polygon","coordinates":[[[225295,473178],[229997,476879],[233769,477768],[234227,481142],[232542,482574],[225525,482474],[221056,481583],[219473,485254],[220098,487335],[223175,488481],[224253,492460],[223225,493844],[222560,494021],[220052,493484],[216533,494641],[215569,496947],[212691,497880],[206442,498042],[207186,496434],[204118,494995],[204238,491356],[205552,490344],[205142,488417],[202348,487360],[201793,482737],[202532,479530],[203566,479367],[205717,475000],[205301,473982],[206935,471361],[208223,471724],[217226,471219],[220009,471435],[220820,473062],[225295,473178]]]},"properties":{"id":207717,"statcode":"LB2304","statnaam":"Salland","jrstatcode":"2016LB2304","rubriek":"landbouwgebied","FID":"landbouwgebied_gegeneraliseerd_2016.ae79f127-3c12-4e6d-b4b7-09b95da670d6"},"id":"LB2304"},
{"type":"Feature","geometry":{"type":"Polygon","coordinates":[[[176959,539030],[173459,537984],[169038,530610],[168932,519245],[170477,518152],[172801,514261],[172881,514170],[185112,513982],[194026,516960],[195256,519153],[191973,521036],[194073,523062],[192527,525435],[191097,529448],[186203,533150],[184118,533133],[182511,535552],[179347,539230],[176959,539030]]]},"properties":{"id":207718,"statcode":"LB2401","statnaam":"Noordoostelijke Polder","jrstatcode":"2016LB2401","rubriek":"landbouwgebied","FID":"landbouwgebied_gegeneraliseerd_2016.911a7c88-fb67-4c3c-920e-b037baf92043"},"id":"LB2401"},
{"type":"Feature","geometry":{"type":"Polygon","coordinates":[[[172801,514261],[171333,513117],[166524,511562],[162698,507616],[159956,507139],[158205,504299],[158216,502613],[146242,494190],[139636,490218],[137387,488367],[138033,482025],[138067,481982],[142584,483075],[146927,481605],[149967,479492],[150000,479461],[156041,473938],[156724,473850],[164657,476333],[166274,481450],[165320,484742],[167024,486644],[170451,486064],[170538,486105],[171393,488255],[173667,490046],[177721,492114],[179480,491891],[182881,494721],[186431,500995],[187146,504526],[187137,504569],[186507,507167],[183851,510071],[179990,510537],[173129,512231],[172881,514170],[172801,514261]]]},"properties":{"id":207719,"statcode":"LB2402","statnaam":"Zuidelijke IJsselmeerpolders","jrstatcode":"2016LB2402","rubriek":"landbouwgebied","FID":"landbouwgebied_gegeneraliseerd_2016.de386cac-2269-49af-8f02-262e1017d65b"},"id":"LB2402"},
{"type":"Feature","geometry":{"type":"Polygon","coordinates":[[[204118,494995],[203388,498301],[200293,501552],[197091,501995],[194277,498903],[191578,498616],[190519,501189],[187485,503550],[185782,497713],[183784,494248],[180169,491052],[181003,490046],[183838,490615],[187536,485861],[188651,483146],[185940,479700],[186729,476990],[186094,475556],[179712,475645],[180558,473428],[178166,472771],[179836,467351],[182678,467730],[183925,462666],[187329,462391],[187702,459813],[188991,457695],[193301,456931],[193314,454549],[197619,454153],[200507,459793],[202324,461413],[201331,463462],[200077,470467],[198717,473280],[199776,476955],[199173,478715],[200381,482761],[201793,482737],[202348,487360],[205142,488417],[205552,490344],[204238,491356],[204118,494995]]]},"properties":{"id":207720,"statcode":"LB2501","statnaam":"Oostelijke Veluwe","jrstatcode":"2016LB2501","rubriek":"landbouwgebied","FID":"landbouwgebied_gegeneraliseerd_2016.f7777367-c0b0-4bc0-9e5c-131164290c91"},"id":"LB2501"},
{"type":"Feature","geometry":{"type":"Polygon","coordinates":[[[201793,482737],[200381,482761],[199173,478715],[199776,476955],[198717,473280],[200077,470467],[201331,463462],[202324,461413],[200507,459793],[197619,454153],[197297,452226],[195519,451952],[196767,448823],[195723,447950],[194609,444453],[196442,443060],[201487,447619],[203527,445169],[208018,445989],[209232,448294],[209087,450410],[204977,451410],[208710,454804],[211422,456342],[208802,462162],[210024,465884],[207596,468015],[209811,470212],[208223,471724],[206935,471361],[205301,473982],[205717,475000],[203566,479367],[202532,479530],[201793,482737]]]},"properties":{"id":207721,"statcode":"LB2502","statnaam":"IJsselstreek","jrstatcode":"2016LB2502","rubriek":"landbouwgebied","FID":"landbouwgebied_gegeneraliseerd_2016.35e6f293-30c1-4e90-82c0-c009f5be9a92"},"id":"LB2502"},
{"type":"Feature","geometry":{"type":"Polygon","coordinates":[[[193957,440279],[196318,436201],[198680,434391],[195917,430321],[194136,429971],[192063,431899],[189409,430857],[190390,426527],[189352,424661],[186004,424243],[184185,422522],[181491,426115],[182541,428110],[185205,430425],[184605,431389],[176343,434103],[167693,434820],[162585,433397],[159560,433214],[158177,432058],[155926,427674],[156909,425853],[158600,424566],[160391,424749],[161800,426761],[165600,425310],[168900,426808],[172602,425437],[173391,423656],[178782,420426],[179722,418997],[182100,418241],[187952,418885],[188252,420895],[189950,421118],[191454,418336],[194043,417469],[196644,419904],[195827,423389],[193464,426247],[194680,427744],[196865,427100],[201030,429521],[201581,430983],[204612,429082],[208709,428303],[208722,430614],[207158,431516],[205827,434668],[208731,435004],[203426,439153],[203326,442378],[208123,443909],[208018,445989],[203527,445169],[201487,447619],[196442,443060],[193846,441945],[193957,440279]]]},"properties":{"id":207722,"statcode":"LB2503","statnaam":"Zuidelijk Gelderland","jrstatcode":"2016LB2503","rubriek":"landbouwgebied","FID":"landbouwgebied_gegeneraliseerd_2016.00f4410c-fd31-40c6-be50-51c2216ec9d6"},"id":"LB2503"},
{"type":"Feature","geometry":{"type":"Polygon","coordinates":[[[193957,440279],[192434,441368],[190395,438459],[189677,435539],[188537,434449],[185496,434005],[184605,431389],[185205,430425],[182541,428110],[181491,426115],[184185,422522],[186004,424243],[189352,424661],[190390,426527],[189409,430857],[192063,431899],[194136,429971],[195917,430321],[198680,434391],[196318,436201],[193957,440279]]]},"properties":{"id":207723,"statcode":"LB2504","statnaam":"Oostelijke Betuwe en Nijmegen","jrstatcode":"2016LB2504","rubriek":"landbouwgebied","FID":"landbouwgebied_gegeneraliseerd_2016.5724a508-4707-47b4-90b8-8893677935f8"},"id":"LB2504"},
{"type":"Feature","geometry":{"type":"Polygon","coordinates":[[[196442,443060],[194609,444453],[195723,447950],[196767,448823],[195519,451952],[197297,452226],[197619,454153],[193314,454549],[190134,451418],[186737,451594],[184250,448500],[179569,447996],[178153,445868],[174801,444770],[170028,445109],[171413,442870],[171448,441019],[170040,439431],[166964,440688],[165515,442107],[161214,443901],[158774,444174],[154697,442316],[152323,442141],[151282,440975],[146971,441896],[145334,443242],[143457,441693],[140776,442134],[138648,438367],[136105,433286],[134565,433389],[131347,430129],[130120,425644],[133416,426404],[137603,425097],[140068,425402],[142316,424640],[149305,426154],[151678,424219],[153524,424370],[155926,427674],[158177,432058],[159560,433214],[162585,433397],[167693,434820],[176343,434103],[184605,431389],[185496,434005],[188537,434449],[189677,435539],[190395,438459],[192434,441368],[193957,440279],[193846,441945],[196442,443060]]]},"properties":{"id":207724,"statcode":"LB2505","statnaam":"Veluwezoom en Betuwe","jrstatcode":"2016LB2505","rubriek":"landbouwgebied","FID":"landbouwgebied_gegeneraliseerd_2016.e9ea36e4-662b-44e4-b873-eef78ac06ddf"},"id":"LB2505"},
{"type":"Feature","geometry":{"type":"Polygon","coordinates":[[[128329,425884],[131634,423310],[132702,421599],[134877,422149],[137771,420500],[137100,416575],[143600,417199],[145155,416198],[148700,416448],[152674,418532],[153747,422352],[156000,425809],[156909,425853],[155926,427674],[153524,424370],[151678,424219],[149305,426154],[142316,424640],[140068,425402],[137603,425097],[133416,426404],[130120,425644],[128329,425884]]]},"properties":{"id":207725,"statcode":"LB2506","statnaam":"Bommelerwaard","jrstatcode":"2016LB2506","rubriek":"landbouwgebied","FID":"landbouwgebied_gegeneraliseerd_2016.750b65f3-c27e-479a-ae3f-c71f9dae08a8"},"id":"LB2506"},
{"type":"Feature","geometry":{"type":"Polygon","coordinates":[[[156113,473189],[155411,470283],[158557,468501],[158603,464784],[160895,463969],[161443,462484],[163523,461040],[161776,456160],[161630,453490],[164286,454372],[166445,456892],[167034,454459],[166710,451186],[168691,449236],[168649,447065],[170028,445109],[174801,444770],[178153,445868],[179569,447996],[184250,448500],[186737,451594],[190134,451418],[193314,454549],[193301,456931],[188991,457695],[187702,459813],[187329,462391],[183925,462666],[182678,467730],[179836,467351],[178166,472771],[180558,473428],[179712,475645],[186094,475556],[186729,476990],[185940,479700],[188651,483146],[187536,485861],[183838,490615],[181003,490046],[180169,491052],[173087,486389],[170538,486105],[170451,486064],[170274,484209],[166786,480963],[165250,476106],[164397,475103],[156113,473189]]]},"properties":{"id":207726,"statcode":"LB2507","statnaam":"Westelijke Veluwe","jrstatcode":"2016LB2507","rubriek":"landbouwgebied","FID":"landbouwgebied_gegeneraliseerd_2016.e762d86a-82bc-4647-bc1a-05adfd4d7db1"},"id":"LB2507"},
{"type":"Feature","geometry":{"type":"Polygon","coordinates":[[[208731,435004],[209829,432967],[212021,431335],[217572,431468],[218309,429385],[220994,429590],[222243,427914],[224942,427006],[225394,429902],[224095,432191],[228277,431280],[229756,430033],[235220,433702],[244229,437364],[246870,435016],[250135,437318],[251742,439473],[252027,442085],[254053,442725],[253844,445996],[248727,449778],[246038,451025],[244235,450969],[244674,454323],[247430,454898],[248478,456124],[249058,459841],[246025,459728],[242316,460984],[242900,464864],[241039,465863],[238810,464597],[237333,466698],[230842,466028],[229247,467244],[226208,471073],[225295,473178],[220820,473062],[220009,471435],[217226,471219],[208223,471724],[209811,470212],[207596,468015],[210024,465884],[208802,462162],[211422,456342],[208710,454804],[204977,451410],[209087,450410],[209232,448294],[208018,445989],[208123,443909],[203326,442378],[203426,439153],[208731,435004]]]},"properties":{"id":207727,"statcode":"LB2508","statnaam":"Achterhoek","jrstatcode":"2016LB2508","rubriek":"landbouwgebied","FID":"landbouwgebied_gegeneraliseerd_2016.cf632529-4fa3-4cd9-95fa-00f6cda48f96"},"id":"LB2508"},
{"type":"Feature","geometry":{"type":"Polygon","coordinates":[[[137142,451878],[137236,448521],[136621,445761],[138523,443124],[140776,442134],[143457,441693],[145334,443242],[146971,441896],[151282,440975],[152323,442141],[154697,442316],[158774,444174],[161214,443901],[162349,445174],[164753,450218],[163798,451781],[161734,451997],[159013,450773],[158504,453549],[151233,455101],[148908,456470],[149774,457797],[147808,458211],[146030,460917],[145162,464691],[143902,464184],[144296,458741],[141672,455330],[139455,454415],[139264,452252],[137142,451878]]]},"properties":{"id":207728,"statcode":"LB2601","statnaam":"Kromme Rijn-streek en Heuvelrug","jrstatcode":"2016LB2601","rubriek":"landbouwgebied","FID":"landbouwgebied_gegeneraliseerd_2016.641668ae-2df5-4a91-933f-1a92394dd55d"},"id":"LB2601"},
{"type":"Feature","geometry":{"type":"Polygon","coordinates":[[[137142,451878],[133299,452672],[132736,448770],[129682,452722],[128806,455646],[127000,458393],[126714,460249],[128661,461579],[130706,458794],[134475,460861],[138660,459080],[139482,456294],[141672,455330],[144296,458741],[143902,464184],[143021,465373],[143263,468477],[141682,465538],[137006,465887],[131673,464248],[131048,470756],[132492,471971],[130383,475183],[131497,477221],[130059,479450],[125521,476788],[123714,475900],[122487,473961],[119692,474042],[116996,471612],[114509,471127],[115770,468347],[119854,463226],[119902,461306],[117069,461980],[114244,459508],[116492,457817],[116547,454189],[119406,452912],[116749,451428],[114923,447470],[118797,442308],[119970,438964],[122627,439519],[124252,441763],[126194,441295],[128265,443345],[129930,442430],[132130,443182],[134404,440249],[138648,438367],[140776,442134],[138523,443124],[136621,445761],[137236,448521],[137142,451878]]]},"properties":{"id":207729,"statcode":"LB2602","statnaam":"Westelijk Weidegebied in Utrecht","jrstatcode":"2016LB2602","rubriek":"landbouwgebied","FID":"landbouwgebied_gegeneraliseerd_2016.114742d2-4422-4aaa-bbcf-79f7954e1391"},"id":"LB2602"},
{"type":"Feature","geometry":{"type":"Polygon","coordinates":[[[141672,455330],[139482,456294],[138660,459080],[134475,460861],[130706,458794],[128661,461579],[126714,460249],[127000,458393],[128806,455646],[129682,452722],[132736,448770],[133299,452672],[137142,451878],[139264,452252],[139455,454415],[141672,455330]]]},"properties":{"id":207730,"statcode":"LB2603","statnaam":"Centraal Tuinbouwgebied in Utrecht","jrstatcode":"2016LB2603","rubriek":"landbouwgebied","FID":"landbouwgebied_gegeneraliseerd_2016.eb1b8b89-ecab-4b44-8b3a-fdd99d92ccc8"},"id":"LB2603"},
{"type":"Feature","geometry":{"type":"Polygon","coordinates":[[[143902,464184],[145162,464691],[146030,460917],[147808,458211],[149774,457797],[152838,460959],[155686,460620],[158541,463693],[161443,462484],[160895,463969],[158603,464784],[158557,468501],[155411,470283],[156113,473189],[153377,475603],[149490,476625],[146713,477079],[143780,470814],[143263,468477],[143021,465373],[143902,464184]]]},"properties":{"id":207731,"statcode":"LB2604","statnaam":"Eemland","jrstatcode":"2016LB2604","rubriek":"landbouwgebied","FID":"landbouwgebied_gegeneraliseerd_2016.7e206273-9239-4c09-8ca3-eb55ca032a8b"},"id":"LB2604"},
{"type":"Feature","geometry":{"type":"Polygon","coordinates":[[[170028,445109],[168649,447065],[168691,449236],[166710,451186],[167034,454459],[166445,456892],[164286,454372],[161630,453490],[161776,456160],[163523,461040],[161443,462484],[158541,463693],[155686,460620],[152838,460959],[149774,457797],[148908,456470],[151233,455101],[158504,453549],[159013,450773],[161734,451997],[163798,451781],[164753,450218],[162349,445174],[161214,443901],[165515,442107],[166964,440688],[170040,439431],[171448,441019],[171413,442870],[170028,445109]]]},"properties":{"id":207732,"statcode":"LB2605","statnaam":"Zandgebied in Utrecht","jrstatcode":"2016LB2605","rubriek":"landbouwgebied","FID":"landbouwgebied_gegeneraliseerd_2016.50700469-9b61-4791-ae2c-357435db1d88"},"id":"LB2605"},
{"type":"Feature","geometry":{"type":"Polygon","coordinates":[[[116310,547477],[115157,547439],[113512,543675],[114269,540642],[116093,539014],[117735,535757],[117332,532159],[115847,531600],[118547,526011],[122011,524504],[125106,529663],[131958,529612],[133591,531252],[135882,531956],[136590,539847],[131577,549411],[140200,556944],[140141,557012],[131523,549652],[126751,549295],[124866,546537],[122699,545266],[119975,544944],[116310,547477]]]},"properties":{"id":207733,"statcode":"LB2701","statnaam":"Wieringen en Wieringermeer","jrstatcode":"2016LB2701","rubriek":"landbouwgebied","FID":"landbouwgebied_gegeneraliseerd_2016.bf0b3be5-ec26-4ab3-bff2-a1a9e78779a1"},"id":"LB2701"},
{"type":"Feature","geometry":{"type":"Polygon","coordinates":[[[102117,480905],[100506,477327],[99114,475943],[98366,470403],[103433,470056],[106026,471651],[109857,475244],[113560,477410],[115625,479913],[116247,482110],[111978,485549],[112182,487210],[110231,488928],[106690,487942],[106581,485602],[102130,482225],[102117,480905]]]},"properties":{"id":207734,"statcode":"LB2702","statnaam":"Haarlemmermeer","jrstatcode":"2016LB2702","rubriek":"landbouwgebied","FID":"landbouwgebied_gegeneraliseerd_2016.bbc6e7c9-5021-45eb-80a4-29322e8d453f"},"id":"LB2702"},
{"type":"Feature","geometry":{"type":"Polygon","coordinates":[[[114509,471127],[116996,471612],[119692,474042],[120303,476888],[122404,481252],[116247,482110],[115625,479913],[113560,477410],[109857,475244],[106026,471651],[109708,471780],[109724,469594],[114509,471127]]]},"properties":{"id":207735,"statcode":"LB2703","statnaam":"Amstelland en Aalsmeer","jrstatcode":"2016LB2703","rubriek":"landbouwgebied","FID":"landbouwgebied_gegeneraliseerd_2016.2e78e733-64d8-4b65-b884-8bb757c69ded"},"id":"LB2703"},
{"type":"Feature","geometry":{"type":"MultiPolygon","coordinates":[[[[118547,526011],[115847,531600],[117332,532159],[117735,535757],[116093,539014],[114269,540642],[113512,543675],[115157,547439],[116310,547477],[114988,549708],[115649,551943],[113088,553333],[110893,553038],[109861,551051],[109372,544265],[107307,536146],[105353,531012],[104493,527026],[104039,522063],[102307,509856],[106574,511721],[107787,515357],[109456,515463],[109358,517848],[112062,520632],[111350,521680],[113175,523624],[113471,525964],[115638,525370],[118547,526011]]],[[[120878,575119],[119724,577559],[118497,577513],[111399,566541],[109481,559924],[110266,555469],[112568,557596],[114567,557371],[116893,560379],[118773,560924],[122160,565859],[122490,571636],[120878,575119]]],[[[106838,552706],[108992,554271],[106559,555514],[106838,552706]]]]},"properties":{"id":207736,"statcode":"LB2704","statnaam":"Texel en Land van Zijpe","jrstatcode":"2016LB2704","rubriek":"landbouwgebied","FID":"landbouwgebied_gegeneraliseerd_2016.7eb076de-dbb0-4b33-8ecd-a2bdb089296a"},"id":"LB2704"},
{"type":"Feature","geometry":{"type":"Polygon","coordinates":[[[130106,513943],[130074,515905],[131876,517179],[134793,517266],[136971,516163],[137432,514741],[142222,516550],[144761,518866],[145484,522018],[148219,522501],[148220,522600],[147950,528320],[146295,529578],[141879,529762],[140739,528046],[138837,528040],[135882,531956],[133591,531252],[131958,529612],[125106,529663],[122011,524504],[118547,526011],[115638,525370],[113471,525964],[113175,523624],[111350,521680],[113859,521177],[113478,518050],[115776,516433],[117859,517778],[121203,515657],[120917,514074],[125269,514079],[125372,512059],[129096,512292],[130106,513943]]]},"properties":{"id":207737,"statcode":"LB2705","statnaam":"West-Friesland en omgeving","jrstatcode":"2016LB2705","rubriek":"landbouwgebied","FID":"landbouwgebied_gegeneraliseerd_2016.6f10c4fa-c726-4581-beab-4a65c4718554"},"id":"LB2705"},
{"type":"Feature","geometry":{"type":"MultiPolygon","coordinates":[[[[106690,487942],[110231,488928],[112182,487210],[111978,485549],[116247,482110],[122404,481252],[122671,482614],[125391,483671],[126320,485224],[129453,484058],[126518,485956],[125819,488122],[129452,487382],[129512,488548],[134221,494364],[132031,494673],[132745,499836],[134528,501828],[130865,508929],[130106,513943],[129096,512292],[125372,512059],[125269,514079],[120917,514074],[121203,515657],[117859,517778],[115776,516433],[113478,518050],[113859,521177],[111350,521680],[112062,520632],[109358,517848],[109456,515463],[111128,514233],[112260,511742],[111463,508998],[113932,507892],[113646,505296],[109665,507320],[108012,506508],[107843,502796],[109270,500765],[106579,496656],[109014,494482],[106099,490638],[106690,487942]]],[[[130059,479450],[127099,482655],[123780,480172],[125521,476788],[130059,479450]]]]},"properties":{"id":207738,"statcode":"LB2706","statnaam":"Waterland en N.-Hollandse Droogmakerijen","jrstatcode":"2016LB2706","rubriek":"landbouwgebied","FID":"landbouwgebied_gegeneraliseerd_2016.87ee20ed-e22d-47b7-864c-9e45a3fc1714"},"id":"LB2706"},
{"type":"Feature","geometry":{"type":"Polygon","coordinates":[[[125521,476788],[123780,480172],[127099,482655],[130059,479450],[131497,477221],[130383,475183],[132492,471971],[131048,470756],[131673,464248],[137006,465887],[141682,465538],[143263,468477],[143780,470814],[146713,477079],[149490,476625],[150000,479461],[149967,479492],[148220,478852],[145525,480494],[140437,479580],[138067,481982],[138033,482025],[133884,483585],[131088,482897],[129665,484490],[129647,484456],[129453,484058],[126320,485224],[125391,483671],[122671,482614],[122404,481252],[120303,476888],[119692,474042],[122487,473961],[123714,475900],[125521,476788]]]},"properties":{"id":207739,"statcode":"LB2707","statnaam":"'t Gein en Gooiland","jrstatcode":"2016LB2707","rubriek":"landbouwgebied","FID":"landbouwgebied_gegeneraliseerd_2016.c3e2a274-5cda-4f1e-8d6d-22f9c5fc9baf"},"id":"LB2707"},
{"type":"Feature","geometry":{"type":"Polygon","coordinates":[[[94103,482630],[98840,480467],[102117,480905],[102130,482225],[106581,485602],[106690,487942],[106099,490638],[109014,494482],[106579,496656],[109270,500765],[107843,502796],[108012,506508],[109665,507320],[113646,505296],[113932,507892],[111463,508998],[112260,511742],[111128,514233],[109456,515463],[107787,515357],[106574,511721],[102307,509856],[100956,502476],[98446,497233],[98259,492649],[94103,482630]]]},"properties":{"id":207740,"statcode":"LB2708","statnaam":"Kennemerland","jrstatcode":"2016LB2708","rubriek":"landbouwgebied","FID":"landbouwgebied_gegeneraliseerd_2016.ec20e8fc-e19a-46a9-8208-4bc7008daa2b"},"id":"LB2708"},
{"type":"Feature","geometry":{"type":"MultiPolygon","coordinates":[[[[68226,426766],[70131,426707],[71875,424723],[74501,423761],[76383,420357],[83105,417809],[87948,414909],[91441,414432],[95643,412897],[97680,413181],[101916,415225],[103119,414557],[103148,414566],[103633,414716],[103722,414742],[105883,415372],[110081,418742],[111391,421628],[114302,423624],[118250,423695],[120347,425437],[117370,425762],[112179,425455],[111168,426080],[105670,426047],[102166,423852],[98423,425231],[97725,426908],[93799,427779],[90407,427480],[87947,428693],[85095,428759],[82563,431162],[77683,431292],[75522,432736],[74667,434817],[70783,438277],[67014,439405],[63980,439019],[59299,437357],[62299,438142],[63448,437044],[61451,434235],[64088,429814],[62735,427900],[62748,427880],[64495,429036],[65879,427489],[68226,426766]]],[[[77434,418950],[79961,416282],[82441,415834],[83561,416962],[77434,418950]]]]},"properties":{"id":207741,"statcode":"LB2801","statnaam":"Voorne-Putten en Hoeksche Waard","jrstatcode":"2016LB2801","rubriek":"landbouwgebied","FID":"landbouwgebied_gegeneraliseerd_2016.b784f010-1628-43aa-8ae9-26e050c79c82"},"id":"LB2801"},
{"type":"Feature","geometry":{"type":"Polygon","coordinates":[[[97382,435690],[98551,437810],[98249,441235],[97320,443035],[95465,442019],[91917,443968],[90360,442014],[89089,443552],[81889,439780],[79702,437540],[77385,438370],[75325,440585],[72870,441383],[72554,442725],[69829,444388],[68317,446694],[66221,444821],[62960,445935],[60590,444748],[59285,441005],[59299,437357],[63980,439019],[67014,439405],[70783,438277],[74667,434817],[75522,432736],[77683,431292],[82563,431162],[85095,428759],[87947,428693],[90407,427480],[93799,427779],[97725,426908],[98423,425231],[102166,423852],[105670,426047],[105587,428417],[102156,433723],[97382,435690]]]},"properties":{"id":207742,"statcode":"LB2802","statnaam":"Rotterdam en omgeving","jrstatcode":"2016LB2802","rubriek":"landbouwgebied","FID":"landbouwgebied_gegeneraliseerd_2016.03871d7a-2a25-4db0-8a8c-c7377d0a85a0"},"id":"LB2802"},
{"type":"Feature","geometry":{"type":"Polygon","coordinates":[[[69949,411130],[72146,411148],[75506,408497],[78444,407885],[82015,408819],[86350,412121],[87001,412672],[81749,413222],[78074,415397],[72593,421298],[70569,421896],[63709,425814],[62748,427880],[62735,427900],[60349,428438],[59821,430078],[56629,429299],[53651,427725],[50276,426730],[49353,424871],[49991,422947],[48128,419974],[48350,419755],[50393,422560],[52222,423824],[55837,424840],[58571,424686],[60795,422086],[61465,417555],[63943,414060],[66638,413999],[69829,412700],[69821,411235],[69949,411130]]]},"properties":{"id":207743,"statcode":"LB2803","statnaam":"Goeree-Overflakkee","jrstatcode":"2016LB2803","rubriek":"landbouwgebied","FID":"landbouwgebied_gegeneraliseerd_2016.61cdbadb-be70-4fb5-be14-7df2e09b443e"},"id":"LB2803"},
{"type":"Feature","geometry":{"type":"Polygon","coordinates":[[[98366,470403],[96929,466111],[94559,466645],[91173,465187],[90370,462327],[85482,456766],[84262,453811],[87595,454853],[88800,451925],[90751,451625],[92520,449648],[94442,449656],[98079,452874],[96484,454207],[96658,459475],[99296,462996],[103976,464001],[106597,464078],[108357,462883],[110843,464031],[112018,460821],[110583,457784],[114244,459508],[117069,461980],[119902,461306],[119854,463226],[115770,468347],[114509,471127],[109724,469594],[109708,471780],[106026,471651],[103433,470056],[98366,470403]]]},"properties":{"id":207744,"statcode":"LB2804","statnaam":"Westelijk Rijnland","jrstatcode":"2016LB2804","rubriek":"landbouwgebied","FID":"landbouwgebied_gegeneraliseerd_2016.945a9a42-feae-43d4-8900-abc14e9b98fa"},"id":"LB2804"},
{"type":"Feature","geometry":{"type":"Polygon","coordinates":[[[110583,457784],[112018,460821],[110843,464031],[108357,462883],[106597,464078],[103976,464001],[99296,462996],[96658,459475],[96484,454207],[98079,452874],[103559,454182],[105131,453117],[108948,454971],[108508,456372],[110583,457784]]]},"properties":{"id":207745,"statcode":"LB2805","statnaam":"Boskoop en Rijneveld","jrstatcode":"2016LB2805","rubriek":"landbouwgebied","FID":"landbouwgebied_gegeneraliseerd_2016.58d85c53-5a2f-4cd8-afa7-939d8e5fdaa8"},"id":"LB2805"},
{"type":"Feature","geometry":{"type":"Polygon","coordinates":[[[105131,453117],[106833,449316],[105031,446574],[106447,445587],[105578,443627],[103201,442725],[104052,440906],[101750,437785],[97382,435690],[102156,433723],[105501,433696],[108788,434373],[111968,436377],[114690,437179],[116842,439054],[119970,438964],[118797,442308],[114923,447470],[116749,451428],[119406,452912],[116547,454189],[116492,457817],[114244,459508],[110583,457784],[108508,456372],[108948,454971],[105131,453117]]]},"properties":{"id":207746,"statcode":"LB2806","statnaam":"Krimpenerwaard en Oostelijk Rijnland","jrstatcode":"2016LB2806","rubriek":"landbouwgebied","FID":"landbouwgebied_gegeneraliseerd_2016.9c577d40-cc86-429d-9bea-5460cd845c8f"},"id":"LB2806"},
{"type":"Feature","geometry":{"type":"Polygon","coordinates":[[[130120,425644],[131347,430129],[134565,433389],[136105,433286],[138648,438367],[134404,440249],[132130,443182],[129930,442430],[128265,443345],[126194,441295],[124252,441763],[122627,439519],[119970,438964],[116842,439054],[114690,437179],[111968,436377],[108788,434373],[105501,433696],[102156,433723],[105587,428417],[105670,426047],[111168,426080],[112179,425455],[117370,425762],[120347,425437],[123901,426731],[126212,426199],[128329,425884],[130120,425644]]]},"properties":{"id":207747,"statcode":"LB2807","statnaam":"Alblasserwaard en Vijfherenlanden","jrstatcode":"2016LB2807","rubriek":"landbouwgebied","FID":"landbouwgebied_gegeneraliseerd_2016.4b3f5526-6b28-49f4-b7ba-e1b853409aed"},"id":"LB2807"},
{"type":"Feature","geometry":{"type":"Polygon","coordinates":[[[85482,456766],[90370,462327],[91173,465187],[94559,466645],[96929,466111],[98366,470403],[99114,475943],[100506,477327],[102117,480905],[98840,480467],[94103,482630],[90664,475515],[86410,468056],[80754,460567],[83502,457165],[85482,456766]]]},"properties":{"id":207748,"statcode":"LB2808","statnaam":"Bollenstreek","jrstatcode":"2016LB2808","rubriek":"landbouwgebied","FID":"landbouwgebied_gegeneraliseerd_2016.ff6a4586-abe0-4f46-81be-2eb035420189"},"id":"LB2808"},
{"type":"Feature","geometry":{"type":"Polygon","coordinates":[[[68317,446694],[69829,444388],[72554,442725],[72870,441383],[75325,440585],[77385,438370],[79702,437540],[81889,439780],[89089,443552],[90360,442014],[91917,443968],[95465,442019],[97320,443035],[98249,441235],[98551,437810],[97382,435690],[101750,437785],[104052,440906],[103201,442725],[105578,443627],[106447,445587],[105031,446574],[106833,449316],[105131,453117],[103559,454182],[98079,452874],[94442,449656],[92520,449648],[90751,451625],[88800,451925],[87595,454853],[84262,453811],[85482,456766],[83502,457165],[80754,460567],[77713,457609],[68317,446694]]]},"properties":{"id":207749,"statcode":"LB2809","statnaam":"Westland en Zuidhollandse Droogmakerijen","jrstatcode":"2016LB2809","rubriek":"landbouwgebied","FID":"landbouwgebied_gegeneraliseerd_2016.418181d4-a7df-4b68-ad96-a28810271834"},"id":"LB2809"},
{"type":"Feature","geometry":{"type":"MultiPolygon","coordinates":[[[[69821,411235],[66957,410825],[65387,409503],[62141,411504],[60112,411766],[59600,413610],[57333,416965],[53264,416899],[51424,418348],[48815,417659],[48350,419755],[48128,419974],[46458,418065],[44657,418478],[39602,417671],[36951,414521],[37078,412370],[39544,408156],[39771,408150],[40094,410207],[46226,413257],[46936,411686],[50531,409792],[51320,405849],[53989,405440],[56728,403786],[59614,404083],[63588,405457],[65675,407313],[66580,410217],[69949,411130],[69821,411235]]],[[[65940,406790],[68393,402106],[64294,403509],[60534,401771],[58167,401351],[59199,399341],[62206,396776],[64146,393787],[70106,393360],[70832,391107],[73768,389389],[74653,389512],[73890,391299],[75164,396342],[72432,400682],[72619,403914],[75394,405646],[72550,406110],[70717,407993],[67330,407959],[65940,406790]]],[[[33874,401361],[34915,399247],[37486,397417],[38921,395320],[42181,397496],[45157,396617],[47479,397475],[49413,395826],[49535,395849],[51374,399204],[49337,402355],[47474,403014],[42398,402440],[39825,401616],[36778,402630],[36703,402596],[33824,401584],[33874,401361]]]]},"properties":{"id":207750,"statcode":"LB2901","statnaam":"Noordelijk Zeeland","jrstatcode":"2016LB2901","rubriek":"landbouwgebied","FID":"landbouwgebied_gegeneraliseerd_2016.ad8c543d-94b4-4f5e-9555-9783ae7f233c"},"id":"LB2901"},
{"type":"Feature","geometry":{"type":"MultiPolygon","coordinates":[[[[33824,401584],[29950,402189],[27712,401490],[23085,398973],[19700,396489],[20572,393347],[23680,390978],[25594,387597],[28600,385071],[33563,385277],[34960,386931],[39101,383172],[41474,381897],[45382,378574],[49849,379776],[51537,379476],[53382,383837],[53085,384976],[56893,386872],[58818,384784],[63980,380648],[69150,379103],[72235,380419],[74614,379009],[75348,376806],[77733,376905],[76849,381415],[77706,382361],[74653,389512],[73768,389389],[74063,383969],[71176,384570],[67792,383227],[65054,384932],[62703,388276],[61628,391270],[58685,393352],[53707,396041],[49535,395849],[49413,395826],[46357,396732],[44373,395890],[41756,396664],[37970,392985],[35889,397063],[33190,399567],[33874,401361],[33824,401584]]],[[[39544,408156],[36986,405275],[36703,402596],[36778,402630],[37307,405036],[39771,408150],[39544,408156]]]]},"properties":{"id":207751,"statcode":"LB2902","statnaam":"Walcheren en Zuid-Beveland","jrstatcode":"2016LB2902","rubriek":"landbouwgebied","FID":"landbouwgebied_gegeneraliseerd_2016.44ca1935-40b3-4d42-9eb1-ce44c2853547"},"id":"LB2902"},
{"type":"Feature","geometry":{"type":"Polygon","coordinates":[[[65436,374974],[61923,376095],[59609,380023],[56691,380677],[55495,376110],[52626,375706],[49058,373008],[47340,372981],[43665,374591],[39183,374636],[36657,377176],[29849,379049],[26874,381158],[24971,381483],[14510,377787],[15501,373583],[13565,371491],[14325,368905],[16814,364939],[19534,363159],[25195,363553],[24432,368103],[29739,369891],[36854,366563],[41151,365714],[43890,364181],[43378,359743],[45815,358922],[48259,359055],[50109,357842],[55185,359468],[59180,362650],[62182,362409],[69897,367879],[74710,373841],[73120,376407],[70857,376227],[69659,373673],[67280,373364],[65436,374974]]]},"properties":{"id":207752,"statcode":"LB2903","statnaam":"Zeeuwsch-Vlaanderen","jrstatcode":"2016LB2903","rubriek":"landbouwgebied","FID":"landbouwgebied_gegeneraliseerd_2016.333eac7c-e729-474f-8de3-f879ce99701c"},"id":"LB2903"},
{"type":"Feature","geometry":{"type":"Polygon","coordinates":[[[86350,412121],[84819,408066],[76446,405398],[75394,405646],[72619,403914],[72432,400682],[75164,396342],[76302,398582],[79403,396643],[85001,395523],[89200,396811],[88471,402967],[92219,403823],[94876,402472],[97756,404765],[102869,404334],[105006,405300],[107363,405695],[106416,408858],[103722,414742],[103633,414716],[103148,414566],[103119,414557],[100701,412320],[93136,410720],[89482,412429],[87001,412672],[86350,412121]]]},"properties":{"id":207753,"statcode":"LB3001","statnaam":"Noordwesthoek","jrstatcode":"2016LB3001","rubriek":"landbouwgebied","FID":"landbouwgebied_gegeneraliseerd_2016.198342f9-c076-4204-9ee4-e5d677f0432f"},"id":"LB3001"},
{"type":"Feature","geometry":{"type":"Polygon","coordinates":[[[118751,399037],[122193,401136],[121962,404625],[125290,407054],[127324,407385],[127682,409791],[131624,408142],[135240,409821],[135752,413401],[133895,414889],[131969,413732],[127457,414311],[124485,415015],[119316,414669],[117293,413997],[118024,418726],[115993,418502],[111984,419198],[109856,416623],[107417,415031],[105883,415372],[103722,414742],[106416,408858],[107363,405695],[109651,406230],[112139,404627],[115601,404909],[117286,403258],[117258,399798],[118751,399037]]]},"properties":{"id":207754,"statcode":"LB3002","statnaam":"Westelijke Langstraat","jrstatcode":"2016LB3002","rubriek":"landbouwgebied","FID":"landbouwgebied_gegeneraliseerd_2016.49e08217-1dde-4bd1-a5c8-01eecfcfab8d"},"id":"LB3002"},
{"type":"Feature","geometry":{"type":"Polygon","coordinates":[[[105883,415372],[107417,415031],[109856,416623],[111984,419198],[115993,418502],[118024,418726],[117293,413997],[119316,414669],[124485,415015],[127457,414311],[128279,416552],[127613,418215],[123659,418535],[123627,422388],[125285,423217],[126212,426199],[123901,426731],[120347,425437],[118250,423695],[114302,423624],[111391,421628],[110081,418742],[105883,415372]]]},"properties":{"id":207755,"statcode":"LB3003","statnaam":"Biesbosch","jrstatcode":"2016LB3003","rubriek":"landbouwgebied","FID":"landbouwgebied_gegeneraliseerd_2016.ce98f56a-c046-447a-857a-49cf11784f12"},"id":"LB3003"},
{"type":"Feature","geometry":{"type":"Polygon","coordinates":[[[135240,409821],[135542,405271],[139277,405657],[139753,408939],[142354,409031],[144989,406745],[145258,404888],[147415,403375],[150377,405203],[149242,408529],[151634,408389],[153958,410152],[153672,412035],[158604,412409],[159818,410981],[161731,413867],[161017,415587],[159880,415696],[158563,419595],[152674,418532],[148700,416448],[145155,416198],[143600,417199],[137100,416575],[137771,420500],[134877,422149],[132702,421599],[131634,423310],[128329,425884],[126212,426199],[125285,423217],[123627,422388],[123659,418535],[127613,418215],[128279,416552],[127457,414311],[131969,413732],[133895,414889],[135752,413401],[135240,409821]]]},"properties":{"id":207756,"statcode":"LB3004","statnaam":"Oostelijke Langstraat","jrstatcode":"2016LB3004","rubriek":"landbouwgebied","FID":"landbouwgebied_gegeneraliseerd_2016.dcd32da2-7f4c-459d-bb6f-c05e975f3e92"},"id":"LB3004"},
{"type":"Feature","geometry":{"type":"Polygon","coordinates":[[[96707,387475],[97274,388839],[103021,392294],[106927,395327],[106148,401347],[104890,401935],[105006,405300],[102869,404334],[97756,404765],[94876,402472],[92219,403823],[88471,402967],[89200,396811],[85001,395523],[79403,396643],[76302,398582],[75164,396342],[73890,391299],[74653,389512],[77706,382361],[76849,381415],[77733,376905],[81710,377025],[82154,374784],[85158,374385],[88472,376643],[85198,381808],[85432,385014],[89355,387045],[95991,388488],[96707,387475]]]},"properties":{"id":207757,"statcode":"LB3005","statnaam":"Westelijke Zandgronden","jrstatcode":"2016LB3005","rubriek":"landbouwgebied","FID":"landbouwgebied_gegeneraliseerd_2016.c194dbc8-0963-4bda-b687-c03a013b464a"},"id":"LB3005"},
{"type":"Feature","geometry":{"type":"Polygon","coordinates":[[[118751,399037],[117258,399798],[117286,403258],[115601,404909],[112139,404627],[109651,406230],[107363,405695],[105006,405300],[104890,401935],[106148,401347],[106927,395327],[103021,392294],[97274,388839],[96707,387475],[95407,384843],[95755,381891],[98502,382953],[102344,382140],[105098,382165],[104904,384152],[106755,384977],[109294,388526],[111454,390560],[110562,392026],[116406,395858],[118646,396611],[118751,399037]]]},"properties":{"id":207758,"statcode":"LB3006","statnaam":"Land van Breda","jrstatcode":"2016LB3006","rubriek":"landbouwgebied","FID":"landbouwgebied_gegeneraliseerd_2016.a6488274-0a09-49af-bbab-7f813d331cbd"},"id":"LB3006"},
{"type":"Feature","geometry":{"type":"Polygon","coordinates":[[[157109,363663],[155042,366216],[155490,368811],[157585,371281],[156830,377193],[155119,376365],[152716,379960],[150587,379674],[153162,383767],[152829,385918],[151291,386610],[147503,384583],[144042,381852],[142647,382919],[142668,386298],[143992,389976],[143704,392016],[141319,390951],[136947,393747],[133318,393515],[129701,394446],[126343,394622],[125102,392271],[121958,391342],[118856,394473],[118646,396611],[116406,395858],[110562,392026],[111454,390560],[115307,389668],[117119,388107],[115807,384529],[115980,381702],[113233,382773],[113403,380154],[120140,380950],[123038,379051],[128404,383946],[129643,388135],[131288,386951],[133584,386985],[135346,382509],[133005,378307],[137200,373093],[137372,369613],[139342,369030],[141969,370396],[144888,368449],[143748,364340],[148645,363577],[151478,363758],[152143,365161],[157109,363663]]]},"properties":{"id":207759,"statcode":"LB3007","statnaam":"De Kempen","jrstatcode":"2016LB3007","rubriek":"landbouwgebied","FID":"landbouwgebied_gegeneraliseerd_2016.aaa8f440-54c7-4cbb-b3f8-52f4071d43c9"},"id":"LB3007"},
{"type":"Feature","geometry":{"type":"Polygon","coordinates":[[[135240,409821],[131624,408142],[127682,409791],[127324,407385],[125290,407054],[121962,404625],[122193,401136],[118751,399037],[118646,396611],[118856,394473],[121958,391342],[125102,392271],[126343,394622],[129701,394446],[133318,393515],[136947,393747],[141319,390951],[143704,392016],[143992,389976],[142668,386298],[142647,382919],[144042,381852],[147503,384583],[151291,386610],[152829,385918],[153162,383767],[150587,379674],[152716,379960],[155119,376365],[156830,377193],[157585,371281],[155490,368811],[155042,366216],[157109,363663],[158808,365869],[161682,367881],[163968,367333],[167598,370220],[170201,371419],[172013,370951],[173634,373886],[172523,377804],[172515,381512],[169713,381045],[166874,379611],[164645,379515],[164596,382096],[165540,384495],[163403,386894],[163575,389787],[158715,389672],[159186,391453],[156262,395484],[154605,400814],[155530,401884],[154173,404977],[159264,408976],[159818,410981],[158604,412409],[153672,412035],[153958,410152],[151634,408389],[149242,408529],[150377,405203],[147415,403375],[145258,404888],[144989,406745],[142354,409031],[139753,408939],[139277,405657],[135542,405271],[135240,409821]]]},"properties":{"id":207760,"statcode":"LB3008","statnaam":"Midden-Noord-Brabant","jrstatcode":"2016LB3008","rubriek":"landbouwgebied","FID":"landbouwgebied_gegeneraliseerd_2016.c0cf68c6-50c7-4f7c-b0a4-c71a0460ad41"},"id":"LB3008"},
{"type":"Feature","geometry":{"type":"Polygon","coordinates":[[[187952,418885],[182100,418241],[179722,418997],[178782,420426],[173391,423656],[172602,425437],[168900,426808],[165600,425310],[161800,426761],[160391,424749],[158600,424566],[156909,425853],[156000,425809],[153747,422352],[152674,418532],[158563,419595],[159880,415696],[161017,415587],[165110,416877],[168380,415876],[169719,413311],[175174,408502],[178805,409516],[180736,400626],[182678,401110],[183654,398937],[186273,397594],[193023,396215],[197838,398059],[199758,396632],[200151,399670],[198825,403856],[195485,406489],[194273,413528],[189485,415447],[187952,418885]]]},"properties":{"id":207761,"statcode":"LB3009","statnaam":"Maaskant en Land van Cuijk","jrstatcode":"2016LB3009","rubriek":"landbouwgebied","FID":"landbouwgebied_gegeneraliseerd_2016.645c91f5-5f19-4182-8b8d-6a99bcc91c99"},"id":"LB3009"},
{"type":"Feature","geometry":{"type":"Polygon","coordinates":[[[159818,410981],[159264,408976],[154173,404977],[155530,401884],[154605,400814],[156262,395484],[159186,391453],[158715,389672],[163575,389787],[163403,386894],[165540,384495],[164596,382096],[164645,379515],[166874,379611],[169713,381045],[172515,381512],[172523,377804],[173634,373886],[172013,370951],[170201,371419],[167598,370220],[163968,367333],[166916,363701],[167495,359075],[171176,360033],[171662,364949],[174864,369576],[188940,373900],[192875,377429],[188680,384666],[187311,390673],[186273,397594],[183654,398937],[182678,401110],[180736,400626],[178805,409516],[175174,408502],[169719,413311],[168380,415876],[165110,416877],[161017,415587],[161731,413867],[159818,410981]]]},"properties":{"id":207762,"statcode":"LB3010","statnaam":"Westelijk Peelgebied","jrstatcode":"2016LB3010","rubriek":"landbouwgebied","FID":"landbouwgebied_gegeneraliseerd_2016.55a8f78a-0e4d-4a3c-abb7-719346ed0209"},"id":"LB3010"},
{"type":"Feature","geometry":{"type":"Polygon","coordinates":[[[189359,338163],[190059,340408],[191871,342057],[193647,338537],[195720,339625],[195921,341236],[197784,344035],[200482,345425],[204351,349723],[209028,351359],[207562,354038],[204893,353704],[202961,355048],[202865,361693],[206449,365310],[209470,371835],[213448,374907],[211928,379252],[213105,387657],[212255,391923],[209787,394695],[208376,397797],[205882,400683],[203783,402137],[205574,407716],[199978,409508],[199156,413520],[199340,415420],[196926,416796],[194043,417469],[191454,418336],[189950,421118],[188252,420895],[187952,418885],[189485,415447],[194273,413528],[195485,406489],[198825,403856],[200151,399670],[199758,396632],[197838,398059],[193023,396215],[186273,397594],[187311,390673],[188680,384666],[192875,377429],[188940,373900],[174864,369576],[171662,364949],[171176,360033],[167495,359075],[173121,356759],[173937,355071],[177525,354605],[181566,354988],[182442,352289],[185532,353230],[187779,350686],[184593,347744],[186262,345654],[183579,344534],[183894,341248],[187352,339740],[189359,338163]]]},"properties":{"id":207763,"statcode":"LB3101","statnaam":"Noord-Limburg","jrstatcode":"2016LB3101","rubriek":"landbouwgebied","FID":"landbouwgebied_gegeneraliseerd_2016.d3a39fca-701a-4598-a532-52569b7965fc"},"id":"LB3101"},
{"type":"Feature","geometry":{"type":"Polygon","coordinates":[[[183894,341248],[182470,341550],[181011,338295],[182310,337054],[181599,334295],[178390,330356],[181055,329600],[178817,325772],[176742,323248],[173590,320620],[172726,317564],[173954,314971],[177021,312979],[176707,307248],[180179,308708],[182488,310379],[184654,307437],[190205,309021],[191264,306964],[195346,308204],[199231,307423],[200166,309561],[198463,312580],[199936,313974],[199504,317573],[203384,317638],[204338,320527],[203438,322756],[203865,325987],[199358,327410],[199329,332873],[195659,332405],[194882,333350],[190813,331812],[191383,334854],[189490,336614],[189359,338163],[187352,339740],[183894,341248]]]},"properties":{"id":207764,"statcode":"LB3102","statnaam":"Zuid-Limburg","jrstatcode":"2016LB3102","rubriek":"landbouwgebied","FID":"landbouwgebied_gegeneraliseerd_2016.084df621-aed6-49e4-b4c3-a603ae464e7e"},"id":"LB3102"}
]}