{"type":"Topology","arcs":[[[113895,118943],[869,-19]],[[114764,118924],[617,-384],[452,-1036],[2214,-1135],[1289,-1959],[1999,780],[2871,-1650],[29,-2468],[-700,-1457]],[[123535,109615],[-686,-209]],[[122849,109406],[-1801,-897]],[[121048,108509],[68,-932]],[[121116,107577],[179,-105]],[[121295,107472],[191,-150]],[[121486,107322],[309,-488]],[[121795,106834],[165,-178]],[[121960,106656],[227,-215]],[[122187,106441],[-394,-727],[-115,-3342],[299,-4061],[2688,498],[3245,-125],[1301,-2661]],[[129211,96023],[784,461]],[[129995,96484],[427,-431]],[[130422,96053],[651,341]],[[131073,96394],[630,207]],[[131703,96601],[-34,203]],[[131669,96804],[986,-175]],[[132655,96629],[580,-954]],[[133235,95675],[-461,-1466]],[[132774,94209],[-990,-1061]],[[131784,93148],[-51,-336]],[[131733,92812],[-73,-812],[1780,-3304],[-1292,-1052],[-650,-1621],[-1361,-954],[1860,-840],[-290,-1196],[-1296,-17],[-563,-2871],[-745,-807],[-1311,-3935],[-6190,-123]],[[121602,75280],[179,269],[-1790,4468],[-2268,-26],[-1637,1194],[-800,-1050],[-462,-3082],[-2879,-2464],[-2400,-2905],[-2970,2306],[-3240,-204],[-3497,-592],[-1256,669],[-304,1738],[1390,212],[2911,-1032],[-339,2803],[897,1398],[307,1921],[-1328,515],[-403,1310],[-2227,546],[-2108,45],[-437,-1143],[-1214,-612],[-867,-1665],[-1672,-1891],[-1849,-816],[194,-1990],[-2754,-22],[-3842,813],[-2747,-1062],[-348,2952],[1300,2632],[-682,1019],[-3584,-519],[-3086,-930],[-4032,-2096],[802,-808],[-115,-1695],[-812,-638],[534,-1443],[2740,-3722],[-700,-1083],[-2614,-1175],[-3004,399],[-444,2241],[-6362,-219],[-770,2247],[-2355,1368],[-2857,-1291],[-3452,915],[-3112,1301],[-768,1810],[-1208,317],[-3154,2410],[-779,989],[-3805,-1911],[295,-1123],[-1839,-4357],[-1713,296],[-1251,-654],[-3202,-561],[-1554,1618],[-2367,1721],[-1411,-376],[-946,1685],[-1948,2046],[-2295,1481],[-1317,-1456],[-4532,-388],[-3295,2741],[-2050,3476],[-2426,1846],[-1816,2131],[392,1552],[8043,5038],[3210,443],[2419,-603],[3293,1113],[184,2590],[1115,1695],[1094,367],[652,2302],[-2237,1708],[-631,3245],[689,1401],[1498,1161],[3739,1246],[3421,-301],[1826,1930]],[[34563,113014],[222,-219]],[[34785,112795],[-1193,-1917],[1668,-185],[2607,694],[1791,-1470],[4110,88],[598,-1695],[1669,-1660],[506,-1837],[2026,-266],[3247,-2013],[1223,1151],[3219,590]],[[56256,104275],[128,-105]],[[56384,104170],[768,-3137],[2140,-1726],[2786,-843],[5318,1502],[2274,172],[1578,960],[1051,1308],[501,2767]],[[72800,105173],[640,542]],[[73440,105715],[1573,-187],[4391,-1640],[2555,201],[5167,1263],[2428,2245]],[[89554,107597],[29,9]],[[89583,107606],[485,150]],[[90068,107756],[13,4]],[[90081,107760],[32,10]],[[90113,107770],[2129,563],[4274,3449],[1310,2886],[1274,1292],[1637,704],[3365,-139],[3010,2219],[3224,1027]],[[110336,119771],[1683,-374]],[[112019,119397],[1876,-454]],[[52915,98353],[-535,1472],[1383,1174],[2208,140],[543,1584],[-651,997],[-2848,-463],[-903,-2902],[-1798,-1643],[-1470,-113],[-3001,-1473],[-2696,-298],[-1895,2267],[-1789,-540],[-3227,-3675],[1574,-2634],[285,-1368],[-1691,-492],[-372,-1684],[4110,379],[897,-2101],[1163,562],[2928,-1152],[2955,-2086],[899,-2302],[2500,-4027],[2744,-1708],[1414,153],[1969,1190],[2883,-638],[3,2777],[-554,3166],[-2556,1140],[-15,1472],[-831,873],[-6030,354],[-1880,3097],[-2977,2627],[-1484,605],[450,1300],[2349,428],[3551,1781],[1859,-396],[454,-856],[2975,1],[217,1049],[-1924,99],[-1186,1864]],[[25950,94679],[1696,537],[2051,-18],[1738,871],[2465,-14],[2324,-1160],[3226,3664],[-1642,429],[46,1156],[-903,2675],[-1316,1270],[-2264,637],[-452,1394],[-1673,3],[-812,-1065],[-4010,-1847],[-825,-3731],[-1874,-1415],[-398,-2301],[2623,-1085]],[[24850,86361],[1244,964],[-2461,3437],[-2283,1525],[-930,2151],[-926,-1519],[1063,-1676],[1762,-1095],[851,-2322],[1680,-1465]],[[83164,105195],[1937,527]],[[85101,105722],[-1937,-527]],[[11490,74521],[1958,-309],[2536,-1985],[3861,-1429],[3235,-593],[2391,-2464],[4629,-110],[1238,-1269],[4155,-314],[3580,2696],[2609,643],[977,1998],[-268,1535],[741,800],[3019,-676],[2383,-3977],[4131,-649],[1855,34],[2362,1311],[2342,86],[1920,-2970],[-4879,-6059],[-7648,-5371],[-1488,278],[-2161,-382],[-1377,-833],[-1971,-2004],[-5080,-1639],[209,2537],[-2055,-1311],[-2689,-124],[-2085,580],[-41,3537],[446,1133],[-2742,1539],[-4294,843],[-2462,1632],[-1211,-205],[-3442,1901],[-1068,-1800],[-917,897],[-3322,-885],[763,-4550],[-5433,-396],[-2955,1787],[-2482,3961],[489,1157],[-1249,1429],[1936,2092],[-739,1607],[-203,2672],[601,534],[3677,1470],[640,-354],[5578,1969]],[[126269,283027],[-1792,-1372],[-1459,381],[1078,1373],[2173,-382]],[[122314,283564],[-2500,-753],[-1983,-1433],[-4098,-1781],[479,-1779],[-4026,-3610],[-2659,-129],[-694,-1156],[-1624,414],[583,1546],[5335,3688],[1840,1731],[5070,3407],[1853,643],[2424,-788]],[[151778,298947],[-124,-673],[-4293,-1765],[-1171,-1437],[-3607,1],[-1367,-294],[-1805,-1580],[-4214,-1925],[-2441,259],[-2355,-921],[-2013,-1865],[-2652,294],[925,2181],[1356,2005],[1060,752],[3314,1045],[8302,2110],[7886,2352],[3199,-539]],[[164277,301474],[2681,-113],[10566,935],[-2624,-1921],[-5701,-1556],[-4985,584],[-1769,-1482],[-1521,-577],[-2477,264],[-1779,1374],[-56,1549],[2382,1812],[1062,128],[1815,-995],[2406,-2]],[[230999,209449],[-385,585]],[[230614,210034],[-74,231]],[[230540,210265],[-170,713]],[[230370,210978],[59,90]],[[230429,211068],[392,592]],[[230821,211660],[-6376,2818],[-4158,-1010]],[[220287,213468],[-1567,-1259]],[[218720,212209],[-1035,-930],[372,-3579],[-3307,1163],[-1099,-1244],[-1352,1366],[-3345,-1623],[-1400,3419],[-2610,1809],[58,1058],[-3841,-540],[-1483,1187],[-3168,965],[-1406,-1038],[-1651,1821],[-2515,6460],[807,946],[1617,460],[3014,3488],[-4432,4984],[-1161,1691],[-2598,-1749],[-1912,-173],[507,-1244],[-2242,-581]],[[184538,230325],[-589,86]],[[183949,230411],[-700,-212]],[[183249,230199],[-737,-394]],[[182512,229805],[-404,557]],[[182108,230362],[-113,51]],[[181995,230413],[-169,-25]],[[181826,230388],[-959,2225],[-2843,-791],[-392,-1274],[-1762,-1769],[-1450,-784],[-2208,451],[-1606,1311]],[[170606,229757],[-191,-25]],[[170415,229732],[-1469,-1140]],[[168946,228592],[-361,-317]],[[168585,228275],[-374,1532]],[[168211,229807],[-2411,2458],[-1627,471],[-779,-666]],[[163394,232070],[-1886,872],[-1855,-257],[-881,1854],[-1758,-1054],[-2237,-184],[-1203,-1688],[-1515,-133],[-3024,1408],[-3123,990],[-1855,-733],[-1890,997],[-2133,1831],[-649,1183],[985,1694],[2382,1192],[168,1268],[-556,1966],[790,2710],[-1075,4372],[758,1945],[-2149,3834],[1111,937],[-215,1515],[-994,1585],[-2060,-1925],[-3133,-718],[-8762,-7547]],[[126635,249984],[-59,68]],[[126576,250052],[8560,7403],[3708,1237],[1965,1917],[78,1461],[1699,1498],[1021,6764],[1940,4230],[2265,2265],[2972,1865],[2292,3089],[1680,1720],[6210,3098],[5048,2780],[1516,311],[5332,3156],[1883,813],[3013,-262],[5476,1671],[5260,622],[2948,-476],[2500,1265],[1486,-737],[2997,839],[1089,-119],[2520,-1519],[528,-802],[2269,1732],[1800,885],[3157,777],[8114,1044],[616,-179],[3474,1098],[2262,1479],[4095,1274],[3326,509],[3501,-1157],[992,936],[3452,-1432],[1174,-1077],[-472,-3554],[949,-1324],[698,-4480],[2529,-2453],[2299,-1516],[3952,-1754],[3824,-456],[-308,-3457],[1724,-1551],[2034,-188],[1477,-716],[3348,-706],[816,-2377],[87,-1885],[-1685,-4048],[-734,-2612],[324,-1870],[1341,-887],[-149,-3569],[1116,-7801],[-1915,-7783],[-4980,-8765],[-1115,-1590],[400,-1292],[-1356,-3124],[-273,-9715],[-433,-8779],[-851,-1323],[-4555,1389],[-2438,-968],[-1314,190],[-1521,1251],[-5103,-513],[-3000,383],[-2386,-750],[-2125,-1988]],[[197093,294494],[-3049,1888],[-1105,-639],[-428,-1766],[492,-2611],[2342,-1769],[1383,131],[-14,1159],[-2229,4332],[2608,-725]],[[207209,306955],[-2704,-146],[-480,-607],[-3739,-1420],[-1418,-1198],[-3672,-663],[-2406,-80],[-2990,-1034],[210,2231],[2069,1600],[5218,971],[3987,407],[3698,823],[2845,221],[-618,-1105]],[[215520,311974],[83,-1524],[-1290,-1186],[-1682,1307],[1722,1641],[1167,-238]],[[171698,206438],[-599,-1573],[-1517,1441],[2116,132]],[[218720,212209],[1567,1259]],[[230821,211660],[-392,-592]],[[230370,210978],[170,-713]],[[230614,210034],[385,-585]],[[230999,209449],[1194,-1413],[-523,-2936],[3298,-2732],[-966,-519],[-1746,415],[-674,-1630],[-2410,490],[1724,-3565],[-456,-3871],[3792,-2399],[1495,-474],[5417,119],[530,-918],[5464,-1659],[1299,981],[1067,2437],[1113,3],[1239,-4018],[776,-667],[930,-2142],[1629,-424],[986,-2938],[48,-2327],[-1047,-1575],[-507,-2016],[-1406,-3146],[108,-1554],[1070,-2406],[1636,-1622],[-291,-733],[-2844,-1134],[-2066,147],[-2477,-5150],[-2427,-435],[-2253,-2455],[-541,-2571],[-1192,-1416],[-2239,-274],[-4256,-41],[-580,-3717],[-1048,-1226],[-2698,-549],[-497,-3380],[1803,56],[2689,-1247],[4076,-3295],[1054,-488],[196,-3270],[-2026,-640],[-285,-2612],[-1607,-2155],[-1093,-419],[-2172,-1883],[-2055,2038],[-1231,114],[-2529,-1322],[-3554,-1214],[-2038,-1399],[-3749,-1595],[-43,-638],[-2438,-828],[-956,1108],[-1548,-41],[-2592,839],[-198,-1232],[1367,-820],[26,-2923],[-3054,744],[-1275,1742],[-2682,-244],[-414,1712],[-1432,1046],[-1210,-663],[-3248,-107],[-2188,1634],[508,1021],[-2336,1470],[-3237,-1163],[1865,-998],[529,-1781],[1551,-885],[0,-2328],[-2129,695],[-1968,84],[-3031,1901],[-551,-1462],[-1343,-1093],[-3361,-1361],[-1643,682],[-1224,-1498],[2368,-2862],[818,-3484],[-2553,-2051]],[[180527,110894],[-2638,482],[-1520,2806],[-1759,-271],[-223,-1986]],[[174387,111925],[-852,176],[-5000,-820],[-2381,759],[-919,1414],[-2054,686],[-598,1065],[-2503,1135],[-1545,2388],[-1200,53],[-2000,1067],[-2115,-247],[-1185,-1251],[-1600,328],[-1000,1053],[-1200,70],[-800,-1644],[-2400,-551],[-2600,1243],[-2253,-3457],[-630,-3252],[-443,-568],[-3974,-2084],[-878,341],[-2667,-591],[-2266,930]],[[129324,110168],[-1806,-86]],[[127518,110082],[-1533,92],[-2450,-559]],[[114764,118924],[871,-27]],[[115635,118897],[920,-213],[361,2471]],[[116916,121155],[-1522,189]],[[115394,121344],[-689,214]],[[114705,121558],[-28,72]],[[114677,121630],[445,1409],[1493,67]],[[116615,123106],[1159,64]],[[117774,123170],[638,-211]],[[118412,122959],[733,357]],[[119145,123316],[-647,504]],[[118498,123820],[84,883]],[[118582,124703],[1218,106]],[[119800,124809],[734,477]],[[120534,125286],[202,307]],[[120736,125593],[1910,898]],[[122646,126491],[229,344]],[[122875,126835],[65,446]],[[122940,127281],[-100,201]],[[122840,127482],[1292,1777]],[[124132,129259],[-1,448]],[[124131,129707],[850,1548]],[[124981,131255],[102,152]],[[125083,131407],[361,489]],[[125444,131896],[1767,3278]],[[127211,135174],[1768,-896],[1649,1800],[1141,204],[1637,-1346],[4311,-921],[1041,1166],[2374,175],[2430,817],[1665,1041],[2422,-273]],[[147649,136941],[1587,-541]],[[149236,136400],[1244,-779]],[[150480,135621],[1285,-363]],[[151765,135258],[1337,-1396]],[[153102,133862],[1282,-318]],[[154384,133544],[760,-220]],[[155144,133324],[1191,-769]],[[156335,132555],[859,611]],[[157194,133166],[276,-114]],[[157470,133052],[206,404]],[[157676,133456],[265,59]],[[157941,133515],[-285,1122]],[[157656,134637],[110,878]],[[157766,135515],[82,403]],[[157848,135918],[-848,1808]],[[157000,137726],[-1502,1224]],[[155498,138950],[-175,897]],[[155323,139847],[-197,2429],[-1093,1856]],[[154033,144132],[-888,94],[324,3273],[-393,955]],[[153076,148454],[-464,2063]],[[152612,150517],[-1200,-607]],[[151412,149910],[298,-1261],[-989,-1237],[-2624,-905],[-1724,1197],[1838,1496],[-124,1323]],[[148087,150523],[658,804]],[[148745,151327],[-400,371]],[[148345,151698],[671,1579],[966,374]],[[149982,153651],[22,66]],[[150004,153717],[117,189]],[[150121,153906],[-2243,1618],[-803,1747],[-2037,553],[-31,3449],[-2204,1246]],[[142803,162519],[-957,806],[712,2943],[6956,1971],[1495,-117],[922,1725],[1241,3558],[1117,1725],[2421,2117],[195,1251],[1112,1011],[1545,-107],[1646,1546],[1516,292],[2721,1838],[4816,4260],[729,1152],[-316,1248]],[[170674,189738],[3,5]],[[170677,189743],[1586,1110],[1156,3688],[344,2237]],[[173763,196778],[-44,61]],[[173719,196839],[-418,2570]],[[173301,199409],[43,181]],[[173344,199590],[-1064,1918],[-935,2683],[963,2636]],[[172308,206827],[3604,828]],[[175912,207655],[2382,-440],[2080,1189],[1642,-123],[2154,2253],[-2446,1613]],[[181724,212147],[-808,800],[-2508,1129],[2100,2026],[-1592,2478]],[[178916,218580],[-440,1588]],[[178476,220168],[-944,2320],[-2845,2420],[-2009,1259],[-2137,333],[-1595,2092]],[[170415,229732],[191,25]],[[181826,230388],[169,25]],[[182108,230362],[404,-557]],[[182512,229805],[737,394]],[[183949,230411],[589,-86]],[[173763,196778],[-44,61]],[[172308,206827],[2938,1031],[666,-203]],[[168211,229807],[374,-1532]],[[178476,220168],[440,-1588]],[[181724,212147],[-1263,-2147],[-8914,-2978],[-11410,-1],[-1580,-582],[1007,-1168],[6848,-1688],[3874,-472],[3058,-3521]],[[173301,199409],[22,-2874],[-624,-2757],[-2022,-4035]],[[170674,189738],[-1370,-2058],[-3389,-2716],[-1831,164],[-3982,-2042],[-2462,-1969],[-1023,-1544],[-1887,-384],[-1266,498],[-1731,-1945],[991,-1775],[-18,-1472],[-1614,-5122],[-8125,-2491],[-1676,1271],[-4633,4399],[-1361,-1155],[914,-2100],[3157,-499],[3190,-2530],[-712,-2943],[957,-806]],[[150121,153906],[-117,-189]],[[150004,153717],[-22,-66]],[[148345,151698],[400,-371]],[[148745,151327],[-658,-804]],[[151412,149910],[1200,607]],[[152612,150517],[464,-2063]],[[153076,148454],[393,-955],[-324,-3273],[888,-94]],[[155323,139847],[175,-897]],[[157000,137726],[848,-1808]],[[157766,135515],[-110,-878]],[[157656,134637],[285,-1122]],[[157941,133515],[-265,-59]],[[157676,133456],[-206,-404]],[[157194,133166],[-859,-611]],[[156335,132555],[-1191,769]],[[154384,133544],[-1282,318]],[[153102,133862],[-1337,1396]],[[150480,135621],[-1244,779]],[[149236,136400],[-1587,541]],[[127211,135174],[-1767,-3278]],[[125444,131896],[-361,-489]],[[124981,131255],[-850,-1548]],[[124131,129707],[1,-448]],[[122840,127482],[100,-201]],[[122875,126835],[-229,-344]],[[120736,125593],[-202,-307]],[[119800,124809],[-1218,-106]],[[118582,124703],[-84,-883]],[[118498,123820],[647,-504]],[[119145,123316],[-733,-357]],[[117774,123170],[-1123,507]],[[116651,123677],[-241,1928],[-1671,368],[-298,2005],[-2662,1494],[-1155,1492],[-657,2369]],[[109967,133333],[-1069,-856],[-2493,-473],[-1173,3344],[-2275,2752]],[[102957,138100],[-624,803],[2706,668],[-693,1365],[-2988,-426],[1821,3955],[2667,1497],[-2867,1267],[-37,3617],[-2263,1702]],[[100679,152548],[98,187]],[[100777,152735],[582,94]],[[101359,152829],[302,280]],[[101661,153109],[171,1097]],[[101832,154206],[632,383]],[[102464,154589],[180,162]],[[102644,154751],[785,242]],[[103429,154993],[1587,-818],[1321,171],[-48,1920],[1275,627],[-2498,1927],[-780,129],[-2064,2439],[-1291,2411]],[[100931,163799],[517,385]],[[101448,164184],[1043,148]],[[102491,164332],[782,246]],[[103273,164578],[1808,1272]],[[105081,165850],[181,619]],[[105262,166469],[772,437]],[[106034,166906],[2882,90],[1269,1735],[-226,1084],[2088,52]],[[112047,169867],[1845,1292],[952,-145],[1049,1604],[2039,-2357],[1506,-477],[2538,171],[-694,3869],[-4267,1814],[-96,773]],[[116919,176411],[620,-470],[2779,688],[4072,-1628],[-552,6409],[2240,1871],[6599,3949],[8127,5719],[1147,431],[2700,2273],[-615,2056],[111,922],[766,1888],[519,686],[1399,1191],[-771,2423],[-3829,6149],[-2613,2820],[-3708,1751],[-1258,2]],[[134652,215541],[37,142]],[[134689,215683],[995,46],[3482,-1545],[511,-369],[2593,-2786],[3856,-6201],[824,-2669],[-1946,-1574],[-798,-1939],[1325,-319],[566,1682],[3036,647],[3924,4030],[4711,1471],[1576,1298],[-2432,3737],[-1573,1380],[134,11078],[4330,7252],[3591,1168]],[[125451,175417],[-999,-490],[1590,-2035],[5932,576],[2923,-1689],[1644,868],[-2063,1413],[-4377,1868],[-1754,304],[-2896,-815]],[[94028,245838],[-1260,953],[293,1621],[1736,-408],[-769,-2166]],[[134652,215541],[-2733,-483],[-730,-3163],[-2527,-2304],[-1623,-362],[-1036,-1091],[-2129,-361],[-2646,2529],[-1397,-848],[-1514,763],[-1818,-1295],[88,-3774],[711,-3180],[1585,-2543],[782,-2440],[1298,-2121],[-1789,-2011],[548,-1484],[-1312,-1908],[56,-1752],[1947,-320],[603,49],[414,342],[-19,1285],[692,1672],[2083,-775],[-2620,-1255],[-76,-827],[-135,-405],[-1163,-957],[-455,-1352]],[[119737,185170],[-1300,-153],[-3319,1160],[-3306,-304]],[[111812,185873],[-139,-57]],[[111673,185816],[-60,-57]],[[111613,185759],[-278,-716]],[[111335,185043],[-960,-373],[-1694,1181]],[[108681,185851],[-2912,854]],[[105769,186705],[-468,-1438],[-7936,1667],[-742,-3371],[1951,-443],[-161,-4531],[4111,-3233],[37,-1718]],[[102561,173638],[-501,-685]],[[102060,172953],[-1061,-1049]],[[100999,171904],[-424,-858]],[[100575,171046],[-1596,-1293],[-2691,-1472],[-1659,-2085],[-2168,-1505]],[[92461,164691],[-2593,-1595],[-2043,-159],[-3148,560],[863,5473],[1370,1285],[1642,3690],[-2902,357],[-375,-795],[-4729,2159]],[[80546,175666],[4265,10455],[539,2647],[-564,1600],[3477,681],[-1993,1353],[1254,3801],[1609,9190],[858,7618],[781,4751],[-42,2352],[451,2443],[2592,6605],[2184,9233],[446,6011],[929,1674],[2178,293],[1064,-1216],[1511,-173],[-714,-1871],[1147,-2789],[4353,-2564],[2253,574],[1894,1065],[2262,2974],[3918,851],[760,-532],[8618,7360]],[[126635,249984],[-8611,-7534],[639,-802],[4335,-8653],[-664,-8012],[912,-535],[389,-1558],[1481,-1540],[2345,-65],[853,1517],[4416,-184],[1657,-1446],[344,-2859],[765,-1343],[-807,-1287]],[[107421,267632],[975,-601],[951,-1815],[-510,-1150],[-242,-5167],[-1616,-1514],[-11,-1057],[-1760,-2364],[-1861,-541],[-2340,-3015],[-3261,-1389],[-1542,940],[-301,2790],[1046,5026],[2357,4237],[2668,3874],[2937,4697],[1354,-43],[1156,-2908]],[[105769,186705],[2912,-854]],[[111335,185043],[278,716]],[[111673,185816],[139,57]],[[119737,185170],[-1094,-371],[-2603,-3170],[-178,-1216],[-1497,449],[-1065,-624],[2403,-2092],[1728,-979],[-512,-756]],[[112047,169867],[-2088,-52],[226,-1084],[-1269,-1735],[-2882,-90]],[[105262,166469],[-181,-619]],[[103273,164578],[-782,-246]],[[101448,164184],[-504,-17]],[[100944,164167],[-1073,146]],[[99871,164313],[-2127,-1441]],[[97744,162872],[-1038,-867]],[[96706,162005],[-275,319]],[[96431,162324],[-272,310]],[[96159,162634],[-95,421]],[[96064,163055],[75,1781],[-1346,176]],[[94793,165012],[-1253,-790],[-1079,469]],[[100575,171046],[424,858]],[[102060,172953],[501,685]],[[94793,165012],[1346,-176],[-75,-1781]],[[96159,162634],[272,-310]],[[96706,162005],[1038,867]],[[97744,162872],[2127,1441]],[[100944,164167],[-13,-368]],[[103429,154993],[-785,-242]],[[102464,154589],[-632,-383]],[[101661,153109],[-302,-280]],[[101359,152829],[-582,-94]],[[100777,152735],[-98,-187]],[[102957,138100],[2275,-2752],[1173,-3344]],[[106405,132004],[-3128,90]],[[103277,132094],[-1458,-1555]],[[101819,130539],[-3416,-1122],[-3180,-2004],[-2928,-609],[-3704,-41]],[[88591,126763],[-1973,725]],[[86618,127488],[-987,810]],[[85631,128298],[1416,517]],[[87047,128815],[3184,495],[-1720,2075]],[[88511,131385],[-2276,3843],[1043,2503],[-1360,225],[-505,-1996],[-1220,-314],[-512,2520],[605,1599],[764,5846],[-2064,-973],[-1947,-1844]],[[81039,142794],[-1309,-91]],[[79730,142703],[-709,-44]],[[79021,142659],[-66,29]],[[78955,142688],[-849,-770]],[[78106,141918],[-539,-2183]],[[77567,139735],[112,-306]],[[77679,139429],[-617,-182]],[[77062,139247],[-1538,-2655],[-2380,-1525],[-4823,-2249]],[[68321,132818],[-707,-736]],[[67614,132082],[-1477,-1502],[-2273,787]],[[63864,131367],[-1286,1675]],[[62578,133042],[-1549,-113],[-1724,1494],[-316,1342],[-2734,1667],[-1471,2279]],[[54784,139711],[4654,5546],[2354,2430],[2515,3140],[2864,2802],[2960,3595],[2043,2829],[5100,8872],[3272,6741]],[[83164,105195],[1937,527]],[[69993,110002],[-1618,-1162],[-2093,570],[-2155,1671],[-290,933],[3300,-824],[2856,-1188]],[[42684,115053],[-3578,-699],[2093,2051],[1485,-1352]],[[88511,131385],[1720,-2075],[-3184,-495]],[[87047,128815],[-1416,-517]],[[86618,127488],[1973,-725]],[[101819,130539],[1458,1555]],[[106405,132004],[2493,473],[1069,856]],[[116651,123677],[-36,-571]],[[114677,121630],[28,-72]],[[115394,121344],[1522,-189]],[[115635,118897],[-871,27],[-869,19]],[[112019,119397],[-1683,374]],[[90113,107770],[-32,-10]],[[90068,107756],[-485,-150]],[[89554,107597],[-1228,670],[-880,-680],[-3414,-1362],[-1934,-294],[-4167,1533],[-2041,98],[-2251,730],[-554,-1168],[355,-1409]],[[72800,105173],[-2151,163],[304,-1083],[-771,-1552],[-1291,-676],[-4029,-1103],[-3321,817],[-830,1390],[-2129,1059],[-2198,-18]],[[56256,104275],[8,1465],[-3034,1305],[-2841,51],[-754,436],[-2457,3568],[-332,1439],[266,2567],[-2106,2620],[-2734,154],[-953,-622],[-2686,-394],[-107,-963],[-1818,-378],[-1025,-2573],[-898,-155]],[[34563,113014],[1461,1380],[410,1248],[-649,2274],[315,1261],[2290,1274],[1166,89],[2703,1382],[3613,998],[2413,-2901],[2253,2801],[-2580,4187],[1668,3531],[-850,631],[-2844,-924],[-1044,350],[-1317,4044],[118,1409],[1363,2005],[1383,407],[2575,-389],[393,923],[3406,-1095],[1975,1812]],[[62578,133042],[1286,-1675]],[[67614,132082],[707,736]],[[77062,139247],[617,182]],[[77679,139429],[-112,306]],[[78106,141918],[849,770]],[[79021,142659],[709,44]],[[79730,142703],[1309,91]],[[49820,121542],[-1006,-2095],[3392,-1631],[2239,-1713],[4198,-1620],[3746,-3432],[1367,-1988],[2451,-1234],[2110,-1607],[3750,-112],[1451,2343],[-3750,2278],[-4076,1754],[-2829,852],[-1223,1509],[-42,983],[-1249,1365],[-2037,569],[-1738,1984],[-1718,-288],[-2546,1088],[-1383,1530],[-1107,-535]],[[174387,111925],[1048,-858],[419,-2400],[985,-897],[2368,-433],[1501,-769],[664,-3728],[-61,-2031],[609,-1280],[1661,-977],[1674,-1649],[462,-2927],[945,-1545],[-116,-1359],[722,-1211]],[[187268,89861],[-246,59]],[[187022,89920],[-752,-404]],[[186270,89516],[-1548,1233]],[[184722,90749],[-449,350]],[[184273,91099],[-955,-425]],[[183318,90674],[-2688,-1035]],[[180630,89639],[-3167,-573],[-2489,1163]],[[174974,90229],[-2266,405],[684,-4570]],[[173392,86064],[354,-2351]],[[173746,83713],[573,-1347],[794,-4656],[4197,-7241],[-3997,-3547],[-14014,-4306],[-3202,-4627],[-486,-4916],[-3681,-958]],[[153930,52115],[-788,2622],[210,1999],[-2723,3000],[-226,637],[-2286,548],[-1266,-1737],[-1608,-275],[-1699,-2206],[-4974,1500],[-675,-1412],[-2815,-174],[-2305,595],[-1760,-602],[-832,770],[1140,4109],[-2919,1947],[-2627,-1366],[-1970,583],[-172,3480],[-1049,1600],[-3146,3614],[2162,3933]],[[131733,92812],[51,336]],[[131784,93148],[990,1061]],[[133235,95675],[-580,954]],[[132655,96629],[-986,175]],[[131703,96601],[-630,-207]],[[131073,96394],[-651,-341]],[[129995,96484],[-784,-461]],[[122187,106441],[-227,215]],[[121795,106834],[-309,488]],[[121295,107472],[-179,105]],[[121048,108509],[1801,897]],[[127518,110082],[1806,86]],[[180527,110894],[138,-1101],[2696,43],[3527,-2350],[-1297,-926],[767,-3991],[3588,-1402],[1981,-351],[-507,-1080],[-1201,-4576],[2098,-1437],[642,-1290],[1852,-1596],[1411,-3102],[1611,-1226],[857,-1546],[79,-2457],[771,-1809],[-1177,-8408],[652,-1093],[868,-3249],[-2517,-2351],[-1453,-734],[-1022,-2854],[-1705,-2437],[-302,-1221],[-2685,-3045],[-899,-572],[954,-2204],[-1258,-247],[400,-4194],[644,-1239],[2130,380],[672,723],[2974,1490],[1097,-885],[-2916,-1479],[2579,-1628],[-833,-1095],[-2611,-449],[-2384,-1136],[-361,-1033],[-1674,-995],[-1796,-2277],[-1882,-649],[-2743,-3397],[-137,-1754],[-2075,-1089],[-1774,3521],[-1812,-1649],[-632,-1628],[59,-2155],[1897,-1771],[-570,-3042],[4069,1538],[789,-956],[3581,434],[106,-5418],[4507,-1423],[-458,-3185],[931,-2275],[-736,-1282],[-4107,-1673],[-173,-1378],[614,-2220],[-1473,-1394],[-1327,988],[-699,-1389],[3757,-2659],[-466,-2178],[-3307,77],[-353,595],[-2686,-428],[-677,-626],[-2241,537],[-259,1524],[-1602,-738],[-1300,199],[-2655,-1039],[-2160,2936],[-2099,-1367],[-551,-1494],[-1338,844],[-1771,-1115],[-869,719],[1019,1567],[-264,4027],[-2661,1411],[-1204,2448],[338,2784],[2693,1921],[961,1124],[137,1287],[1847,58],[91,1179],[2099,4074],[-2526,510],[3209,3939],[711,2759],[-1299,1241],[943,2922],[1509,-143],[760,2051],[-644,1409],[2032,315],[651,805],[-1669,2090],[2111,1394],[1075,1548],[-1354,992],[-852,1569],[-3254,-1858],[-753,3599],[-1893,309],[-2242,-511],[-3494,285],[-816,1688],[-5626,2316]],[[173746,83713],[-354,2351]],[[174974,90229],[2489,-1163],[3167,573]],[[180630,89639],[2688,1035]],[[183318,90674],[955,425]],[[184273,91099],[449,-350]],[[184722,90749],[1548,-1233]],[[187022,89920],[246,-59]]],"transform":{"scale":[1,1],"translate":[13565,306960]},"objects":{"regionale_eenheid_2025":{"type":"GeometryCollection","geometries":[{"arcs":[[[0,1,2,3,4,5,6,7,8,9,10,11,12,13,14,15,16,17,18,19,20,21,22,23,24,25,26,27,28,29,30,31,32,33,34,35],[36],[37],[38]],[[41]]],"type":"MultiPolygon","properties":{"statcode":"RE08","jrstatcode":"2025RE08","statnaam":"Zeeland - West-Brabant","rubriek":"regionale_eenheid","id":8,"FID":"regionale_eenheid_gegeneraliseerd.c3f8744e-6830-4d5b-ac7d-272e3bb799f8"},"id":"RE08"},{"arcs":[[[42]],[[43]],[[44]],[[45]],[[46,47,48,49,50,51,52,53,54,55,56,57,58,59,60,61,62,63,64,65,66,67,68],[69]],[[70]],[[71]]],"type":"MultiPolygon","properties":{"statcode":"RE01","jrstatcode":"2025RE01","statnaam":"Noord-Nederland","rubriek":"regionale_eenheid","id":1,"FID":"regionale_eenheid_gegeneraliseerd.49728957-ac89-4c11-b5b4-5ce76e785776"},"id":"RE01"},{"arcs":[[[72]],[[73,-52,74,-50,75,-48,76,77,78,79,80,81,-2,82,83,84,85,86,87,88,89,90,91,92,93,94,95,96,97,98,99,100,101,102,103,104,105,106,107,108,109,110,111,112,113,114,115,116,117,118,119,120,121,122,123,124,125,126,127,128,129,130,131,132,133,134,135,136,137,138,139,140,141,142,143,144,145,146,-63,147,-61,148,-59,149,150,-56,151,-54]]],"type":"MultiPolygon","properties":{"statcode":"RE02","jrstatcode":"2025RE02","statnaam":"Oost-Nederland","rubriek":"regionale_eenheid","id":2,"FID":"regionale_eenheid_gegeneraliseerd.9a678246-26e8-43ec-a08a-465cfaae8fea"},"id":"RE02"},{"arcs":[[[153,-143]],[[154,-64,-147,155,-145,156,-141,157,-137,158,-135,159,160,-132,161,162,-129,163,164,165,-125,166,-123,167,-121,168,169,170,171,-116,172,173,-113,174,175,-110,176,177,-107,178,179,-104,180,181,-101,182,-99,183,-97,184,-95,185,186,187,188,-90,189,190,191,192,193,194,195,196,197,198,199,200,201,202,203,204,205,206,207,208,209,210,211,-66],[212]]],"type":"MultiPolygon","properties":{"statcode":"RE03","jrstatcode":"2025RE03","statnaam":"Midden-Nederland","rubriek":"regionale_eenheid","id":3,"FID":"regionale_eenheid_gegeneraliseerd.656e2ef1-082b-4bfb-ad1b-8fad8140d958"},"id":"RE03"},{"arcs":[[[213]],[[-211,214,215,216,217,218,219,220,221,222,223,224,225,226,227,-68,228]],[[229]]],"type":"MultiPolygon","properties":{"statcode":"RE04","jrstatcode":"2025RE04","statnaam":"Noord-Holland","rubriek":"regionale_eenheid","id":4,"FID":"regionale_eenheid_gegeneraliseerd.37bdad5f-52db-4818-ae94-b9527b28f8c2"},"id":"RE04"},{"arcs":[[230,-220,231,-218,232,-216,233,-209,234,-207,235,-205,236,-203,237,238,239,240,241,242,243,244,245,-226,246,-224,247,-222]],"type":"Polygon","properties":{"statcode":"RE05","jrstatcode":"2025RE05","statnaam":"Amsterdam","rubriek":"regionale_eenheid","id":5,"FID":"regionale_eenheid_gegeneraliseerd.1d49cd36-fa0a-46a8-b1d2-fefb4c3a1223"},"id":"RE05"},{"arcs":[[-246,248,-244,249,-242,250,251,-239,252,-201,253,-199,254,-197,255,256,257,-193,258,259,260,261,262,263,264,265,266,267,268,269,270,271,272,273,274,275,276,277,278,279,-227]],"type":"Polygon","properties":{"statcode":"RE06","jrstatcode":"2025RE06","statnaam":"Den Haag","rubriek":"regionale_eenheid","id":6,"FID":"regionale_eenheid_gegeneraliseerd.6644667d-52b6-4561-8eb0-5dc1bcaa4412"},"id":"RE06"},{"arcs":[[[281]],[[282]],[[283,284,-264,285,-262,286,-260,287,-191,288,-88,289,-86,290,-84,291,-36,292,-34,293,-32,294,-30,295,-28,296,-26,297,-24,298,-279,299,-277,300,-275,301,302,-272,303,-270,304,305,-267],[306]]],"type":"MultiPolygon","properties":{"statcode":"RE07","jrstatcode":"2025RE07","statnaam":"Rotterdam","rubriek":"regionale_eenheid","id":7,"FID":"regionale_eenheid_gegeneraliseerd.9af8672f-255c-45c7-93ca-090032c89c7e"},"id":"RE07"},{"arcs":[[307,308,309,310,311,312,313,314,315,316,317,318,-22,319,320,-19,321,322,-16,323,324,-13,325,-11,326,-9,327,-7,328,-5,329,-3,-82,330,-80]],"type":"Polygon","properties":{"statcode":"RE09","jrstatcode":"2025RE09","statnaam":"Oost-Brabant","rubriek":"regionale_eenheid","id":9,"FID":"regionale_eenheid_gegeneraliseerd.49c9a135-b0c6-469d-a810-8eb99c359a7b"},"id":"RE09"},{"arcs":[[331,-318,332,-316,333,334,335,336,337,-310,338,-308,-79]],"type":"Polygon","properties":{"statcode":"RE10","jrstatcode":"2025RE10","statnaam":"Limburg","rubriek":"regionale_eenheid","id":10,"FID":"regionale_eenheid_gegeneraliseerd.cf309134-6f39-4e9a-812e-82043b8704e1"},"id":"RE10"}]}}}