{"type":"FeatureCollection", "features": [
{"type":"Feature","geometry":{"type":"Polygon","coordinates":[[[114509,471127],[116996,471612],[119586,473853],[122481,473956],[123714,475900],[125521,476788],[123835,479927],[124298,483067],[121533,481718],[116247,482110],[111959,485632],[112069,487961],[110231,488928],[106666,487928],[106372,485036],[103434,483559],[102117,480905],[100503,477264],[99114,475943],[98242,470457],[103433,470056],[106026,471652],[109708,471780],[109724,469594],[114509,471127]]]},"properties":{"id":181100,"statcode":"ZK01","statnaam":"Amstelland en De Meerlanden","jrstatcode":"2013ZK01","rubriek":"zorgkantoorregio","FID":"zorgkantoorregio_gegeneraliseerd_2013.480ed076-a4a6-4134-bac9-496ef9f6e655"},"id":"ZK01"},
{"type":"Feature","geometry":{"type":"Polygon","coordinates":[[[130059,479450],[129513,482601],[130397,483334],[127288,487388],[130357,489058],[133302,492130],[128673,493142],[125109,492730],[123943,491625],[121775,493077],[119326,493701],[118857,492229],[110930,493894],[110194,490543],[112168,490054],[112069,487961],[111959,485632],[116247,482110],[121533,481718],[124298,483067],[123835,479927],[125521,476788],[128409,477975],[130059,479450]]]},"properties":{"id":181101,"statcode":"ZK02","statnaam":"Amsterdam","jrstatcode":"2013ZK02","rubriek":"zorgkantoorregio","FID":"zorgkantoorregio_gegeneraliseerd_2013.1b4c60d0-b9aa-4e9a-8076-d2a9a112e1ae"},"id":"ZK02"},
{"type":"Feature","geometry":{"type":"Polygon","coordinates":[[[178166,472771],[179834,467369],[182678,467730],[183925,462666],[187329,462391],[187702,459813],[188991,457695],[193301,456931],[193992,454048],[196355,454715],[198646,453413],[201681,455790],[206577,452813],[209204,456185],[211422,456342],[213132,458722],[219428,461475],[222244,459983],[226043,457025],[229933,458576],[230403,461238],[230027,463788],[230594,466046],[229043,468472],[226208,471074],[225295,473178],[222928,473584],[220820,473063],[220009,471435],[217226,471219],[212441,471632],[209811,470212],[207596,468015],[210024,465884],[209566,463973],[207849,463980],[202153,461974],[201331,463462],[200077,470467],[198792,473595],[199788,476602],[199175,478727],[200369,482195],[201793,482737],[202348,487360],[205142,488417],[205552,490344],[204238,491356],[204118,494995],[202965,496572],[197871,495346],[194909,491489],[190706,488900],[187541,484932],[188651,483146],[185940,479700],[186729,476990],[186094,475556],[179712,475646],[180558,473428],[178166,472771]]]},"properties":{"id":181102,"statcode":"ZK03","statnaam":"Apeldoorn/Zutphen","jrstatcode":"2013ZK03","rubriek":"zorgkantoorregio","FID":"zorgkantoorregio_gegeneraliseerd_2013.fda7fbbe-5970-4a8a-82f8-001586a23200"},"id":"ZK03"},
{"type":"Feature","geometry":{"type":"Polygon","coordinates":[[[171819,468925],[171304,467205],[168044,466462],[165730,465192],[164980,466738],[161720,465905],[161443,462485],[163521,461041],[161776,456160],[159973,454844],[161638,453487],[164281,454383],[166445,456892],[167030,454476],[166710,451186],[168691,449236],[169075,445895],[171420,442852],[171506,440475],[170040,439431],[173787,437940],[176933,435573],[178275,433261],[185595,431628],[185953,434011],[188339,433459],[188925,431323],[192063,431899],[194976,429702],[196759,432077],[198358,432683],[201581,430983],[204612,429082],[208709,428303],[208724,430610],[207158,431516],[205827,434668],[207937,435471],[212009,431337],[217747,431214],[218318,429354],[221004,429589],[222296,427836],[224074,427670],[225298,430029],[224470,431888],[228277,431280],[229756,430033],[235214,433716],[241053,435843],[243584,437168],[246870,435016],[250135,437318],[251732,439465],[252027,442085],[254052,442725],[253857,445995],[248727,449778],[246049,451021],[244236,450970],[244674,454323],[247430,454898],[248478,456124],[249058,459841],[246025,459728],[242313,460985],[243109,462402],[242851,464948],[241039,465863],[238810,464597],[237333,466698],[234886,466102],[230594,466046],[230027,463788],[230403,461238],[229933,458576],[226043,457025],[222244,459983],[219428,461475],[213132,458722],[211422,456342],[209204,456185],[206577,452813],[201681,455790],[198646,453413],[196355,454715],[193992,454048],[193301,456931],[188991,457695],[187702,459813],[187329,462391],[183925,462666],[182678,467730],[179834,467369],[178166,472771],[175248,472548],[175082,470845],[171819,468925]]]},"properties":{"id":181103,"statcode":"ZK04","statnaam":"Arnhem","jrstatcode":"2013ZK04","rubriek":"zorgkantoorregio","FID":"zorgkantoorregio_gegeneraliseerd_2013.598808cf-86e3-4473-abd7-68eb2cc49d46"},"id":"ZK04"},
{"type":"Feature","geometry":{"type":"Polygon","coordinates":[[[98079,452874],[94442,449656],[92520,449648],[90747,451626],[86970,452128],[85439,449848],[82145,447691],[79985,448454],[78525,450318],[76830,449155],[74390,450174],[73396,452428],[68518,446549],[69826,444404],[72555,442727],[74711,439861],[79702,437540],[81889,439780],[85731,442145],[89089,443553],[90360,442014],[91917,443968],[95465,442019],[97320,443035],[98615,452571],[98079,452874]]]},"properties":{"id":181104,"statcode":"ZK05","statnaam":"Delft/Westland/Oostland","jrstatcode":"2013ZK05","rubriek":"zorgkantoorregio","FID":"zorgkantoorregio_gegeneraliseerd_2013.8c502aa6-f3a3-4196-b9ab-26c3756e5608"},"id":"ZK05"},
{"type":"Feature","geometry":{"type":"Polygon","coordinates":[[[269919,540356],[268516,541104],[266297,544126],[264580,544106],[266539,548929],[264487,549906],[259062,557273],[245396,571145],[242575,571284],[238651,570295],[234859,575866],[233688,575208],[231346,579311],[228283,580244],[223086,577149],[221595,574109],[219134,567129],[217162,567871],[216524,566445],[220729,564947],[220425,561227],[224887,554364],[222656,550003],[218650,547001],[216586,549046],[213462,549304],[210131,545136],[204348,541032],[209941,534357],[206941,530874],[204504,529459],[206949,523172],[208833,521143],[210974,522437],[213384,520738],[218508,519556],[220396,518081],[221998,514840],[227206,514578],[228315,515823],[231622,514660],[231250,518239],[233852,520428],[238010,521438],[244405,518736],[244564,516409],[246689,518397],[249075,519147],[252075,518764],[257178,519277],[260030,517835],[262522,518822],[267004,517415],[267871,519020],[268563,537232],[269919,540356]]]},"properties":{"id":181105,"statcode":"ZK06","statnaam":"Drenthe","jrstatcode":"2013ZK06","rubriek":"zorgkantoorregio","FID":"zorgkantoorregio_gegeneraliseerd_2013.73d690a5-07d6-400a-bbe1-c5afeaa6ef9c"},"id":"ZK06"},
{"type":"Feature","geometry":{"type":"Polygon","coordinates":[[[150223,479513],[154856,475113],[156725,473851],[164497,476174],[166237,481493],[165222,484379],[167036,486646],[170307,486705],[173667,490046],[177774,492130],[179127,491827],[183401,495427],[186418,501092],[186909,503664],[186326,507395],[183681,510190],[179977,510543],[173129,512231],[173706,513981],[185213,513991],[194061,516982],[195244,519170],[191973,521036],[194073,523062],[192527,525435],[191097,529448],[186203,533150],[184118,533133],[182511,535552],[179228,539265],[176959,539030],[173391,537896],[169132,530992],[168821,519298],[170477,518152],[172932,514383],[171333,513117],[166524,511562],[162710,507628],[159746,507339],[158268,504725],[158222,502617],[146242,494190],[147423,492840],[151278,490969],[151743,489775],[149159,488254],[154451,480684],[150223,479513]]]},"properties":{"id":181106,"statcode":"ZK07","statnaam":"Flevoland","jrstatcode":"2013ZK07","rubriek":"zorgkantoorregio","FID":"zorgkantoorregio_gegeneraliseerd_2013.7fbabc39-88d0-460d-85e6-2f5b55c3ff7a"},"id":"ZK07"},
{"type":"Feature","geometry":{"type":"MultiPolygon","coordinates":[[[[208480,603049],[207526,603431],[205014,602173],[202010,602648],[196799,602028],[191310,600327],[187788,600303],[187016,599488],[174613,593140],[168309,590451],[164374,585675],[161366,583772],[159039,581436],[157152,576894],[156151,570542],[154448,569030],[155511,563777],[154364,562973],[155692,559627],[155771,556148],[156718,552941],[155915,550259],[156285,546964],[152749,544328],[153316,542930],[157637,540112],[159456,540868],[165642,538444],[168313,540262],[170566,540404],[172262,541517],[173206,539654],[176959,539030],[179228,539265],[182511,535552],[184159,536762],[185449,535515],[188169,534965],[191190,537499],[191589,538782],[194447,539633],[195389,537353],[198411,536618],[204348,541032],[210131,545136],[213462,549304],[216586,549046],[218650,547001],[222656,550003],[224887,554364],[220425,561227],[220729,564947],[216524,566445],[217162,567871],[213545,570080],[209753,570173],[207769,572325],[207841,575877],[209294,579387],[211293,581562],[210494,584222],[212942,587511],[212752,589387],[214483,591129],[214926,595331],[212700,596078],[211419,595363],[207848,597062],[206052,601063],[206462,602660],[208462,603022],[208480,603049]]],[[[145431,597758],[148762,598234],[156317,602040],[159488,601972],[161204,603579],[165455,605327],[163258,606874],[155669,604403],[142475,601009],[139326,596692],[141959,595610],[143948,597554],[145431,597758]]],[[[181399,608360],[174999,608267],[172825,609310],[171066,608640],[170472,605547],[173686,603818],[177779,606363],[182751,605777],[192313,609261],[181399,608360]]],[[[210731,610783],[212661,610593],[215292,613990],[205329,612858],[203906,608560],[206187,609664],[210731,610783]]],[[[133306,589666],[130949,590262],[126494,587250],[124115,585065],[119364,581949],[120738,580902],[123089,581011],[124649,583461],[127637,585292],[127298,586557],[133306,589666]]]]},"properties":{"id":181107,"statcode":"ZK08","statnaam":"Friesland","jrstatcode":"2013ZK08","rubriek":"zorgkantoorregio","FID":"zorgkantoorregio_gegeneraliseerd_2013.4f5e53b2-c7fb-481c-a0f3-375e11d95933"},"id":"ZK08"},
{"type":"Feature","geometry":{"type":"Polygon","coordinates":[[[269919,540356],[270634,543238],[275614,552003],[277529,559786],[276413,567587],[276562,571156],[274897,573913],[277316,580573],[276185,584841],[268702,586895],[267904,587793],[268141,591461],[263195,592291],[257803,594511],[255521,597703],[254836,602112],[253887,603436],[254288,607206],[249733,609499],[248648,608523],[245171,609718],[240092,608845],[235877,606962],[230019,605208],[221142,603851],[216105,601487],[213079,603422],[208480,603049],[208462,603022],[207731,601398],[210482,598018],[211447,595594],[212388,596194],[213132,596169],[214926,595331],[214483,591129],[212752,589387],[212942,587511],[210494,584222],[211293,581562],[209294,579387],[207841,575877],[207769,572325],[209753,570173],[213545,570080],[217162,567871],[219134,567129],[221595,574109],[223086,577149],[228283,580244],[231346,579311],[233688,575208],[234859,575866],[238651,570295],[242575,571284],[245396,571145],[259062,557273],[264487,549906],[266539,548929],[264580,544106],[266297,544126],[268516,541104],[269919,540356]]]},"properties":{"id":181108,"statcode":"ZK09","statnaam":"Groningen","jrstatcode":"2013ZK09","rubriek":"zorgkantoorregio","FID":"zorgkantoorregio_gegeneraliseerd_2013.0bc08370-7711-4a46-b0a2-7b2ce9748ab1"},"id":"ZK09"},
{"type":"Feature","geometry":{"type":"Polygon","coordinates":[[[98079,452874],[96279,455040],[93545,457014],[91961,460467],[89271,457462],[87469,458660],[90371,462327],[85753,467003],[80796,460516],[77802,457666],[73396,452428],[74390,450174],[76830,449155],[78525,450318],[79985,448454],[82145,447691],[85439,449848],[86970,452128],[90747,451626],[92520,449648],[94442,449656],[98079,452874]]]},"properties":{"id":181109,"statcode":"ZK10","statnaam":"Haaglanden","jrstatcode":"2013ZK10","rubriek":"zorgkantoorregio","FID":"zorgkantoorregio_gegeneraliseerd_2013.8c8bdf71-4b62-437c-a13b-5701cdbd20c5"},"id":"ZK10"},
{"type":"Feature","geometry":{"type":"Polygon","coordinates":[[[102307,509856],[100338,500455],[98446,497233],[98874,495647],[98209,492540],[94103,482630],[98840,480467],[100197,481463],[102117,480905],[103434,483559],[106372,485036],[106666,487928],[110231,488928],[112069,487961],[112168,490054],[110194,490543],[110930,493894],[109014,494482],[106579,496656],[108900,500320],[113955,503717],[113932,507892],[111965,508541],[111130,510345],[108188,510378],[106506,511320],[102307,509856]]]},"properties":{"id":181110,"statcode":"ZK11","statnaam":"Kennemerland","jrstatcode":"2013ZK11","rubriek":"zorgkantoorregio","FID":"zorgkantoorregio_gegeneraliseerd_2013.65ad7eb8-8b34-4c7c-9527-7ca011626873"},"id":"ZK11"},
{"type":"Feature","geometry":{"type":"Polygon","coordinates":[[[137100,416575],[132778,414064],[129970,413672],[126164,414791],[122577,414684],[123596,409870],[123553,406971],[121962,404611],[122189,401121],[118751,399037],[118856,394473],[121958,391342],[126572,392597],[127581,391575],[127289,388295],[129248,387442],[133557,386968],[135167,382240],[141357,382364],[143992,389976],[144424,393567],[147098,395991],[145225,398963],[142996,399651],[141117,401443],[138525,405560],[139753,408939],[143647,409454],[144203,415060],[141761,416857],[137100,416575]]]},"properties":{"id":181111,"statcode":"ZK12","statnaam":"Midden-Brabant","jrstatcode":"2013ZK12","rubriek":"zorgkantoorregio","FID":"zorgkantoorregio_gegeneraliseerd_2013.1caf8509-9957-4dee-bc76-ebbef0e28954"},"id":"ZK12"},
{"type":"Feature","geometry":{"type":"Polygon","coordinates":[[[119970,438964],[118797,442308],[114923,447470],[116749,451428],[119406,452912],[116545,454192],[116509,457803],[114244,459508],[108226,456500],[103878,456844],[103198,454485],[98615,452571],[97320,443035],[99789,442203],[103796,436271],[99196,435259],[102156,433723],[105501,433696],[108788,434373],[112119,436461],[114702,437183],[116842,439055],[119970,438964]]]},"properties":{"id":181112,"statcode":"ZK13","statnaam":"Midden-Holland","jrstatcode":"2013ZK13","rubriek":"zorgkantoorregio","FID":"zorgkantoorregio_gegeneraliseerd_2013.73edc98a-babc-4b27-a5be-fbfb5298be27"},"id":"ZK13"},
{"type":"Feature","geometry":{"type":"Polygon","coordinates":[[[222928,473584],[222458,474714],[219259,477427],[219070,479711],[221056,481583],[219473,485254],[220098,487335],[223170,488462],[224255,492456],[223243,493853],[220052,493484],[216533,494641],[215569,496947],[212691,497880],[206442,498042],[206159,495133],[204118,494995],[204238,491356],[205552,490344],[205142,488417],[202348,487360],[201793,482737],[200369,482195],[199175,478727],[199788,476602],[198792,473595],[200077,470467],[201331,463462],[202153,461974],[207849,463980],[209566,463973],[210024,465884],[207596,468015],[209811,470212],[212441,471632],[217226,471219],[220009,471435],[220820,473063],[222928,473584]]]},"properties":{"id":181113,"statcode":"ZK14","statnaam":"Midden-IJssel","jrstatcode":"2013ZK14","rubriek":"zorgkantoorregio","FID":"zorgkantoorregio_gegeneraliseerd_2013.748c01d1-04a5-421d-82d6-706ad6f33e2c"},"id":"ZK14"},
{"type":"Feature","geometry":{"type":"Polygon","coordinates":[[[85731,442145],[81889,439780],[79702,437540],[74711,439861],[75833,437162],[79343,435022],[82296,434482],[88002,435143],[88262,437328],[85731,442145]]]},"properties":{"id":181114,"statcode":"ZK15","statnaam":"Nieuwe Waterweg Noord","jrstatcode":"2013ZK15","rubriek":"zorgkantoorregio","FID":"zorgkantoorregio_gegeneraliseerd_2013.085d7d6a-2f9d-4aaf-8486-0fbcd213f080"},"id":"ZK15"},
{"type":"Feature","geometry":{"type":"Polygon","coordinates":[[[170040,439431],[166965,440688],[165515,442107],[161784,443942],[158774,444174],[154697,442316],[152324,442141],[151282,440975],[146971,441896],[145334,443242],[143457,441693],[140776,442134],[138648,438367],[136093,433288],[132206,431692],[130481,428115],[130120,425644],[133416,426404],[137603,425097],[140068,425402],[142316,424640],[149305,426154],[151678,424219],[153524,424370],[155926,427674],[157500,425018],[160391,424749],[161800,426761],[165600,425310],[166772,426557],[168900,426808],[172602,425437],[173391,423656],[178782,420426],[179722,418997],[182100,418241],[187100,419061],[189000,418027],[189485,415447],[194273,413528],[194876,407769],[195797,406270],[199595,409905],[199196,413642],[200453,414446],[196926,416796],[194092,417854],[196644,419904],[195827,423389],[193464,426247],[194680,427744],[196291,427074],[199682,428430],[201581,430983],[198358,432683],[196759,432077],[194976,429702],[192063,431899],[188925,431323],[188339,433459],[185953,434011],[185595,431628],[178275,433261],[176933,435573],[173787,437940],[170040,439431]]]},"properties":{"id":181115,"statcode":"ZK16","statnaam":"Nijmegen","jrstatcode":"2013ZK16","rubriek":"zorgkantoorregio","FID":"zorgkantoorregio_gegeneraliseerd_2013.c598581e-8aba-4dce-9600-2c9111ce3fe7"},"id":"ZK16"},
{"type":"Feature","geometry":{"type":"Polygon","coordinates":[[[186273,397594],[187311,390673],[188678,384671],[192875,377429],[188940,373900],[174864,369576],[171662,364949],[171176,360033],[167495,359075],[173121,356759],[173934,355076],[177431,354786],[180059,355627],[182231,354419],[182442,352289],[184908,352282],[187779,350686],[184593,347744],[186262,345655],[183579,344534],[183894,341248],[187352,339740],[189359,338163],[190059,340408],[191871,342057],[193645,338536],[195660,339560],[195856,341400],[197784,344035],[200482,345425],[204330,349746],[209114,351395],[207562,354038],[204886,353720],[202961,355048],[202561,359242],[202865,361693],[206449,365310],[209507,371459],[213448,374907],[211932,379251],[213105,387657],[212255,391923],[209787,394695],[208382,397784],[205882,400683],[203784,402120],[204985,406696],[199595,409905],[195797,406270],[198865,403793],[200199,399528],[199758,396632],[197838,398059],[193023,396215],[186273,397594]]]},"properties":{"id":181116,"statcode":"ZK17","statnaam":"Noord- en Midden-Limburg","jrstatcode":"2013ZK17","rubriek":"zorgkantoorregio","FID":"zorgkantoorregio_gegeneraliseerd_2013.66315895-0594-46c2-ac85-e8cb7a78bf23"},"id":"ZK17"},
{"type":"Feature","geometry":{"type":"MultiPolygon","coordinates":[[[[130106,513943],[130064,515886],[132326,517155],[134797,517263],[137447,514734],[139556,515093],[142212,516582],[144754,518855],[145484,522018],[147052,522225],[149371,524157],[148296,525273],[147939,528336],[146295,529578],[141867,529751],[140886,528142],[138844,528037],[135898,531943],[136590,539847],[131592,549422],[140200,556944],[140141,557012],[131523,549652],[126815,549323],[124861,546507],[122699,545266],[119952,544933],[116594,546997],[114946,550074],[115631,551923],[113338,553340],[110897,553040],[110083,551690],[109053,542769],[107029,535128],[105380,530981],[104493,527026],[104039,522063],[102307,509856],[106506,511320],[108188,510378],[111130,510345],[111965,508541],[113932,507892],[113955,503717],[118034,506345],[119546,509464],[123042,513561],[129097,512298],[130106,513943]]],[[[112127,567772],[110414,564280],[109481,559923],[110266,555469],[114343,557340],[116897,560383],[118744,560900],[122154,565846],[122402,571026],[122905,572194],[120911,574722],[119724,577559],[118474,577520],[112127,567772]]]]},"properties":{"id":181117,"statcode":"ZK18","statnaam":"Noord-Holland Noord","jrstatcode":"2013ZK18","rubriek":"zorgkantoorregio","FID":"zorgkantoorregio_gegeneraliseerd_2013.e4b8e0a1-9d52-4e0d-9f25-6d343d6825f8"},"id":"ZK18"},
{"type":"Feature","geometry":{"type":"Polygon","coordinates":[[[147098,395991],[149534,395227],[154694,394947],[156260,395488],[157542,393898],[161944,394760],[162836,392493],[164655,392670],[166117,394319],[165117,396550],[168670,397106],[171259,396058],[173664,398480],[182678,401110],[183654,398937],[186273,397594],[193023,396215],[197838,398059],[199758,396632],[200199,399528],[198865,403793],[195797,406270],[194876,407769],[194273,413528],[189485,415447],[189000,418027],[187100,419061],[182100,418241],[179722,418997],[178782,420426],[173391,423656],[172602,425437],[168900,426808],[166772,426557],[165600,425310],[161800,426761],[160391,424749],[157500,425018],[155926,427674],[153524,424370],[151678,424219],[149305,426154],[142316,424640],[140068,425402],[137603,425097],[133416,426404],[130120,425644],[128329,425884],[131634,423310],[132702,421599],[134877,422150],[137771,420500],[137100,416575],[141761,416857],[144203,415060],[143647,409454],[139753,408939],[138525,405560],[141117,401443],[142996,399651],[145225,398963],[147098,395991]]]},"properties":{"id":181118,"statcode":"ZK19","statnaam":"Noordoost-Brabant","jrstatcode":"2013ZK19","rubriek":"zorgkantoorregio","FID":"zorgkantoorregio_gegeneraliseerd_2013.8a524692-9cc2-46ce-a078-d9663a297e7a"},"id":"ZK19"},
{"type":"Feature","geometry":{"type":"Polygon","coordinates":[[[99196,435259],[103796,436271],[99789,442203],[97320,443035],[95465,442019],[91917,443968],[90360,442014],[89089,443553],[85731,442145],[88262,437328],[88002,435143],[82296,434482],[79343,435022],[75833,437162],[74711,439861],[72555,442727],[69826,444404],[68518,446549],[66360,444764],[63016,445956],[60110,443205],[60714,441340],[59309,437360],[64009,439029],[67014,439406],[70774,438285],[74667,434817],[75956,432228],[77812,431269],[82564,431162],[83785,429448],[85844,428647],[86669,431995],[91474,430791],[96085,431483],[98644,432529],[99196,435259]]]},"properties":{"id":181119,"statcode":"ZK20","statnaam":"Rotterdam","jrstatcode":"2013ZK20","rubriek":"zorgkantoorregio","FID":"zorgkantoorregio_gegeneraliseerd_2013.498e7916-5302-47ff-85e9-10da9e2c7121"},"id":"ZK20"},
{"type":"Feature","geometry":{"type":"MultiPolygon","coordinates":[[[[130059,479450],[131497,477221],[130383,475183],[132492,471971],[131049,470756],[131674,464249],[137006,465887],[141682,465538],[143899,470803],[149108,470608],[151180,476179],[149789,476230],[148479,478733],[145127,480386],[140443,479573],[137727,482202],[133883,483585],[130397,483334],[129513,482601],[130059,479450]]],[[[146242,494190],[139641,490234],[137390,488358],[137787,483386],[138771,482379],[141912,483192],[146927,481605],[150223,479513],[154451,480684],[149159,488254],[151743,489775],[151278,490969],[147423,492840],[146242,494190]]]]},"properties":{"id":181120,"statcode":"ZK21","statnaam":"'t Gooi","jrstatcode":"2013ZK21","rubriek":"zorgkantoorregio","FID":"zorgkantoorregio_gegeneraliseerd_2013.ef946577-260a-461b-810f-3256bad112ef"},"id":"ZK21"},
{"type":"Feature","geometry":{"type":"Polygon","coordinates":[[[223243,493853],[224255,492456],[223170,488462],[220098,487335],[219473,485254],[221056,481583],[219070,479711],[219259,477427],[222458,474714],[222928,473584],[225295,473178],[226208,471074],[229043,468472],[230594,466046],[234886,466102],[237333,466698],[238810,464597],[241039,465863],[242851,464948],[243109,462402],[242313,460985],[246025,459728],[249058,459841],[255553,460156],[256760,461269],[257284,464135],[259549,466600],[261966,467034],[263911,471492],[269353,473170],[266939,477923],[266830,479482],[269790,486222],[269742,488549],[268522,491661],[267204,491816],[265429,494712],[264182,498738],[260703,495317],[255239,496976],[254709,497894],[249292,497775],[244005,500648],[242058,501573],[240224,498918],[238190,498384],[237456,499775],[230954,500948],[230837,499917],[227056,498001],[225887,495112],[223243,493853]]]},"properties":{"id":181121,"statcode":"ZK22","statnaam":"Twente","jrstatcode":"2013ZK22","rubriek":"zorgkantoorregio","FID":"zorgkantoorregio_gegeneraliseerd_2013.4a747c2a-029f-4087-969b-5a73f4712796"},"id":"ZK22"},
{"type":"Feature","geometry":{"type":"Polygon","coordinates":[[[119970,438964],[122627,439519],[124252,441763],[126194,441295],[128265,443345],[129930,442431],[132130,443182],[134404,440249],[138648,438367],[140776,442134],[143457,441693],[145334,443242],[146971,441896],[151282,440975],[152324,442141],[154697,442316],[158774,444174],[161784,443942],[165515,442107],[166965,440688],[170040,439431],[171506,440475],[171420,442852],[169075,445895],[168691,449236],[166710,451186],[167030,454476],[166445,456892],[164281,454383],[161638,453487],[159973,454844],[161776,456160],[163521,461041],[161443,462485],[161720,465905],[164980,466738],[165730,465192],[168044,466462],[171304,467205],[171819,468925],[166326,468281],[163716,471824],[161584,472374],[161242,474425],[156863,473042],[153614,475421],[151180,476179],[149108,470608],[143899,470803],[141682,465538],[137006,465887],[131674,464249],[131049,470756],[132492,471971],[130383,475183],[131497,477221],[130059,479450],[128409,477975],[125521,476788],[123714,475900],[122481,473956],[119586,473853],[116996,471612],[114509,471127],[115770,468347],[119855,463226],[119902,461306],[117070,461978],[114244,459508],[116509,457803],[116545,454192],[119406,452912],[116749,451428],[114923,447470],[118797,442308],[119970,438964]]]},"properties":{"id":181122,"statcode":"ZK23","statnaam":"Utrecht","jrstatcode":"2013ZK23","rubriek":"zorgkantoorregio","FID":"zorgkantoorregio_gegeneraliseerd_2013.99932e0f-610b-4b51-8b6c-41cedbb38146"},"id":"ZK23"},
{"type":"Feature","geometry":{"type":"Polygon","coordinates":[[[130120,425644],[130481,428115],[132206,431692],[136093,433288],[138648,438367],[134404,440249],[132130,443182],[129930,442431],[128265,443345],[126194,441295],[124252,441763],[122627,439519],[119970,438964],[116842,439055],[114702,437183],[112119,436461],[108788,434373],[105501,433696],[102156,433723],[104030,430099],[98764,429042],[97539,427140],[98423,425231],[102166,423852],[102778,417255],[102237,415016],[103635,414716],[105807,415293],[110081,418742],[111391,421628],[114302,423624],[118250,423695],[120549,425600],[123901,426731],[128329,425884],[130120,425644]]]},"properties":{"id":181123,"statcode":"ZK24","statnaam":"Waardenland","jrstatcode":"2013ZK24","rubriek":"zorgkantoorregio","FID":"zorgkantoorregio_gegeneraliseerd_2013.63bf67af-f456-49b7-8ed9-79badc4e7f79"},"id":"ZK24"},
{"type":"Feature","geometry":{"type":"Polygon","coordinates":[[[128329,425884],[123901,426731],[120549,425600],[118250,423695],[114302,423624],[111391,421628],[110081,418742],[105807,415293],[103635,414716],[99939,412065],[93121,410720],[89254,412513],[86204,410579],[85108,408291],[83226,407087],[75394,405646],[72619,403914],[72108,401624],[74741,397669],[75119,395550],[73890,391299],[77701,382373],[76849,381415],[77733,376905],[81690,377023],[82154,374784],[85156,374391],[88472,376643],[85198,381808],[85315,384954],[89355,387045],[96025,388494],[96707,387475],[95407,384843],[95755,381891],[98502,382953],[102342,382140],[105098,382162],[104904,384152],[106752,384968],[107479,386659],[110939,390274],[112408,390856],[115307,389668],[117119,388107],[115806,384537],[116120,381614],[113233,382773],[113404,380154],[120140,380952],[123037,379055],[128389,384013],[129248,387442],[127289,388295],[127581,391575],[126572,392597],[121958,391342],[118856,394473],[118751,399037],[122189,401121],[121962,404611],[123553,406971],[123596,409870],[122577,414684],[126164,414791],[129970,413672],[132778,414064],[137100,416575],[137771,420500],[134877,422150],[132702,421599],[131634,423310],[128329,425884]]]},"properties":{"id":181124,"statcode":"ZK25","statnaam":"West-Brabant","jrstatcode":"2013ZK25","rubriek":"zorgkantoorregio","FID":"zorgkantoorregio_gegeneraliseerd_2013.292cee6a-294b-4273-8409-bac617886faf"},"id":"ZK25"},
{"type":"Feature","geometry":{"type":"Polygon","coordinates":[[[130106,513943],[129097,512298],[123042,513561],[119546,509464],[118034,506345],[113955,503717],[108900,500320],[106579,496656],[109014,494482],[110930,493894],[118857,492229],[119326,493701],[121775,493077],[123943,491625],[125109,492730],[128673,493142],[133302,492130],[134263,494369],[132031,494673],[132914,497823],[132748,499818],[134528,501828],[130849,508981],[130106,513943]]]},"properties":{"id":181125,"statcode":"ZK26","statnaam":"Zaanstreek/Waterland","jrstatcode":"2013ZK26","rubriek":"zorgkantoorregio","FID":"zorgkantoorregio_gegeneraliseerd_2013.ed4ca140-18b1-4237-b6ee-f1ac4b0c6310"},"id":"ZK26"},
{"type":"Feature","geometry":{"type":"MultiPolygon","coordinates":[[[[75394,405646],[72836,406262],[69915,408733],[67053,407794],[65793,406351],[67691,403436],[64182,403525],[60547,401775],[58170,401349],[57735,400043],[60490,398469],[64146,393787],[70137,393357],[70832,391107],[73508,389875],[74061,383938],[71103,384527],[67786,383230],[65047,384924],[62723,388200],[62301,391318],[59950,393092],[55766,394505],[53700,396044],[49597,395662],[51423,399344],[49337,402355],[45927,403022],[39750,401621],[37036,402366],[37151,404680],[39138,406416],[39862,408760],[40001,410176],[46273,413265],[46936,411686],[50516,409779],[51331,405922],[53983,405445],[56713,403788],[59614,404083],[63879,405672],[65634,407257],[66355,410146],[69949,411130],[69814,411241],[66957,410825],[65500,409619],[62126,411507],[60105,411776],[59600,413610],[57333,416965],[53085,416889],[51424,418348],[47156,417836],[48350,419755],[48110,419992],[46408,418053],[43474,418446],[39602,417671],[36922,414367],[37589,411288],[39838,408850],[39215,407332],[36881,404938],[36708,402611],[32805,401426],[29851,402184],[28110,401642],[19700,396489],[19417,395232],[21379,392795],[23676,391227],[26047,387149],[29010,384892],[33010,385085],[34958,386940],[39089,383254],[41446,381893],[45382,378574],[51532,379470],[53382,383839],[53085,384976],[56893,386872],[59254,384373],[62062,383138],[63936,380686],[69370,379132],[72334,380408],[74578,379053],[75398,376808],[77733,376905],[76849,381415],[77701,382373],[73890,391299],[75119,395550],[74741,397669],[72108,401624],[72619,403914],[75394,405646]],[[49413,395826],[46333,396803],[44367,395890],[41628,396649],[37965,392947],[34740,399408],[37203,397717],[38962,395380],[42171,397510],[45146,396620],[47484,397473],[49413,395826]]],[[[62593,362781],[69897,367879],[74712,373843],[72717,376857],[70906,376394],[70440,373763],[67331,373304],[64369,375798],[61923,376095],[59737,380004],[56783,380664],[55172,376402],[52609,375731],[49082,373029],[47334,372982],[43665,374591],[39127,374661],[36644,377164],[29849,379049],[26874,381158],[24046,381401],[22939,380621],[18318,379744],[14435,377577],[15501,373583],[13565,371491],[14325,368906],[16802,364949],[19522,363163],[25195,363553],[24432,368100],[29741,369895],[33173,367992],[34382,368196],[36854,366563],[41151,365714],[43882,364184],[43380,359733],[48256,359055],[50092,357856],[55186,359468],[57153,361467],[62593,362781]]]]},"properties":{"id":181126,"statcode":"ZK27","statnaam":"Zeeland","jrstatcode":"2013ZK27","rubriek":"zorgkantoorregio","FID":"zorgkantoorregio_gegeneraliseerd_2013.0b21357c-4a76-4990-ab55-05226b37dc11"},"id":"ZK27"},
{"type":"Feature","geometry":{"type":"Polygon","coordinates":[[[114509,471127],[109724,469594],[109708,471780],[106026,471652],[103433,470056],[98242,470457],[99114,475943],[100503,477264],[102117,480905],[100197,481463],[98840,480467],[94103,482630],[90660,475518],[85753,467003],[90371,462327],[87469,458660],[89271,457462],[91961,460467],[93545,457014],[96279,455040],[98079,452874],[98615,452571],[103198,454485],[103878,456844],[108226,456500],[114244,459508],[117070,461978],[119902,461306],[119855,463226],[115770,468347],[114509,471127]]]},"properties":{"id":181127,"statcode":"ZK28","statnaam":"Zuid-Holland Noord","jrstatcode":"2013ZK28","rubriek":"zorgkantoorregio","FID":"zorgkantoorregio_gegeneraliseerd_2013.d9329c66-41cf-4bb4-9c33-990859c1c502"},"id":"ZK28"},
{"type":"Feature","geometry":{"type":"MultiPolygon","coordinates":[[[[99196,435259],[98644,432529],[96085,431483],[91474,430791],[86669,431995],[85844,428647],[83785,429448],[82564,431162],[77812,431269],[75956,432228],[74667,434817],[70774,438285],[67014,439406],[64009,439029],[59309,437360],[62458,438078],[63160,436904],[61669,433693],[64510,429028],[68175,426380],[70148,426704],[71871,424711],[74037,424122],[76405,420308],[83083,417820],[87800,415046],[91543,414424],[95820,412767],[102237,415016],[102778,417255],[102166,423852],[98423,425231],[97539,427140],[98764,429042],[104030,430099],[102156,433723],[99196,435259]]],[[[87005,412675],[81901,413184],[77319,416023],[76094,417873],[72593,421298],[70604,421919],[61823,426987],[59978,429140],[57303,429242],[49477,425890],[49985,423059],[48110,419992],[48350,419755],[50285,422488],[52203,423831],[55837,424840],[58529,424682],[60577,422161],[60475,419082],[62612,414499],[66816,414006],[69884,412637],[69814,411241],[69949,411130],[72147,411148],[75166,408603],[77845,407897],[83699,409619],[84863,412122],[86381,412148],[87005,412675]]]]},"properties":{"id":181128,"statcode":"ZK29","statnaam":"Zuid-Hollandse Eilanden","jrstatcode":"2013ZK29","rubriek":"zorgkantoorregio","FID":"zorgkantoorregio_gegeneraliseerd_2013.01ea3f2e-c53f-417b-a11c-c5d2d67c581f"},"id":"ZK29"},
{"type":"Feature","geometry":{"type":"Polygon","coordinates":[[[135167,382240],[133005,378307],[137200,373093],[137372,369613],[139342,369030],[141969,370396],[144888,368449],[143748,364340],[148645,363577],[151460,363751],[152143,365161],[157109,363663],[158808,365869],[160416,366144],[161682,367881],[163968,367333],[166917,363689],[167495,359075],[171176,360033],[171662,364949],[174864,369576],[188940,373900],[192875,377429],[188678,384671],[187311,390673],[186273,397594],[183654,398937],[182678,401110],[173664,398480],[171259,396058],[168670,397106],[165117,396550],[166117,394319],[164655,392670],[162836,392493],[161944,394760],[157542,393898],[156260,395488],[154694,394947],[149534,395227],[147098,395991],[144424,393567],[143992,389976],[141357,382364],[135167,382240]]]},"properties":{"id":181129,"statcode":"ZK30","statnaam":"Zuidoost-Brabant","jrstatcode":"2013ZK30","rubriek":"zorgkantoorregio","FID":"zorgkantoorregio_gegeneraliseerd_2013.d99e83b0-5f81-4edb-b93a-b163a372febd"},"id":"ZK30"},
{"type":"Feature","geometry":{"type":"Polygon","coordinates":[[[183894,341248],[182470,341550],[181011,338295],[182310,337054],[181599,334295],[178390,330356],[181055,329600],[178817,325772],[176742,323248],[173591,320621],[172725,317568],[173844,314474],[177015,312994],[177109,310630],[175892,308144],[176729,307247],[179838,307518],[182488,310379],[184654,307437],[190205,309021],[192256,306859],[195346,308204],[196649,307347],[199231,307423],[200194,309517],[196454,312176],[199936,313974],[199495,317572],[203375,317641],[204338,320527],[203423,322539],[203865,325987],[199358,327410],[199346,332875],[195659,332405],[194882,333350],[190813,331812],[191383,334854],[189490,336614],[189359,338163],[187352,339740],[183894,341248]]]},"properties":{"id":181130,"statcode":"ZK31","statnaam":"Zuid-Limburg","jrstatcode":"2013ZK31","rubriek":"zorgkantoorregio","FID":"zorgkantoorregio_gegeneraliseerd_2013.df6f8702-2a66-4a39-8f7e-dcf61cb63fa5"},"id":"ZK31"},
{"type":"Feature","geometry":{"type":"Polygon","coordinates":[[[184977,510044],[186835,507244],[187537,503449],[185792,497732],[183784,494248],[177402,488914],[174900,487932],[173103,486343],[170792,485935],[170274,484209],[166858,481127],[165240,476095],[164396,475104],[161242,474425],[161584,472374],[163716,471824],[166326,468281],[171819,468925],[175082,470845],[175248,472548],[178166,472771],[180558,473428],[179712,475646],[186094,475556],[186729,476990],[185940,479700],[188651,483146],[187541,484932],[190706,488900],[194909,491489],[197871,495346],[202965,496572],[204118,494995],[206159,495133],[206442,498042],[212691,497880],[215569,496947],[216533,494641],[220052,493484],[223243,493853],[225887,495112],[227056,498001],[230837,499917],[230954,500948],[237456,499775],[238190,498384],[240224,498918],[242058,501573],[244005,500648],[244461,504519],[242737,508084],[245131,507598],[245821,509224],[248533,509328],[245235,512060],[245758,514996],[244564,516409],[244405,518736],[238010,521438],[233852,520428],[231250,518239],[231622,514660],[228315,515823],[227206,514578],[221998,514840],[220396,518081],[218508,519556],[213384,520738],[210974,522437],[208833,521143],[206949,523172],[204504,529459],[206941,530874],[209941,534357],[204348,541032],[198411,536618],[195389,537353],[194447,539633],[191589,538782],[191190,537499],[188169,534965],[185449,535515],[184159,536762],[182511,535552],[184118,533133],[186203,533150],[191097,529448],[192527,525435],[194073,523062],[191973,521036],[195244,519170],[197906,517285],[195794,515483],[193678,515405],[190927,514032],[189477,514615],[185960,513822],[184865,510164],[184977,510044]]]},"properties":{"id":181131,"statcode":"ZK32","statnaam":"Zwolle","jrstatcode":"2013ZK32","rubriek":"zorgkantoorregio","FID":"zorgkantoorregio_gegeneraliseerd_2013.18534d34-c8a9-4342-b8ed-a86cbe9c25ff"},"id":"ZK32"}
]}