{"type":"Topology","arcs":[[[3554,2493],[85,24],[43,-7],[28,-18],[23,15]],[[3733,2507],[114,-20],[13,-39],[-39,-59],[24,-26],[-4,-32],[14,-70],[-31,-69],[-78,-78],[-11,-26]],[[3735,2088],[-53,35],[-25,0],[31,43],[-30,9],[-36,30]],[[3622,2205],[-44,38],[-122,78]],[[3456,2321],[-20,65],[23,14],[0,48],[67,28],[28,17]],[[3568,2570],[158,-22],[-5,-33],[12,-8]],[[3554,2493],[-3,36],[-22,19],[-41,-8],[-32,8],[-42,-6],[-27,15],[-36,3],[-19,-12],[-70,16],[-24,33],[34,16],[67,0],[82,48],[13,-7],[52,18],[30,-14]],[[3516,2658],[14,-12],[11,-45],[42,-20]],[[3583,2581],[-15,-11]],[[2833,2661],[65,4],[53,-22],[24,12],[148,22],[107,12],[68,18],[89,9],[52,-12],[17,9],[71,-21],[-11,-34]],[[3456,2321],[-76,48],[-43,2],[-60,-15],[-21,30],[-49,22],[-29,38],[-51,8],[-37,-8],[-40,-18],[-27,-30],[-37,-61],[-29,7]],[[2957,2344],[-53,20],[-57,2],[-29,19],[1,24]],[[2819,2409],[23,39],[30,20],[-12,24],[38,29],[-2,18],[25,14],[8,38],[-111,27],[-8,23],[23,20]],[[3141,2787],[-30,-12],[-23,16],[17,13],[36,-17]],[[2393,2297],[-74,30],[-38,-10],[-47,3],[-32,30],[-30,2],[18,35],[-45,1],[-68,15],[-24,-1]],[[2053,2402],[27,58],[45,31],[44,16],[60,44],[95,23],[186,57],[141,20],[85,7],[45,-5],[52,8]],[[2819,2409],[-55,-14],[-28,11],[-81,-2],[-70,-30],[-9,-15],[-52,-2],[-12,-26],[63,-3],[10,-37],[-40,-14],[-36,-3],[-16,15],[-41,-12],[-51,0],[-8,20]],[[1992,2635],[-56,-14],[-68,-5],[-49,-22],[-17,24],[31,25],[33,8],[91,11],[129,23],[67,16],[31,-17],[-76,-20],[-9,-10],[-75,-3],[-32,-16]],[[2526,2703],[-79,-15],[-75,5],[-64,-23],[-52,25],[14,22],[130,-8],[125,8],[1,-14]],[[2526,2704],[0,-1]],[[2526,2703],[0,1]],[[2753,2747],[45,6],[111,1],[-14,-27],[-92,-5],[-50,25]],[[1736,2545],[-124,-30],[13,-17],[-57,-30],[-57,-6],[-12,11],[64,26],[39,22],[76,31],[28,6],[30,-13]],[[2393,2297],[-18,-32],[16,-7],[-62,-26],[0,-44],[-44,-2],[-3,-14],[24,-33],[37,11],[59,-12],[82,15],[41,-14],[-26,-18],[-37,-54]],[[2462,2067],[-25,-10]],[[2437,2057],[-46,33],[-36,-2]],[[2355,2088],[-55,6],[-14,16],[-59,-11],[-41,-16],[-90,22],[-28,-7],[-32,11],[-40,27],[52,24],[-5,29],[11,24],[-13,28],[9,29],[-29,88],[25,14],[7,30]],[[1809,2249],[-1,1]],[[1808,2250],[1,-1]],[[2957,2344],[-10,-13],[63,-14],[-5,-33],[65,-62],[-34,-39],[-51,-22]],[[2985,2161],[-40,14],[-46,3],[-50,-37],[-87,-37]],[[2762,2104],[-89,-39],[-33,2],[-26,25],[-41,-7],[-7,-11],[-47,-23],[-57,16]],[[3622,2205],[-144,-58],[-12,-14],[-72,-19],[-37,4]],[[3357,2118],[-28,7],[-20,34],[-81,10],[-21,25],[-49,10],[-28,-27],[-17,7],[-58,-34],[7,-18],[-60,13],[-17,16]],[[3735,2088],[-21,-28],[-17,-163],[-13,-14],[-66,13],[-38,-8],[-41,13],[-75,-3],[-45,4],[-35,-7],[-32,-17]],[[3352,1878],[-1,21],[-101,24]],[[3250,1923],[-1,40],[-31,11],[97,86],[11,18],[44,26],[-13,14]],[[3250,1923],[-55,-7],[-39,-19],[5,-33],[-85,12],[-51,-14],[-18,31],[-39,16],[-74,11],[-38,16],[-31,-11],[-27,18],[-36,58],[37,12],[45,31],[-82,60]],[[2763,1630],[-10,28],[9,25],[-18,12],[-2,25],[-72,40],[-63,-34],[-40,-2],[-24,32],[-36,12]],[[2507,1768],[-5,24],[-24,33],[8,36]],[[2486,1861],[52,7]],[[2538,1868],[37,-4],[57,11],[27,18],[-33,14]],[[2626,1907],[-50,18],[31,18],[-43,58],[-72,34],[-31,0],[-24,22]],[[3352,1878],[17,-13],[-11,-67],[-18,-62]],[[3340,1736],[-29,9],[-27,-24],[-136,20],[-2,-9],[-53,-14],[-13,-24],[-47,-16]],[[3033,1678],[-57,-4],[-19,9],[-82,-11],[-14,-37],[-29,-10],[-6,-23],[-63,28]],[[2814,1478],[-25,0],[-45,73],[-31,22],[13,49],[37,8]],[[3033,1678],[14,-12],[-17,-36],[-45,-10],[-9,-19],[22,-33],[66,8],[39,-6],[10,-52],[-54,-26]],[[3059,1492],[-66,0],[-12,-15],[-167,1]],[[3403,1368],[-45,-1],[-54,12],[10,36],[-81,17],[-36,-5],[-76,6],[-50,40],[-12,19]],[[3340,1736],[76,-26],[80,0],[8,-9],[80,-16],[52,30],[17,-36],[25,-26],[19,-2],[17,-28],[-46,-81],[2,-14],[33,-43],[-80,-14],[-30,-40],[-43,-5],[-26,-20],[-27,-37],[-94,-1]],[[2814,1478],[19,-50],[-24,-16],[-91,-19],[-24,-20],[-43,-50]],[[2651,1323],[-64,4],[-46,-28],[-49,2],[-37,-28],[-68,-4],[-21,-19],[-10,-33],[-48,-15]],[[2308,1202],[-26,-15],[-34,5]],[[2248,1192],[21,14],[-13,33],[-22,11],[-11,33],[-23,15],[5,29],[-79,-8],[14,60],[-19,36],[-56,5],[15,28],[-44,22],[10,27]],[[2046,1497],[124,17],[32,48],[52,35],[128,51],[64,33],[43,47],[18,40]],[[3403,1368],[-10,-34],[-56,-15],[-7,-30],[65,-12],[74,-34],[2,-30],[-30,-5],[-5,-24],[-24,-19],[-48,-20],[-29,19],[-151,-32],[-69,-29],[-22,11],[-50,5],[1,-43],[-39,9],[-18,15],[-39,-2],[-6,15],[-85,4],[-61,37]],[[2796,1154],[39,36],[-35,18],[3,55],[14,25],[-60,-3],[8,27],[-55,25],[-44,-21],[-15,7]],[[2796,1154],[-29,-7],[20,-28],[22,-8],[0,-21],[-77,11],[-35,1],[-60,-22],[-32,6],[-18,-14],[34,-26],[12,-31],[-38,-18]],[[2595,997],[-38,5],[-21,25],[-29,-21]],[[2507,1006],[-86,-5],[-30,5],[-64,34],[-22,4],[-26,24],[-39,9]],[[2240,1077],[-30,49],[1,25],[138,-9],[-1,15],[-46,22],[6,23]],[[2240,1077],[-41,-1],[-17,-11],[-50,14],[-25,-19],[-26,-1],[-34,12],[-36,-32],[-15,-34],[-59,-19],[-50,-3],[-24,10],[-93,-6]],[[1770,987],[9,35],[-36,14],[-33,-7],[-20,18],[-47,23]],[[1643,1070],[26,-2],[26,52],[60,17],[67,80]],[[1822,1217],[33,-8],[32,18],[73,-23],[30,13],[35,1],[47,14],[57,1],[66,-26],[53,-15]],[[1822,1217],[-32,7],[-14,22],[-31,6],[-35,-8],[-35,-25],[-40,6],[-22,-16],[-27,4],[-32,-22],[-34,-4]],[[1520,1187],[-18,30],[-57,46],[27,36],[-5,57],[-33,15],[40,22],[43,-5],[-1,18],[-61,46],[-18,25]],[[1437,1477],[19,0],[70,26],[27,0],[18,17],[69,19],[24,13]],[[1664,1552],[21,-19],[-15,-16],[46,-52],[60,-1],[11,-17],[-21,-16],[68,-3],[74,104],[40,-5]],[[1948,1527],[57,-9],[41,-21]],[[1662,1862],[-15,-14],[-55,-3],[-24,12]],[[1568,1857],[-37,19],[-26,30],[13,30],[23,21],[-41,16],[-53,-9],[-32,6],[-6,-22],[-35,-5],[-42,40],[-41,23]],[[1291,2006],[27,45],[30,72],[8,59],[17,31],[37,2],[33,-12],[-10,-17],[16,-23],[69,-25],[63,17],[29,25],[86,11],[112,59]],[[1809,2249],[-128,-68],[75,-85],[-10,-71],[51,-34],[38,14],[65,-1],[25,-12],[-3,-50],[-34,-7],[-10,-28],[-75,-32],[-32,1],[-47,16],[-59,-9],[-3,-21]],[[1390,2345],[79,73],[28,15],[53,-48],[-11,-56],[-49,-44],[-29,-6],[-34,-27],[-68,-14],[-8,28],[17,53],[22,26]],[[1568,1857],[-28,-6],[-34,-29],[-71,1],[-15,-39]],[[1420,1784],[-59,18],[-25,-7],[-22,42],[-62,-13]],[[1252,1824],[39,182]],[[1203,1688],[5,30],[27,46],[17,60]],[[1420,1784],[5,-14]],[[1425,1770],[-68,-27],[-40,-38],[48,-22]],[[1365,1683],[-41,-20],[-32,16],[-25,-5],[-64,14]],[[1254,1564],[-48,-5],[-70,19]],[[1136,1578],[61,95],[6,15]],[[1365,1683],[16,-2]],[[1381,1681],[-7,-45],[-54,-9],[-5,-26],[-43,-14],[-18,-23]],[[1425,1770],[42,23],[24,-18],[60,-8],[15,-24],[-18,-13],[-43,-12],[-20,-16],[20,-22],[-7,-13],[-117,14]],[[1437,1477],[-72,-10],[-19,17],[-60,-13]],[[1286,1471],[-41,-6],[-45,4],[10,50],[20,11],[24,34]],[[1662,1862],[11,-44],[55,-64],[-47,-39],[10,-26],[29,-2],[-53,-48],[-64,-25],[66,-26]],[[1669,1588],[-14,-7],[9,-29]],[[1669,1588],[50,2],[57,-13],[27,-21],[72,6],[63,-17],[10,-18]],[[1286,1471],[7,-21],[-19,-20],[-38,0],[-35,-16],[-23,-46],[-5,-39]],[[1173,1329],[-41,18],[-23,31],[-39,-27],[-27,10],[43,34],[-69,42]],[[1017,1437],[52,57],[67,84]],[[840,1303],[106,74],[71,60]],[[1173,1329],[26,-19]],[[1199,1310],[-52,-29],[-28,0]],[[1119,1281],[-27,17],[-44,-20],[-19,10],[-61,-26],[-32,6],[-22,17],[-24,-11],[-36,9],[-14,20]],[[1119,1281],[-18,-30],[-66,-39],[-29,-2],[-71,-40],[-75,21],[-27,23],[-44,16],[-20,20]],[[769,1250],[71,53]],[[1520,1187],[-46,1],[-26,-16],[-62,-17]],[[1386,1155],[1,26],[-48,-2],[-22,11],[12,27],[48,30],[-28,4],[-52,-26],[-38,23],[-60,-15],[8,75],[-8,2]],[[1386,1155],[-75,-16],[-49,-2],[20,-26],[-35,-14],[-28,-39],[-6,-46],[54,-34]],[[1267,978],[-19,-12],[-77,-16],[-122,21],[-3,-23]],[[1046,948],[-10,-5]],[[1036,943],[-21,-1],[-15,-21],[-77,-18],[-48,8],[-44,21],[-32,-1]],[[799,931],[-2,1]],[[797,932],[-33,24],[-52,1],[-47,35],[-3,36],[-30,23],[-41,1],[-52,-9],[-55,-37]],[[484,1006],[-3,1]],[[481,1007],[26,29],[-8,25],[25,11],[126,24],[37,-18],[23,20],[-40,38],[25,31],[-47,0],[-14,12],[25,23],[0,24],[55,2],[55,22]],[[921,1053],[-34,-18],[-63,19],[-26,17],[-28,-3],[-54,24],[-29,-14],[18,-15],[98,-34],[29,-6],[77,-49],[63,-22],[56,-1],[18,21],[-87,29],[-68,14],[-11,14],[41,24]],[[1643,1070],[-89,5],[-66,-27],[-24,0]],[[1464,1048],[-25,1],[-47,-18],[-13,-22],[-42,-23],[-70,-8]],[[648,491],[-48,-26],[-72,-16],[-27,11],[-69,5],[5,40],[-39,13],[-62,7],[-103,28],[-76,-17],[13,-41],[-81,-4],[-59,31],[-10,30],[-20,12],[27,19],[-17,35],[13,9],[107,21],[55,7],[43,-19],[101,-16],[36,-21],[66,0],[18,-11],[60,-3],[8,10],[72,21],[26,39],[45,-5],[33,-35],[35,-2],[47,-22],[23,5],[34,30],[45,-29],[-67,-54],[-110,-51],[-52,-1]],[[868,743],[7,-8]],[[875,735],[0,-28],[26,-9]],[[901,698],[21,-73]],[[922,625],[-36,-1],[-12,20],[-32,11],[-45,-11],[-93,19],[-15,12],[-72,36],[-54,-17],[5,-10],[-26,-40],[-88,-9],[-92,41],[-59,32],[-20,-15],[-71,-4],[-40,20],[-33,34],[-49,21],[-9,28],[136,52],[51,-8],[54,12],[42,-7],[91,13],[49,-5],[30,-28],[1,-14],[64,-27],[48,-9],[38,-20],[12,-20],[39,-36],[39,-14],[49,12],[41,-5],[-9,53],[-37,10],[-13,21],[-90,4],[-50,40],[-40,14],[79,31],[64,1],[-26,30],[35,10],[57,-18],[44,-1]],[[879,883],[-39,-16],[-7,-21],[39,-35],[-5,-38]],[[867,773],[-18,-17],[19,-13]],[[484,1006],[13,-19],[32,6],[25,-13],[59,3],[36,-31],[8,-16],[29,-2],[50,-17],[15,10],[46,5]],[[799,931],[-52,-9],[-9,-26],[-25,-15],[-61,-14],[-42,-4],[-22,12],[-56,6],[-13,35],[-53,17],[-10,14],[-96,-32],[-28,12],[-10,27],[24,24],[65,14],[51,-3],[19,18]],[[1402,751],[-67,-50],[-27,-8],[4,-18],[-95,7],[-40,-10],[-5,27],[8,32],[-96,-13],[-57,-20],[-1,-28],[48,-46],[-47,-21],[-44,4],[-6,20],[-55,-2]],[[901,698],[21,21],[-47,16]],[[868,743],[-1,30]],[[879,883],[113,14],[75,49],[68,-14],[109,14],[25,12],[113,14],[78,-14],[19,4]],[[1479,962],[81,7],[15,-43],[0,-26],[-23,-21],[4,-32],[-45,-17],[-2,-22],[-36,-9],[-84,-35],[13,-13]],[[1488,1006],[1,-29]],[[1489,977],[-10,-13],[-43,1],[-39,11],[44,28],[47,2]],[[1046,948],[-10,-5]],[[1479,962],[10,15]],[[1488,1006],[-60,0],[-30,19],[16,14],[50,9]],[[1770,987],[-46,-16],[25,-11],[-5,-39],[4,-36],[43,3],[26,-29],[39,-24],[32,-7],[27,-26]],[[1915,802],[-29,-27],[-53,-96],[-89,-1]],[[1744,678],[-23,42],[-68,1],[-6,-27],[-76,-49],[-43,21],[-97,-8],[-3,23],[43,-8],[-6,25],[19,32],[-27,14],[-55,7]],[[2507,1006],[20,-29],[70,-19],[10,-56],[54,-30],[29,-64],[-44,11],[-69,-16],[-97,12]],[[2480,815],[-37,12],[-14,20],[-87,-14],[-48,-2],[-30,-29],[-38,10],[-51,-5],[15,-20],[-23,-16],[-25,-1],[-13,21],[-63,-8],[-41,9],[-75,3],[-35,7]],[[2480,815],[15,-62],[19,-54],[59,-65],[-57,-32],[-34,-6]],[[2482,596],[-168,-32],[-46,-42],[-7,-44],[-53,-8]],[[2208,470],[-10,46],[-40,28],[-31,5],[-43,-18],[-25,-20],[-71,14],[-10,-13],[-40,-1],[-70,7],[15,37],[-41,17],[-37,-13],[-29,5],[-2,32],[-61,46],[31,36]],[[2595,997],[41,-10],[32,-29],[11,-36],[72,-26],[-18,-41],[66,-40],[20,-27],[35,-26],[12,-38],[-19,-75],[21,-40],[-57,-27],[-44,-58],[-52,-32]],[[2715,492],[-47,4],[-21,11],[4,19],[-54,23],[-47,13],[-56,8],[-12,26]],[[2715,492],[0,-60],[28,-12],[38,2],[24,-20],[-71,-18],[-55,-38],[-39,-13],[-30,-39],[-30,-10],[-25,32]],[[2555,316],[-80,29],[-18,-1]],[[2457,344],[-7,19],[48,31],[-31,23],[-47,-17],[-1,28],[-31,11],[-35,-8],[-53,3],[-13,15],[-79,21]],[[2555,316],[-26,-15],[-8,-34],[27,-16],[-9,-27],[58,13],[11,-8],[53,4],[-1,-49],[64,-13],[-7,-32],[13,-18],[-14,-25],[-55,-1],[6,-32],[-21,-13],[24,-27],[-14,-19],[-56,7],[-57,-11],[-15,19],[-34,-13],[-45,-1],[-30,26],[-38,-25],[-56,5],[18,21],[-9,29],[-36,12],[-17,24],[5,23],[38,16],[16,23],[30,14],[30,31],[-37,8],[45,35],[10,24],[-16,9],[13,31],[18,-3],[24,36]],[[2626,1907],[-20,-18],[-131,-26],[-169,0],[-10,-15],[102,-16],[58,-5],[38,-26],[5,-31],[-8,-25],[-54,-57],[-48,-24],[-25,2],[-60,-18],[-52,-31],[-46,0],[-27,-19],[16,-28],[-24,-45],[-116,-22],[-96,51],[-38,15],[-93,17],[-50,1],[-7,46],[33,16],[96,36],[177,76],[0,18],[29,23],[35,3],[59,37],[70,13],[24,12],[-36,34],[-23,10],[2,102],[64,64],[54,11]],[[2486,1861],[52,7]]],"transform":{"scale":[0.001,0.0009996433666191172],"translate":[3.358,50.751]},"objects":{"coropgebied_1997":{"type":"GeometryCollection","geometries":[{"arcs":[[0,1,2,3,4]],"type":"Polygon","properties":{"id":281170,"statcode":"CR01","statnaam":"Oost-Groningen","jrstatcode":"1997CR01","rubriek":"coropgebied","FID":"coropgebied_gegeneraliseerd_1997.8a58729f-b8fc-493e-9bea-cbe02961d09b"},"id":"CR01"},{"arcs":[[5,-1,6,7,8]],"type":"Polygon","properties":{"id":281171,"statcode":"CR02","statnaam":"Delfzijl en omgeving","jrstatcode":"1997CR02","rubriek":"coropgebied","FID":"coropgebied_gegeneraliseerd_1997.c789ad5d-319a-4519-8331-5ccad738c00c"},"id":"CR02"},{"arcs":[[[9,-7,-5,10,11,12]],[[13]]],"type":"MultiPolygon","properties":{"id":281172,"statcode":"CR03","statnaam":"Overig Groningen","jrstatcode":"1997CR03","rubriek":"coropgebied","FID":"coropgebied_gegeneraliseerd_1997.8b6c7ce5-e8b7-4db9-acf2-c7e26ff6604d"},"id":"CR03"},{"arcs":[[[14,15,-13,16]],[[17]],[[18]],[[21]],[[22]]],"type":"MultiPolygon","properties":{"id":281173,"statcode":"CR04","statnaam":"Noord-Friesland","jrstatcode":"1997CR04","rubriek":"coropgebied","FID":"coropgebied_gegeneraliseerd_1997.0bf94fe4-d4d6-419a-b858-f1f06a902c9d"},"id":"CR04"},{"arcs":[[23,24,25,26,-15]],"type":"Polygon","properties":{"id":281174,"statcode":"CR05","statnaam":"Zuidwest-Friesland","jrstatcode":"1997CR05","rubriek":"coropgebied","FID":"coropgebied_gegeneraliseerd_1997.fd7e078d-d232-4764-aaab-d55ad27e793e"},"id":"CR05"},{"arcs":[[29,30,31,-24,-17,-12]],"type":"Polygon","properties":{"id":281175,"statcode":"CR06","statnaam":"Zuidoost-Friesland","jrstatcode":"1997CR06","rubriek":"coropgebied","FID":"coropgebied_gegeneraliseerd_1997.81f50047-cabc-4079-b19a-023ce76eac41"},"id":"CR06"},{"arcs":[[-4,32,33,-30,-11]],"type":"Polygon","properties":{"id":281176,"statcode":"CR07","statnaam":"Noord-Drenthe","jrstatcode":"1997CR07","rubriek":"coropgebied","FID":"coropgebied_gegeneraliseerd_1997.ffc560ca-4c89-4ee5-9612-a3b81c222387"},"id":"CR07"},{"arcs":[[-33,-3,34,35,36]],"type":"Polygon","properties":{"id":281177,"statcode":"CR08","statnaam":"Zuidoost-Drenthe","jrstatcode":"1997CR08","rubriek":"coropgebied","FID":"coropgebied_gegeneraliseerd_1997.398eb051-aceb-4af3-8378-8574ffce609c"},"id":"CR08"},{"arcs":[[-31,-34,-37,37]],"type":"Polygon","properties":{"id":281178,"statcode":"CR09","statnaam":"Zuidwest-Drenthe","jrstatcode":"1997CR09","rubriek":"coropgebied","FID":"coropgebied_gegeneraliseerd_1997.54a0bf12-f08d-42f5-b6e4-ce9b9441b308"},"id":"CR09"},{"arcs":[[38,39,40,41,42,-25,-32,-38,-36,43,44,45]],"type":"Polygon","properties":{"id":281179,"statcode":"CR10","statnaam":"Noord-Overijssel","jrstatcode":"1997CR10","rubriek":"coropgebied","FID":"coropgebied_gegeneraliseerd_1997.4a647f72-67e0-47c7-8ad5-fb2880252a67"},"id":"CR10"},{"arcs":[[46,-46,47,48]],"type":"Polygon","properties":{"id":281180,"statcode":"CR11","statnaam":"Zuidwest-Overijssel","jrstatcode":"1997CR11","rubriek":"coropgebied","FID":"coropgebied_gegeneraliseerd_1997.2445bf7f-d435-4591-90d6-b62a3f1326a5"},"id":"CR11"},{"arcs":[[49,-48,-45,50]],"type":"Polygon","properties":{"id":281181,"statcode":"CR12","statnaam":"Twente","jrstatcode":"1997CR12","rubriek":"coropgebied","FID":"coropgebied_gegeneraliseerd_1997.66dd65c0-587b-40a4-b3ac-24228515995c"},"id":"CR12"},{"arcs":[[-47,51,52,53,54,55,-39]],"type":"Polygon","properties":{"id":281182,"statcode":"CR13","statnaam":"Veluwe","jrstatcode":"1997CR13","rubriek":"coropgebied","FID":"coropgebied_gegeneraliseerd_1997.033fab2a-16cb-4be9-9303-4915df86de04"},"id":"CR13"},{"arcs":[[56,57,-52,-49,-50]],"type":"Polygon","properties":{"id":281183,"statcode":"CR14","statnaam":"Achterhoek","jrstatcode":"1997CR14","rubriek":"coropgebied","FID":"coropgebied_gegeneraliseerd_1997.5ca76d9f-3e90-4c52-971d-4bdb800cf9db"},"id":"CR14"},{"arcs":[[-58,58,59,60,61,-53]],"type":"Polygon","properties":{"id":281184,"statcode":"CR15","statnaam":"Arnhem/Nijmegen","jrstatcode":"1997CR15","rubriek":"coropgebied","FID":"coropgebied_gegeneraliseerd_1997.17ed05dc-6df9-49c2-b8f4-f1a5798be4ea"},"id":"CR15"},{"arcs":[[-54,-62,62,63,64,65]],"type":"Polygon","properties":{"id":281185,"statcode":"CR16","statnaam":"Zuidwest-Gelderland","jrstatcode":"1997CR16","rubriek":"coropgebied","FID":"coropgebied_gegeneraliseerd_1997.a90bab8b-1c45-45fc-827e-78a9eb013484"},"id":"CR16"},{"arcs":[[-55,-66,66,67,68,69,70]],"type":"Polygon","properties":{"id":281186,"statcode":"CR17","statnaam":"Utrecht","jrstatcode":"1997CR17","rubriek":"coropgebied","FID":"coropgebied_gegeneraliseerd_1997.9491ffb1-77b4-4554-b564-e371d6b84f84"},"id":"CR17"},{"arcs":[[[71,72,73,-28,74]],[[75]]],"type":"MultiPolygon","properties":{"id":281187,"statcode":"CR18","statnaam":"Kop van Noord-Holland","jrstatcode":"1997CR18","rubriek":"coropgebied","FID":"coropgebied_gegeneraliseerd_1997.8c151332-46c0-4659-a55a-242a7dda7717"},"id":"CR18"},{"arcs":[[-73,76,77,78]],"type":"Polygon","properties":{"id":281188,"statcode":"CR19","statnaam":"Alkmaar en omgeving","jrstatcode":"1997CR19","rubriek":"coropgebied","FID":"coropgebied_gegeneraliseerd_1997.f34cf92e-4027-4e5e-b148-ba48c9134631"},"id":"CR19"},{"arcs":[[79,-78,80,81,82]],"type":"Polygon","properties":{"id":281189,"statcode":"CR20","statnaam":"IJmond","jrstatcode":"1997CR20","rubriek":"coropgebied","FID":"coropgebied_gegeneraliseerd_1997.0a593710-8063-4f62-94c6-78cd92c37d06"},"id":"CR20"},{"arcs":[[83,84,-83,85,86]],"type":"Polygon","properties":{"id":281190,"statcode":"CR21","statnaam":"Agglomeratie Haarlem","jrstatcode":"1997CR21","rubriek":"coropgebied","FID":"coropgebied_gegeneraliseerd_1997.b4b3de11-96a5-4a38-93c2-6ce3b730c461"},"id":"CR21"},{"arcs":[[-86,-82,87]],"type":"Polygon","properties":{"id":281191,"statcode":"CR22","statnaam":"Zaanstreek","jrstatcode":"1997CR22","rubriek":"coropgebied","FID":"coropgebied_gegeneraliseerd_1997.ab3416ff-ef18-4a51-9940-11f0c0cab492"},"id":"CR22"},{"arcs":[[88,89,-87,-88,-81,-77,-72,90,91,-69]],"type":"Polygon","properties":{"id":281192,"statcode":"CR23","statnaam":"Groot-Amsterdam","jrstatcode":"1997CR23","rubriek":"coropgebied","FID":"coropgebied_gegeneraliseerd_1997.6a67130c-d24e-4048-9e57-52cc1b69511d"},"id":"CR23"},{"arcs":[[-92,92,-70]],"type":"Polygon","properties":{"id":281193,"statcode":"CR24","statnaam":"Het Gooi en Vechtstreek","jrstatcode":"1997CR24","rubriek":"coropgebied","FID":"coropgebied_gegeneraliseerd_1997.b7a92c1d-a00c-4a6b-a795-603bace56e61"},"id":"CR24"},{"arcs":[[-90,93,94,95,-84]],"type":"Polygon","properties":{"id":281194,"statcode":"CR25","statnaam":"Agglomeratie Leiden en Bollenstre","jrstatcode":"1997CR25","rubriek":"coropgebied","FID":"coropgebied_gegeneraliseerd_1997.df3958df-1da0-4b16-ac5c-ce527d9b696e"},"id":"CR25"},{"arcs":[[96,-95,97,98,99]],"type":"Polygon","properties":{"id":281195,"statcode":"CR26","statnaam":"Agglomeratie 's-Gravenhage","jrstatcode":"1997CR26","rubriek":"coropgebied","FID":"coropgebied_gegeneraliseerd_1997.66a4d282-252b-4213-88f4-df33bf46cded"},"id":"CR26"},{"arcs":[[100,101,-100]],"type":"Polygon","properties":{"id":281196,"statcode":"CR27","statnaam":"Delft en Westland","jrstatcode":"1997CR27","rubriek":"coropgebied","FID":"coropgebied_gegeneraliseerd_1997.edd874c2-61a7-42b1-ac11-6a3d6fc33b3b"},"id":"CR27"},{"arcs":[[102,103,-98,-94,-89,-68]],"type":"Polygon","properties":{"id":281197,"statcode":"CR28","statnaam":"Oost-Zuid-Holland","jrstatcode":"1997CR28","rubriek":"coropgebied","FID":"coropgebied_gegeneraliseerd_1997.160e365c-f61d-4633-9d2a-b4e42cd839d0"},"id":"CR28"},{"arcs":[[-99,-104,104,105,106,107,108,109,110,111,-101],[112]],"type":"Polygon","properties":{"id":281198,"statcode":"CR29","statnaam":"Groot-Rijnmond","jrstatcode":"1997CR29","rubriek":"coropgebied","FID":"coropgebied_gegeneraliseerd_1997.2e875e1e-a919-4ff1-87c3-75db910f7aad"},"id":"CR29"},{"arcs":[[113,114,-105,-103,-67,-65]],"type":"Polygon","properties":{"id":281199,"statcode":"CR30","statnaam":"Zuidoost-Zuid-Holland","jrstatcode":"1997CR30","rubriek":"coropgebied","FID":"coropgebied_gegeneraliseerd_1997.dcf9ee01-6f55-43be-bc5d-d9c9ea002369"},"id":"CR30"},{"arcs":[[115]],"type":"Polygon","properties":{"id":281200,"statcode":"CR31","statnaam":"Zeeuwsch-Vlaanderen","jrstatcode":"1997CR31","rubriek":"coropgebied","FID":"coropgebied_gegeneraliseerd_1997.22004e58-f313-4afa-8011-ee79a99f59ec"},"id":"CR31"},{"arcs":[[[116,117,118,119,120,121]],[[-111,122,-109,123]]],"type":"MultiPolygon","properties":{"id":281201,"statcode":"CR32","statnaam":"Overig Zeeland","jrstatcode":"1997CR32","rubriek":"coropgebied","FID":"coropgebied_gegeneraliseerd_1997.68b7cb72-554a-4746-b8b4-908b93ef733a"},"id":"CR32"},{"arcs":[[[124,-119,125,-117,126,-121,127,128]],[[129,130]]],"type":"MultiPolygon","properties":{"id":281202,"statcode":"CR33","statnaam":"West-Noord-Brabant","jrstatcode":"1997CR33","rubriek":"coropgebied","FID":"coropgebied_gegeneraliseerd_1997.da625344-d53f-4d84-b848-1ecb3b998c15"},"id":"CR33"},{"arcs":[[-129,132,-130,133,-114,-64,134,135,136]],"type":"Polygon","properties":{"id":281203,"statcode":"CR34","statnaam":"Midden-Noord-Brabant","jrstatcode":"1997CR34","rubriek":"coropgebied","FID":"coropgebied_gegeneraliseerd_1997.81a39671-157c-4df5-9c3d-fcda040e2e9b"},"id":"CR34"},{"arcs":[[137,138,-135,-63,-61]],"type":"Polygon","properties":{"id":281204,"statcode":"CR35","statnaam":"Noordoost-Noord-Brabant","jrstatcode":"1997CR35","rubriek":"coropgebied","FID":"coropgebied_gegeneraliseerd_1997.e676d637-5101-4abf-9fc2-f8d93754fb0a"},"id":"CR35"},{"arcs":[[139,140,141,-136,-139]],"type":"Polygon","properties":{"id":281205,"statcode":"CR36","statnaam":"Zuidoost-Noord-Brabant","jrstatcode":"1997CR36","rubriek":"coropgebied","FID":"coropgebied_gegeneraliseerd_1997.3aa07399-ff85-4304-9c43-8b4c5ed9044d"},"id":"CR36"},{"arcs":[[-138,-60,142,143,-140]],"type":"Polygon","properties":{"id":281206,"statcode":"CR37","statnaam":"Noord-Limburg","jrstatcode":"1997CR37","rubriek":"coropgebied","FID":"coropgebied_gegeneraliseerd_1997.dd5e7eff-63a6-4cc4-8e80-b01ab468646e"},"id":"CR37"},{"arcs":[[-141,-144,144,145,146]],"type":"Polygon","properties":{"id":281207,"statcode":"CR38","statnaam":"Midden-Limburg","jrstatcode":"1997CR38","rubriek":"coropgebied","FID":"coropgebied_gegeneraliseerd_1997.f2114c42-650e-499c-8f45-11a9fccd3aaa"},"id":"CR38"},{"arcs":[[-146,147]],"type":"Polygon","properties":{"id":281208,"statcode":"CR39","statnaam":"Zuid-Limburg","jrstatcode":"1997CR39","rubriek":"coropgebied","FID":"coropgebied_gegeneraliseerd_1997.4147d34d-ab15-46cb-9fee-222999793cab"},"id":"CR39"},{"arcs":[[-26,-43,148]],"type":"Polygon","properties":{"id":281209,"statcode":"CR40","statnaam":"Flevoland","jrstatcode":"1997CR40","rubriek":"coropgebied","FID":"coropgebied_gegeneraliseerd_1997.d6af651f-a84d-4428-9e34-6a3ae04c52c7"},"id":"CR40"}]}}}