{"type":"Topology","arcs":[[[3456,2321],[-20,65],[23,14],[0,48],[67,28],[28,17]],[[3554,2493],[85,24],[43,-7],[28,-18],[23,15]],[[3733,2507],[114,-20],[13,-39],[-39,-59],[24,-26],[-4,-32],[14,-70],[-31,-69],[-78,-78],[-11,-26]],[[3735,2088],[-21,7],[-32,28],[-25,0],[31,43],[-31,9],[-79,68]],[[3578,2243],[-122,78]],[[3516,2658],[14,-12],[9,-40],[45,-32],[84,-21],[60,-5],[-7,-33],[12,-8]],[[3554,2493],[-3,36],[-22,19],[-41,-8],[-32,8],[-42,-6],[-27,15],[-36,3],[-19,-12],[-70,16],[-24,33],[34,16],[67,0],[82,48],[13,-7],[52,18],[30,-14]],[[3456,2321],[-76,48],[-43,2],[-60,-15],[-21,30],[-49,22],[-35,37],[-45,9],[-37,-8],[-40,-18],[-27,-30],[-37,-61],[-29,7]],[[2957,2344],[-53,20],[-57,2],[-29,19],[1,24]],[[2819,2409],[23,39],[30,20],[-12,24],[38,29],[-2,18],[25,14],[8,38],[-111,27],[-8,23],[23,20]],[[2833,2661],[65,4],[50,-22],[76,24],[134,11],[73,11],[66,18],[88,9],[56,-11],[14,8],[69,-23],[-8,-32]],[[2994,2752],[0,9]],[[2994,2761],[0,-9]],[[2819,2409],[-58,-10],[-25,7],[-81,-2],[-70,-30],[-9,-15],[-52,-2],[-12,-26],[63,-3],[14,-15],[-4,-22],[-40,-14],[-36,-3],[-16,15],[-41,-12],[-51,0],[-8,20]],[[2393,2297],[-74,30],[-38,-10],[-47,3],[-32,30],[-30,2],[18,35],[-45,1],[-68,15],[-23,-1]],[[2054,2402],[17,45],[19,23],[35,20],[44,17],[60,44],[95,23],[186,57],[61,6],[95,17],[70,4],[45,-5],[52,8]],[[2106,2675],[-10,-21],[-56,0],[-41,-16],[-63,-17],[-37,2],[-36,-9],[-39,-19],[-30,9],[42,40],[171,26],[123,26],[43,4],[11,-17],[-56,-2]],[[2128,2681],[-22,-6]],[[2287,2718],[48,-8],[92,1],[164,7],[-5,-12],[-139,-18],[-75,5],[-61,-22],[-56,20],[10,21],[22,6]],[[2994,2752],[-32,-2],[-60,-20],[-125,-12],[-5,11],[23,22],[106,4],[93,6]],[[1704,2543],[-90,-28],[13,-15],[-75,-36],[-56,9],[180,78],[28,-8]],[[2034,2305],[-13,53],[25,14],[8,30]],[[2393,2297],[-18,-32],[16,-7],[-62,-26],[0,-44],[-44,-2],[-3,-14],[24,-33],[37,11],[59,-12],[82,15],[41,-14],[-26,-18],[-37,-54]],[[2462,2067],[-25,-10]],[[2437,2057],[-46,33],[-36,-2]],[[2355,2088],[-56,6],[-13,16],[-59,-11],[-40,-16],[-66,18],[-64,-1],[-61,36],[52,24],[-5,29],[10,29],[-12,23],[9,30],[-16,34]],[[1809,2249],[-1,1]],[[1808,2250],[1,-1]],[[2762,2104],[-89,-39],[-45,7],[-14,20],[-41,-7],[-7,-11],[-45,-23],[-40,5],[-19,11]],[[2957,2344],[-10,-13],[63,-14],[-5,-33],[65,-62],[-34,-39],[-25,-11]],[[3011,2172],[-36,-16],[-30,19],[-46,3],[-50,-37],[-87,-37]],[[3578,2243],[-97,-15],[-50,-15],[-61,-8],[-1,-40],[9,-36],[-8,-25],[-53,-57],[-14,4],[-74,-65]],[[3229,1986],[-29,9],[8,21],[-53,-4],[-22,9],[1,22],[-37,8],[25,36],[-19,16],[-30,-3],[-11,32],[-60,13],[9,27]],[[3352,1878],[-1,21],[-80,21]],[[3271,1920],[1,43],[-34,0],[-9,23]],[[3735,2088],[-21,-28],[-17,-163],[-13,-14],[-66,13],[-38,-8],[-41,13],[-75,-3],[-45,4],[-35,-7],[-32,-17]],[[3271,1920],[-14,4],[-62,-8],[-39,-19],[5,-33],[-87,14],[-46,-15],[-21,30],[-39,16],[-74,11],[-50,15],[-38,-5],[-43,70],[36,13],[45,31],[-82,60]],[[3033,1678],[-57,-3],[-42,10],[-14,22],[-41,9],[-93,2],[-4,-26],[-30,-1]],[[2752,1691],[-10,29],[-72,40],[-21,-6],[-42,-28],[-40,-2],[-42,45],[-17,0]],[[2508,1769],[-11,25]],[[2497,1794],[0,1]],[[2497,1795],[-28,42],[17,24]],[[2486,1861],[52,7]],[[2538,1868],[22,-5],[40,12],[32,0],[31,16],[-37,16]],[[2626,1907],[-50,18],[31,19],[-22,21],[-21,36],[-72,34],[-31,0],[-24,22]],[[3352,1878],[17,-13],[-8,-26],[48,-25],[-41,-2],[-10,-14],[-35,5],[24,-32],[-7,-35]],[[3340,1736],[-29,9],[-27,-24],[-136,20],[-2,-9],[-53,-14],[-13,-24],[-47,-16]],[[3033,1678],[14,-12],[-17,-36],[-45,-10],[-9,-19],[22,-33],[-29,-16],[2,-21],[42,-21],[11,-14]],[[3024,1496],[-31,-4],[-12,-15],[-41,-1],[-132,5]],[[2808,1481],[-42,21],[6,9],[-28,40],[-31,22],[13,49],[31,5],[12,23],[-16,8],[-1,33]],[[3403,1368],[-45,-1],[-54,12],[10,36],[-27,9],[-39,-1],[-15,9],[-36,-5],[-76,6],[-50,40],[-12,19],[-35,4]],[[3340,1736],[77,-26],[79,0],[8,-9],[80,-16],[52,30],[17,-36],[25,-26],[19,-2],[17,-28],[-15,-35],[-31,-46],[2,-14],[33,-43],[-80,-14],[-30,-40],[-40,-4],[-29,-21],[-9,-27],[-18,-10],[-94,-1]],[[2467,1701],[15,15],[26,53]],[[2808,1481],[19,-26],[-29,-11],[35,-16],[-24,-16],[-91,-19],[-24,-20],[-43,-50]],[[2651,1323],[-64,4],[-46,-28],[-49,2],[-37,-28],[-68,-4],[-21,-19],[-10,-33],[-48,-15]],[[2308,1202],[-26,-15],[-34,5]],[[2248,1192],[21,14],[-13,33],[-22,11],[-5,30],[-29,18],[5,29],[-24,20],[-16,-20],[-39,-8],[14,60],[-25,35],[-33,7],[-1,31],[-46,19],[11,26]],[[2046,1497],[124,17],[32,48],[52,35],[0,18]],[[2254,1615],[1,0]],[[2255,1615],[40,0],[85,32],[72,38],[15,16]],[[3403,1368],[-10,-34],[-16,-10],[-40,-5],[-7,-30],[65,-12],[74,-34],[2,-30],[-30,-5],[-5,-24],[-24,-19],[-48,-20],[-29,19],[-151,-32],[-69,-29],[-22,11],[-50,5],[1,-43],[-39,9],[-18,15],[-39,-2],[-6,15],[-85,4],[-61,37]],[[2796,1154],[39,36],[-35,18],[3,55],[14,25],[-60,-3],[8,27],[-20,15],[-35,10],[-44,-21],[-15,7]],[[2796,1154],[-29,-7],[20,-28],[22,-8],[0,-21],[-77,11],[-35,1],[-60,-22],[-32,6],[-18,-14],[34,-26],[12,-31],[-38,-18]],[[2595,997],[-38,5],[-21,25],[-29,-21]],[[2507,1006],[-96,-5],[-24,7],[-60,32],[-22,4],[-26,24],[-39,9]],[[2240,1077],[-30,49],[1,25],[138,-9],[-1,15],[-46,22],[6,23]],[[1770,987],[9,35],[-36,14],[-33,-7],[-20,18],[-47,23]],[[1643,1070],[26,-2],[4,22],[22,30],[60,17],[36,45]],[[1791,1182],[31,35],[33,-7],[32,17],[25,-12],[48,-11],[30,13],[35,1],[47,14],[57,1],[66,-26],[53,-15]],[[2240,1077],[-41,-1],[-17,-11],[-50,14],[-25,-19],[-26,-1],[-34,12],[-36,-32],[-15,-34],[-59,-19],[-50,-3],[-24,10],[-93,-6]],[[1791,1182],[-61,17],[-34,27],[-33,-7],[-28,6],[-22,-16],[-27,4],[-32,-22],[-34,-4]],[[1520,1187],[-18,30],[-57,46],[27,36],[37,13],[-41,12],[-1,32],[-33,15],[40,22],[43,-5],[-1,18],[-61,46],[-18,25]],[[1437,1477],[48,8],[14,12],[54,6],[18,17],[69,19],[24,13]],[[1664,1552],[21,-19],[-15,-16],[18,-23],[-12,-34],[12,-44],[75,15],[71,-3],[74,104],[40,-5]],[[1948,1527],[61,-10],[37,-20]],[[1291,2006],[27,45],[33,83],[5,48],[17,31],[48,2],[23,-11],[-11,-18],[16,-23],[63,-24],[69,16],[29,25],[70,3],[76,-87],[-10,-72],[20,-19],[31,-14],[38,14],[65,-2],[25,-11],[5,-27],[16,-10],[-58,-19],[-10,-29],[-38,-20],[-70,-17],[-46,22],[-63,-12],[1,-18]],[[1662,1862],[-15,-14],[-55,-3],[-24,12]],[[1568,1857],[-42,6],[5,13],[-26,30],[13,30],[23,21],[-41,16],[-53,-9],[-31,7],[-7,-23],[-35,-5],[-42,40],[-41,23]],[[1461,2279],[-37,-27],[-66,-16],[-8,37],[13,39],[19,26],[83,79],[40,14],[45,-45],[-11,-58],[-59,-47],[-19,-2]],[[1809,2249],[-1,1]],[[1929,1941],[0,-1]],[[1929,1940],[0,1]],[[1252,1824],[39,182]],[[1568,1857],[-28,-6],[-34,-29],[-71,1],[-11,-16]],[[1424,1807],[-30,6],[-12,16],[-43,0],[-25,8],[-62,-13]],[[1203,1688],[-2,14],[32,55],[19,67]],[[1424,1807],[1,-37]],[[1425,1770],[-68,-27],[-40,-38],[48,-22]],[[1365,1683],[-41,-20],[-32,16],[-25,-5],[-64,14]],[[1136,1578],[58,90],[9,20]],[[1365,1683],[16,-2]],[[1381,1681],[-7,-45],[-54,-9],[-5,-26],[-43,-14],[-18,-23]],[[1254,1564],[-48,-5],[-70,19]],[[1425,1770],[42,23],[24,-18],[60,-8],[15,-24],[-18,-13],[-43,-12],[-20,-16],[20,-22],[-7,-13],[-117,14]],[[1437,1477],[-72,-10],[1,15],[-54,-1],[-26,-10]],[[1286,1471],[-41,-6],[-45,4],[10,50],[20,11],[24,34]],[[1662,1862],[11,-44],[55,-64],[-47,-39],[10,-26],[33,-2],[-57,-48],[-45,-15],[2,-16],[44,-21]],[[1668,1587],[-13,-6],[9,-29]],[[1668,1587],[51,3],[63,-13]],[[1782,1577],[34,-23],[59,8],[65,-18],[8,-17]],[[1286,1471],[7,-21],[-19,-20],[-38,0],[-35,-16],[-23,-46],[-5,-39]],[[1173,1329],[-41,18],[-23,31],[-39,-28],[-27,11],[42,33],[-68,43]],[[1017,1437],[70,77],[49,64]],[[1173,1329],[26,-19]],[[1199,1310],[-52,-29],[-48,-10],[2,-20],[-51,-34]],[[1050,1217],[-35,65],[-47,-20],[-32,6],[-22,17],[-24,-11],[-36,9],[-14,20]],[[840,1303],[58,44],[48,30],[71,60]],[[1050,1217],[-44,-7],[-71,-40],[-75,21],[-27,23],[-44,16],[-20,20]],[[769,1250],[71,53]],[[1520,1187],[-46,1],[-26,-16],[-62,-17]],[[1386,1155],[1,26],[-48,-2],[-22,11],[12,27],[48,30],[-28,4],[-52,-26],[-38,23],[-60,-15],[8,75],[-8,2]],[[1267,978],[-19,-12],[-77,-16],[-62,14],[-50,4],[-68,24],[-100,23],[-36,34],[-31,5],[-26,18],[-54,4],[-28,16],[-43,47],[25,26],[-16,8],[-55,-5],[30,31],[-9,16],[27,21],[48,-6],[46,20]],[[1386,1155],[-75,-16],[-49,-2],[27,-30],[-76,-11],[-18,-17],[14,-17],[31,-7],[-28,-21],[1,-22],[54,-34]],[[699,1068],[114,-41],[22,-4],[80,-52],[57,-19],[74,-4]],[[1046,948],[-9,-5]],[[1037,943],[-26,1],[-13,-24],[-75,-17],[-40,5],[-52,24],[-32,-1]],[[799,931],[-2,1]],[[797,932],[0,14],[-44,11],[-61,4],[-32,41],[1,27],[-31,22],[-39,1],[-52,-9],[-55,-38]],[[484,1005],[-3,2]],[[481,1007],[26,28],[-8,26],[146,38],[26,-22],[28,-9]],[[1643,1070],[-65,7],[-48,-10],[-28,-15],[-38,-4]],[[1464,1048],[-25,1],[-47,-18],[-11,-20],[-64,-32],[-50,-1]],[[98,643],[49,13]],[[147,656],[39,-2],[41,-17],[102,-17],[40,-22],[62,1],[53,-14],[25,0],[50,25],[41,4],[15,41],[43,-5],[35,-35],[36,-3],[41,-20],[45,8],[10,22],[24,1],[28,-26],[-68,-54],[-109,-51],[-43,2],[-56,-29],[-73,-16],[-26,11],[-70,5],[5,40],[-39,13],[-62,7],[-103,28],[-76,-17],[13,-41],[-81,-4],[-39,15],[-38,35],[-12,23],[27,19],[-12,42],[83,18]],[[645,692],[-28,19],[-54,-17],[-20,-50],[-89,-9],[-92,40],[-60,33],[-20,-15],[-71,-3],[-37,18],[-35,35],[-64,32],[4,15],[119,48],[25,6],[43,-8],[58,15],[0,21],[32,19],[6,23],[-30,13],[-10,27],[25,25],[65,13],[50,-3],[19,18]],[[484,1005],[-16,-17],[61,5],[20,-11],[63,1],[37,-31],[8,-16],[30,-2],[49,-17],[14,9],[47,6]],[[799,931],[-51,-9],[-9,-25],[-26,-16],[-61,-14],[-42,-4],[-40,15],[-38,4],[-13,34],[-52,17],[-11,14],[-88,-29],[-17,-38],[-21,-9],[-6,-20],[46,-10],[107,14],[27,-6],[35,-40],[-37,-21],[67,5],[30,-13],[61,-13],[34,-15],[7,-27],[35,-30],[39,-15],[47,13],[41,-7],[-7,55],[-37,10],[-13,21],[-86,3],[-54,41],[-40,14],[91,32],[53,-11],[-27,41],[19,11],[73,-18],[44,-2]],[[879,883],[-39,-16],[-7,-21],[39,-35],[-5,-38]],[[867,773],[-18,-18],[19,-11]],[[868,744],[7,-9]],[[875,735],[0,-28],[26,-9]],[[901,698],[17,-24],[-12,-9],[16,-40]],[[922,625],[-36,-1],[-12,20],[-31,11],[-47,-11],[-92,19],[-59,29]],[[923,716],[-48,19]],[[868,744],[15,11],[-16,18]],[[879,883],[113,14],[27,11],[17,21],[31,17],[78,-15],[104,17],[24,11],[109,13],[60,-12],[37,2]],[[1479,962],[81,7],[15,-43],[0,-26],[-23,-21],[4,-32],[-50,-19],[3,-20],[-36,-9],[-84,-35],[13,-13]],[[1402,751],[-31,-18],[-36,-32],[-27,-8],[4,-18],[-95,7],[-40,-10],[-5,27],[18,23],[-10,9],[-96,-13],[-57,-20],[-1,-28],[48,-46],[-47,-21],[-44,4],[-6,20],[-55,-2]],[[901,698],[22,18]],[[1482,964],[-47,1],[-55,13],[-36,-5]],[[1344,973],[32,13],[30,23],[87,-4],[-11,-41]],[[1046,948],[-9,-5]],[[1479,962],[3,2]],[[1344,973],[46,34],[11,23],[24,13],[39,5]],[[1770,987],[-46,-16],[25,-11],[-5,-39],[4,-36],[43,3],[26,-29],[39,-24],[32,-7],[27,-26]],[[1915,802],[-29,-27],[7,-16],[-23,-11],[-37,-69],[-89,-1]],[[1744,678],[-23,42],[-68,1],[-6,-27],[-74,-47],[-45,19],[-97,-8],[-3,23],[43,-8],[-6,25],[19,32],[-27,14],[-55,7]],[[2507,1006],[20,-29],[70,-19],[10,-56],[59,-37],[15,-32],[-7,-32],[-29,18],[-68,-16],[-97,12]],[[2480,815],[-37,12],[-14,20],[-87,-14],[-49,-2],[2,-12],[-31,-17],[-38,10],[-51,-5],[14,-20],[-21,-15],[-26,-2],[-13,21],[-63,-8],[-41,9],[-75,3],[-35,7]],[[2480,815],[15,-62],[19,-54],[59,-65],[-57,-32],[-34,-6]],[[2482,596],[-168,-32],[-46,-42],[-7,-44],[-53,-8]],[[2208,470],[-10,46],[-40,28],[-31,5],[-43,-18],[-25,-20],[-71,14],[-10,-13],[-40,-1],[-70,7],[15,37],[-41,17],[-37,-13],[-29,5],[-2,32],[-61,46],[31,36]],[[2715,492],[-47,4],[-21,11],[4,19],[-54,23],[-48,14],[-55,7],[-12,26]],[[2595,997],[41,-10],[51,-21],[-19,-8],[11,-36],[72,-26],[-18,-41],[30,-13],[36,-27],[20,-27],[35,-26],[12,-38],[-19,-75],[21,-40],[-57,-27],[-44,-58],[-52,-32]],[[2519,273],[-24,1],[-2,23],[-27,17],[-26,-5]],[[2440,309],[6,18],[29,26],[-25,10],[48,31],[-31,23],[-47,-17],[-1,28],[-31,11],[-35,-8],[-47,4],[-19,14],[-79,21]],[[2715,492],[-5,-22],[14,-49],[57,1],[24,-20],[-71,-18],[-55,-38],[-39,-13],[-28,-23],[-3,-17],[-29,-9],[-25,32],[-26,-15],[-10,-28]],[[2519,273],[29,-22],[-9,-27],[58,13],[11,-8],[53,4],[-1,-49],[64,-13],[-7,-32],[13,-18],[-14,-25],[-55,-1],[6,-32],[-21,-13],[24,-27],[-14,-19],[-56,7],[-57,-11],[-15,19],[-34,-13],[-45,-1],[-30,26],[-38,-25],[-56,5],[18,21],[-9,29],[-36,12],[-17,24],[3,16],[54,35],[26,10],[36,46],[-37,8],[45,35],[10,24],[-16,9],[13,31],[25,-2]],[[1782,1577],[-11,56],[33,17],[96,35],[177,76],[1,20],[21,23],[44,2],[56,36],[83,16],[16,-11],[100,-15],[58,-5],[41,-32]],[[2497,1794],[-7,-50],[-43,-48],[-59,-32],[-25,2],[-61,-19],[-47,-32]],[[2254,1615],[-48,3],[-26,-18],[14,-29],[-23,-46],[-117,-22],[-95,51],[-54,20],[-68,13],[-55,-10]],[[2626,1907],[-20,-18],[-132,-26],[-169,0],[-47,38],[-23,10],[2,102],[65,65],[53,10]],[[1929,1941],[0,-1]],[[2486,1861],[1,0]],[[2487,1861],[51,7]]],"transform":{"scale":[0.001,0.0009996427295462672],"translate":[3.358,50.751]},"objects":{"coropgebied_2003":{"type":"GeometryCollection","geometries":[{"arcs":[[0,1,2,3,4]],"type":"Polygon","properties":{"id":22419,"statcode":"CR01","statnaam":"Oost-Groningen","jrstatcode":"2003CR01","rubriek":"coropgebied","FID":"coropgebied_gegeneraliseerd_2003.752500d7-52af-432e-b957-02a05793f620"},"id":"CR01"},{"arcs":[[5,-2,6]],"type":"Polygon","properties":{"id":22420,"statcode":"CR02","statnaam":"Delfzijl en omgeving","jrstatcode":"2003CR02","rubriek":"coropgebied","FID":"coropgebied_gegeneraliseerd_2003.76449afe-3be0-4c89-bda2-fbbc272d53e2"},"id":"CR02"},{"arcs":[[7,8,9,10,-7,-1]],"type":"Polygon","properties":{"id":22421,"statcode":"CR03","statnaam":"Overig Groningen","jrstatcode":"2003CR03","rubriek":"coropgebied","FID":"coropgebied_gegeneraliseerd_2003.36047a7c-7a1d-40ae-ae59-e7f01736bda7"},"id":"CR03"},{"arcs":[[[13,14,15,-10]],[[16,17]],[[18]],[[-12,19]],[[20]]],"type":"MultiPolygon","properties":{"id":22422,"statcode":"CR04","statnaam":"Noord-Friesland","jrstatcode":"2003CR04","rubriek":"coropgebied","FID":"coropgebied_gegeneraliseerd_2003.2916ef21-1f3f-4474-a7ec-2feda4538ca6"},"id":"CR04"},{"arcs":[[21,-15,22,23,24,25]],"type":"Polygon","properties":{"id":22423,"statcode":"CR05","statnaam":"Zuidwest-Friesland","jrstatcode":"2003CR05","rubriek":"coropgebied","FID":"coropgebied_gegeneraliseerd_2003.3a073fea-7dc7-4ced-aa17-ed1c8ea8550a"},"id":"CR05"},{"arcs":[[28,-23,-14,-9,29,30]],"type":"Polygon","properties":{"id":22424,"statcode":"CR06","statnaam":"Zuidoost-Friesland","jrstatcode":"2003CR06","rubriek":"coropgebied","FID":"coropgebied_gegeneraliseerd_2003.67da5941-6b98-4c5f-a91f-ca8b9af42874"},"id":"CR06"},{"arcs":[[-5,31,32,-30,-8]],"type":"Polygon","properties":{"id":22425,"statcode":"CR07","statnaam":"Noord-Drenthe","jrstatcode":"2003CR07","rubriek":"coropgebied","FID":"coropgebied_gegeneraliseerd_2003.35deac89-d2ae-4de9-a4ad-5a86c6b5eaad"},"id":"CR07"},{"arcs":[[33,34,-32,-4,35]],"type":"Polygon","properties":{"id":22426,"statcode":"CR08","statnaam":"Zuidoost-Drenthe","jrstatcode":"2003CR08","rubriek":"coropgebied","FID":"coropgebied_gegeneraliseerd_2003.932f5f77-5d8f-4d63-b91f-e64613262f06"},"id":"CR08"},{"arcs":[[-35,36,-31,-33]],"type":"Polygon","properties":{"id":22427,"statcode":"CR09","statnaam":"Zuidwest-Drenthe","jrstatcode":"2003CR09","rubriek":"coropgebied","FID":"coropgebied_gegeneraliseerd_2003.5107a55a-caf5-4ac9-a1ed-59240e927ca6"},"id":"CR09"},{"arcs":[[37,38,39,40,41,42,43,44,-24,-29,-37,-34,45,46]],"type":"Polygon","properties":{"id":22428,"statcode":"CR10","statnaam":"Noord-Overijssel","jrstatcode":"2003CR10","rubriek":"coropgebied","FID":"coropgebied_gegeneraliseerd_2003.e02825f8-04e6-4239-9657-66d39e8716cb"},"id":"CR10"},{"arcs":[[47,48,49,-38]],"type":"Polygon","properties":{"id":22429,"statcode":"CR11","statnaam":"Zuidwest-Overijssel","jrstatcode":"2003CR11","rubriek":"coropgebied","FID":"coropgebied_gegeneraliseerd_2003.93498758-7aaa-4162-99eb-2436d035066d"},"id":"CR11"},{"arcs":[[50,-48,-47,51]],"type":"Polygon","properties":{"id":22430,"statcode":"CR12","statnaam":"Twente","jrstatcode":"2003CR12","rubriek":"coropgebied","FID":"coropgebied_gegeneraliseerd_2003.30cd1653-0904-4205-84a9-f15c081f9298"},"id":"CR12"},{"arcs":[[52,-39,-50,53,54,55,56,57,58,59]],"type":"Polygon","properties":{"id":22431,"statcode":"CR13","statnaam":"Veluwe","jrstatcode":"2003CR13","rubriek":"coropgebied","FID":"coropgebied_gegeneraliseerd_2003.ef9a9cd1-dbc8-45f6-b079-a86e834dc156"},"id":"CR13"},{"arcs":[[60,61,-54,-49,-51]],"type":"Polygon","properties":{"id":22432,"statcode":"CR14","statnaam":"Achterhoek","jrstatcode":"2003CR14","rubriek":"coropgebied","FID":"coropgebied_gegeneraliseerd_2003.ed9f5b08-7dd7-438d-93ed-170ff1610e66"},"id":"CR14"},{"arcs":[[62,63,64,65,-55,-62]],"type":"Polygon","properties":{"id":22433,"statcode":"CR15","statnaam":"Arnhem/Nijmegen","jrstatcode":"2003CR15","rubriek":"coropgebied","FID":"coropgebied_gegeneraliseerd_2003.11d5965a-2fbb-4acc-a2e4-0b0193c8df05"},"id":"CR15"},{"arcs":[[66,67,68,-56,-66,69]],"type":"Polygon","properties":{"id":22434,"statcode":"CR16","statnaam":"Zuidwest-Gelderland","jrstatcode":"2003CR16","rubriek":"coropgebied","FID":"coropgebied_gegeneraliseerd_2003.b9589a37-8710-4f2e-abed-356b49b29647"},"id":"CR16"},{"arcs":[[-69,70,71,72,73,74,-57]],"type":"Polygon","properties":{"id":22435,"statcode":"CR17","statnaam":"Utrecht","jrstatcode":"2003CR17","rubriek":"coropgebied","FID":"coropgebied_gegeneraliseerd_2003.4261a49a-b54a-43b5-84f0-670f418dd882"},"id":"CR17"},{"arcs":[[[75,76,77]],[[78]]],"type":"MultiPolygon","properties":{"id":22436,"statcode":"CR18","statnaam":"Kop van Noord-Holland","jrstatcode":"2003CR18","rubriek":"coropgebied","FID":"coropgebied_gegeneraliseerd_2003.3aa06c9c-88dc-40b1-9d71-5257c30c3702"},"id":"CR18"},{"arcs":[[82,-78,83,84]],"type":"Polygon","properties":{"id":22437,"statcode":"CR19","statnaam":"Alkmaar en omgeving","jrstatcode":"2003CR19","rubriek":"coropgebied","FID":"coropgebied_gegeneraliseerd_2003.aa339f7e-2f10-41fa-9276-98a3b69a6da1"},"id":"CR19"},{"arcs":[[85,-85,86,87,88]],"type":"Polygon","properties":{"id":22438,"statcode":"CR20","statnaam":"IJmond","jrstatcode":"2003CR20","rubriek":"coropgebied","FID":"coropgebied_gegeneraliseerd_2003.3cde50bf-86bd-46cb-a064-84ad8029838e"},"id":"CR20"},{"arcs":[[89,-89,90,91,92]],"type":"Polygon","properties":{"id":22439,"statcode":"CR21","statnaam":"Agglomeratie Haarlem","jrstatcode":"2003CR21","rubriek":"coropgebied","FID":"coropgebied_gegeneraliseerd_2003.0dfbc6e1-0799-43fc-b250-cbb66b043557"},"id":"CR21"},{"arcs":[[-91,-88,93]],"type":"Polygon","properties":{"id":22440,"statcode":"CR22","statnaam":"Zaanstreek","jrstatcode":"2003CR22","rubriek":"coropgebied","FID":"coropgebied_gegeneraliseerd_2003.cbb75298-fdc5-474c-ba21-0f4a18d3c5c0"},"id":"CR22"},{"arcs":[[94,95,-92,-94,-87,-84,-77,96,97,-73]],"type":"Polygon","properties":{"id":22441,"statcode":"CR23","statnaam":"Groot-Amsterdam","jrstatcode":"2003CR23","rubriek":"coropgebied","FID":"coropgebied_gegeneraliseerd_2003.1439360c-669f-43b6-974b-7baf01f7af2d"},"id":"CR23"},{"arcs":[[-98,98,99,-74]],"type":"Polygon","properties":{"id":22442,"statcode":"CR24","statnaam":"Het Gooi en Vechtstreek","jrstatcode":"2003CR24","rubriek":"coropgebied","FID":"coropgebied_gegeneraliseerd_2003.d4ef8f87-3ca2-41c8-90e4-669683b31c09"},"id":"CR24"},{"arcs":[[100,101,102,-93,-96]],"type":"Polygon","properties":{"id":22443,"statcode":"CR25","statnaam":"Agglomeratie Leiden en Bollenstre","jrstatcode":"2003CR25","rubriek":"coropgebied","FID":"coropgebied_gegeneraliseerd_2003.7d5a5432-c7a4-4b68-9ffc-85c33131af92"},"id":"CR25"},{"arcs":[[-102,103,104,105,106]],"type":"Polygon","properties":{"id":22444,"statcode":"CR26","statnaam":"Agglomeratie 's-Gravenhage","jrstatcode":"2003CR26","rubriek":"coropgebied","FID":"coropgebied_gegeneraliseerd_2003.419d7573-15e7-4877-9d13-3610942c8773"},"id":"CR26"},{"arcs":[[107,108,-106]],"type":"Polygon","properties":{"id":22445,"statcode":"CR27","statnaam":"Delft en Westland","jrstatcode":"2003CR27","rubriek":"coropgebied","FID":"coropgebied_gegeneraliseerd_2003.ba4e8752-14b9-4fcb-a0f8-f97882ca5f67"},"id":"CR27"},{"arcs":[[109,110,-104,-101,-95,-72]],"type":"Polygon","properties":{"id":22446,"statcode":"CR28","statnaam":"Oost-Zuid-Holland","jrstatcode":"2003CR28","rubriek":"coropgebied","FID":"coropgebied_gegeneraliseerd_2003.49a5c878-4d1f-4279-b27a-878fcdab6054"},"id":"CR28"},{"arcs":[[[111,-108,-105,-111,112]],[[113,114,115,116,117,118,119]]],"type":"MultiPolygon","properties":{"id":22447,"statcode":"CR29","statnaam":"Groot-Rijnmond","jrstatcode":"2003CR29","rubriek":"coropgebied","FID":"coropgebied_gegeneraliseerd_2003.aa295363-7310-4e8e-80c2-ff5c0fa0ee26"},"id":"CR29"},{"arcs":[[-113,-110,-71,-68,120,121]],"type":"Polygon","properties":{"id":22448,"statcode":"CR30","statnaam":"Zuidoost-Zuid-Holland","jrstatcode":"2003CR30","rubriek":"coropgebied","FID":"coropgebied_gegeneraliseerd_2003.f624dfae-66cc-4c46-8122-b5159257ec0b"},"id":"CR30"},{"arcs":[[122,123]],"type":"Polygon","properties":{"id":22449,"statcode":"CR31","statnaam":"Zeeuwsch-Vlaanderen","jrstatcode":"2003CR31","rubriek":"coropgebied","FID":"coropgebied_gegeneraliseerd_2003.6b3f9b89-4b96-4760-834f-5ef2519ace60"},"id":"CR31"},{"arcs":[[124,-119,125,-117,126,127,128,129,130,131,132]],"type":"Polygon","properties":{"id":22450,"statcode":"CR32","statnaam":"Overig Zeeland","jrstatcode":"2003CR32","rubriek":"coropgebied","FID":"coropgebied_gegeneraliseerd_2003.861d1109-d4b3-44e2-86b2-5862ff23edfd"},"id":"CR32"},{"arcs":[[[133,-130,134,-128,135,136,137,-132,138]],[[139,140]]],"type":"MultiPolygon","properties":{"id":22451,"statcode":"CR33","statnaam":"West-Noord-Brabant","jrstatcode":"2003CR33","rubriek":"coropgebied","FID":"coropgebied_gegeneraliseerd_2003.23358fad-a220-4f86-8708-ee31c3228b76"},"id":"CR33"},{"arcs":[[-137,142,-141,143,-121,-67,144,145,146]],"type":"Polygon","properties":{"id":22452,"statcode":"CR34","statnaam":"Midden-Noord-Brabant","jrstatcode":"2003CR34","rubriek":"coropgebied","FID":"coropgebied_gegeneraliseerd_2003.ee0247c1-1b7c-48ca-8114-4eba380e7a02"},"id":"CR34"},{"arcs":[[-65,147,148,-145,-70]],"type":"Polygon","properties":{"id":22453,"statcode":"CR35","statnaam":"Noordoost-Noord-Brabant","jrstatcode":"2003CR35","rubriek":"coropgebied","FID":"coropgebied_gegeneraliseerd_2003.1a801457-34a6-4793-81c4-21411b1c9218"},"id":"CR35"},{"arcs":[[-149,149,150,151,-146]],"type":"Polygon","properties":{"id":22454,"statcode":"CR36","statnaam":"Zuidoost-Noord-Brabant","jrstatcode":"2003CR36","rubriek":"coropgebied","FID":"coropgebied_gegeneraliseerd_2003.b9533d61-9d64-409d-9f0c-62e33925dc96"},"id":"CR36"},{"arcs":[[152,-150,-148,-64,153]],"type":"Polygon","properties":{"id":22455,"statcode":"CR37","statnaam":"Noord-Limburg","jrstatcode":"2003CR37","rubriek":"coropgebied","FID":"coropgebied_gegeneraliseerd_2003.75c46a41-f643-4004-b761-27572219857b"},"id":"CR37"},{"arcs":[[154,155,-151,-153,156]],"type":"Polygon","properties":{"id":22456,"statcode":"CR38","statnaam":"Midden-Limburg","jrstatcode":"2003CR38","rubriek":"coropgebied","FID":"coropgebied_gegeneraliseerd_2003.1a766202-086e-44cf-86ac-8e24000d2de3"},"id":"CR38"},{"arcs":[[-155,157]],"type":"Polygon","properties":{"id":22457,"statcode":"CR39","statnaam":"Zuid-Limburg","jrstatcode":"2003CR39","rubriek":"coropgebied","FID":"coropgebied_gegeneraliseerd_2003.7d99b3be-cc41-4392-ad6b-0f2b80ec912c"},"id":"CR39"},{"arcs":[[[158,-41,159,-59,160]],[[-25,-45,161]]],"type":"MultiPolygon","properties":{"id":22458,"statcode":"CR40","statnaam":"Flevoland","jrstatcode":"2003CR40","rubriek":"coropgebied","FID":"coropgebied_gegeneraliseerd_2003.d2dec89d-373d-425b-9838-c01df820dfa6"},"id":"CR40"}]}}}