{"type":"Topology","arcs":[[[3735,2507],[63,-14],[50,-7],[11,-21],[1,-17],[-27,-36],[-12,-23],[4,-17],[20,-9],[-4,-32],[14,-70],[-31,-69],[-78,-78],[-17,-14],[6,-12]],[[3735,2088],[-21,7],[-32,28],[-25,0],[31,43],[-30,9],[-80,68]],[[3578,2243],[-122,78]],[[3456,2321],[-12,48],[21,7],[43,-2],[20,5],[74,-4],[-10,34],[-21,10],[-25,-2],[25,46],[-18,30]],[[3553,2493],[18,-6],[23,19],[45,11],[43,-7],[28,-18],[25,15]],[[3553,2493],[-2,36],[-22,0],[0,19],[-41,-8],[-32,8],[-41,-15],[-8,15],[-56,12],[-19,-12],[-52,17],[-18,-1],[-24,33],[30,4],[0,10],[38,6],[33,-4],[82,48],[13,-7],[52,18],[30,-14]],[[3516,2658],[14,-12],[9,-40],[37,-23],[34,-14],[59,-17],[57,-4],[-6,-31],[15,-10]],[[3456,2321],[-77,48],[-42,2],[-60,-15],[-16,26],[-55,26],[-16,23],[-18,14],[-44,9],[-38,-8],[-5,-8],[-35,-10],[-25,-28],[-39,-63],[-29,7]],[[2957,2344],[-24,6],[-29,14],[-56,1],[-31,21],[2,24]],[[2819,2410],[23,35],[30,23],[-12,24],[38,29],[-2,18],[25,14],[8,38]],[[2929,2591],[-37,8],[-18,18],[-14,-3],[-33,39],[6,8]],[[2833,2661],[8,-3],[62,6],[45,-21],[62,23],[47,6],[123,9],[61,7],[35,13],[62,11],[50,4],[52,-11],[16,8],[51,-13],[17,-10],[-8,-32]],[[3147,2801],[1,-13],[-20,-11],[-25,12],[26,15],[18,-3]],[[1802,2546],[-27,-12],[-6,16],[33,-4]],[[1742,2551],[-37,-7],[-30,-13],[-61,-16],[7,-16],[-60,-33],[-39,-1],[-11,-11],[-24,4],[9,14],[79,33],[28,16],[75,31],[28,6],[36,-7]],[[2833,2661],[-29,-3],[-7,-16],[7,-23],[59,-27],[33,6],[33,-7]],[[2819,2410],[-29,-2],[-26,-13],[-42,12],[-67,-3],[-39,-19],[-30,-10],[-10,-16],[-52,-2],[-5,-22],[-58,-9],[-23,-17]],[[2438,2309],[-22,-13],[-12,15],[13,6],[-4,22],[17,8],[-31,16],[-2,12],[-47,-6],[-28,10],[-21,-13],[-35,12],[-28,-2],[-21,8],[-24,0],[-23,12],[-25,-8],[-25,7],[-57,9],[-9,-2]],[[2054,2402],[-1,24],[38,44],[34,21],[44,16],[60,43],[93,28],[76,25],[23,3],[81,28],[28,7],[45,-3],[83,15],[79,5],[44,-4],[38,11],[14,-4]],[[2185,2689],[-2,-6],[-65,-16],[-17,-12],[-75,-3],[-27,-14],[-64,-18],[-36,3],[-36,-9],[-30,-16],[-40,2],[14,20],[36,25],[50,9],[125,19],[119,21],[48,-5]],[[2373,2712],[40,-2],[160,8],[-40,-17],[-86,-13],[-75,5],[-50,-18],[-37,2],[-27,13],[0,13],[36,17],[43,-8],[36,0]],[[3021,2757],[-41,-1],[-8,-5],[-56,-12],[-22,-11],[-55,-6],[-36,0],[-46,-9],[4,20],[31,14],[79,8],[60,4],[56,7],[34,-9]],[[2438,2309],[2,-9],[60,-33],[8,-17],[21,-18],[-20,-3],[4,-15],[26,-1],[36,-48],[-22,-17],[-25,-4],[-29,-23],[-37,-54]],[[2462,2067],[-25,-10]],[[2437,2057],[-46,33],[-36,-2]],[[2355,2088],[-28,8],[-27,-2],[-13,16],[-27,-9],[-33,-2],[-18,-15],[-22,-1],[-45,13],[-46,9],[-28,-7],[-28,9],[-32,17],[-9,10],[14,15],[36,11],[-6,29],[12,25],[-16,39],[11,17],[-32,35],[17,8],[-18,28],[-31,-17],[-47,-7],[-130,-68]],[[1809,2249],[-1,1]],[[1808,2250],[127,67],[56,11],[29,17],[1,13],[25,14],[8,30]],[[2957,2344],[-10,-13],[63,-14],[-5,-33],[65,-62],[-35,-39],[-24,-11]],[[3011,2172],[-36,-16],[-30,19],[-46,3],[-25,-15],[-25,-22],[-87,-37]],[[2762,2104],[-89,-39],[-34,2],[-25,25],[-42,-7],[-6,-11],[-48,-23],[-32,4],[-24,12]],[[3578,2243],[-97,-15],[-50,-15],[-61,-8],[-3,-18],[11,-58],[-21,-11],[13,-14],[-24,-7],[4,-11],[-18,-13],[2,-12],[-17,-14],[-14,4],[-74,-65]],[[3229,1986],[-29,9],[8,21],[-53,-4],[-22,9],[1,22],[-37,8],[25,36],[-29,13],[-20,0],[0,18],[-11,14],[-60,13],[26,21],[-17,6]],[[3735,2088],[-21,-28],[-8,-87],[-9,-79],[-13,-11],[-67,13],[-36,-8],[-20,2],[-22,11],[-75,-3],[-45,4],[-35,-7],[-32,-17]],[[3352,1878],[-2,21],[-79,21]],[[3271,1920],[1,43],[-34,0],[-9,23]],[[3271,1920],[-14,4],[-62,-8],[-39,-20],[5,-32],[-49,11],[-17,-11],[-19,12],[-50,-14],[-20,31],[-38,17],[1,9],[-57,-4],[-22,11],[-46,9],[-21,-10],[-24,17],[-37,58],[36,13],[46,31],[-65,45],[-17,15]],[[3352,1878],[17,-13],[-8,-26],[48,-25],[-40,-1],[-11,-14],[-35,4],[24,-32],[-7,-35]],[[3340,1736],[-29,9],[-27,-24],[-31,-4],[-10,12],[-47,9],[-49,3],[-1,-9],[-53,-13],[-13,-25],[-48,-16]],[[3032,1678],[-40,-3],[-58,10],[-14,22],[-42,9],[-66,3],[-26,-1],[11,-15],[-15,-11],[-30,-1]],[[2752,1691],[-8,25],[-31,16],[-17,18],[-26,10],[-20,-6],[-43,-28],[-14,8],[-25,-10],[-16,23],[-23,20],[-21,2]],[[2508,1769],[-2,1]],[[2506,1770],[-1,1]],[[2505,1771],[-6,23]],[[2499,1794],[1,2]],[[2500,1796],[-29,41],[14,24]],[[2485,1861],[53,7]],[[2538,1868],[35,-4],[31,10],[24,-1],[33,20],[-36,15]],[[2625,1908],[-49,18],[31,18],[-22,21],[-21,36],[-42,22],[-30,12],[-31,3],[-24,19]],[[3032,1678],[15,-12],[-16,-36],[-46,-10],[-9,-19],[22,-33],[-29,-16],[2,-21],[48,-22],[5,-13]],[[3024,1496],[-44,-10],[1,-9],[-122,-1],[-51,5]],[[2808,1481],[-18,-3],[-24,23],[6,10],[-18,17],[-11,23],[-17,1],[-13,20],[11,50],[42,9],[6,18],[-19,9],[8,25],[-9,8]],[[3340,1736],[55,-22],[22,-4],[79,0],[8,-9],[80,-16],[19,9],[17,22],[16,-1],[17,-36],[24,-25],[24,-5],[13,-26],[0,-21],[-16,-14],[-30,-46],[2,-14],[14,-22],[24,-15],[-5,-6],[-42,-10],[-30,2],[-38,-46],[-35,-3],[-34,-22],[-9,-24],[-18,-13],[-94,-1]],[[3403,1368],[-45,-1],[-53,12],[11,13],[-3,24],[-26,8],[-33,-11],[-22,19],[-35,-5],[-37,4],[-22,-4],[-17,6],[-50,40],[-13,19],[-34,4]],[[2808,1481],[23,-14],[-19,-28],[24,-15],[-9,-13],[-25,1],[-84,-19],[-6,-13],[-18,-7],[-18,-26],[-25,-24]],[[2651,1323],[-19,5],[-34,-6],[-10,5],[-36,-16],[-11,-12],[-49,2],[-37,-28],[-68,-4],[-21,-19],[-10,-33],[-48,-15]],[[2308,1202],[-36,-17],[-24,7]],[[2248,1192],[21,9],[-1,22],[-12,16],[-23,13],[-4,28],[-29,18],[5,29],[-9,22],[-31,-22],[-39,-9],[-25,11],[27,14],[13,53],[-29,20],[-30,5],[-1,31],[-29,17],[-17,2],[11,26]],[[2046,1497],[50,7],[16,9]],[[2112,1513],[1,1]],[[2113,1514],[56,0],[32,47],[17,16],[35,19],[3,16]],[[2256,1612],[1,1]],[[2257,1613],[38,2],[25,14],[22,2],[40,17],[71,38],[6,21]],[[2459,1707],[24,10],[25,52]],[[3403,1368],[-10,-34],[-16,-10],[-39,-5],[-8,-30],[26,0],[39,-12],[58,-30],[16,-4],[2,-30],[-30,-5],[-5,-24],[-24,-19],[-48,-20],[-29,19],[-18,1],[-37,-12],[-52,-10],[-30,-12],[-55,-14],[-36,-13],[-14,10],[-22,0],[-38,8],[-3,-11],[20,-8],[-1,-26],[-44,7],[-18,16],[-39,-2],[-5,16],[-21,9],[-18,-6],[-47,0],[-31,15],[7,9],[-23,9]],[[2810,1150],[-77,38],[-1,29],[15,-1],[24,11],[31,3],[1,33],[16,5],[-1,20],[-24,3],[-17,-7],[-24,7],[21,14],[-29,22],[-35,10],[-44,-21],[-15,7]],[[2810,1150],[-11,4],[-47,-10],[27,-9],[8,-16],[22,-8],[0,-21],[-60,7],[-44,17],[-8,-13],[-19,-9],[-49,-12],[-24,6],[-18,-13],[34,-26],[12,-32],[-38,-18]],[[2595,997],[-38,5],[-22,25],[-25,-2],[-4,-18]],[[2506,1007],[-12,1],[-72,-7],[-35,7],[-13,13],[-30,6],[-8,10],[-37,10],[-22,22],[-37,8]],[[2240,1077],[-13,11],[-17,38],[8,16],[50,6],[81,-6],[-1,15],[-46,22],[6,23]],[[2240,1077],[-40,0],[-17,-12],[-55,13],[-12,-14],[-35,-5],[-37,11],[-33,-31],[-15,-35]],[[1996,1004],[-58,-18],[-13,3],[-38,-6],[-29,9],[-53,0],[-35,-5]],[[1770,987],[10,13],[0,22],[-42,15],[-29,-7],[-19,17],[-32,10],[-16,13]],[[1642,1070],[26,-2],[5,22],[-31,7],[27,11]],[[1669,1108],[32,-1],[-4,15],[26,3],[7,12],[25,0],[19,27],[48,52],[26,-8],[24,17],[17,1],[23,-12],[63,-8],[15,11],[35,1],[59,17],[44,-2],[54,-17],[21,-12],[45,-12]],[[1706,1531],[-31,-6],[-6,-11],[30,-27],[-15,-6],[-8,-18],[12,-47],[75,15],[72,-3],[24,28],[6,19],[43,57],[40,-4]],[[1948,1528],[51,-8],[47,-23]],[[1669,1108],[-3,22],[-25,3],[-4,18],[-39,14],[-17,13],[-7,19],[-54,-10]],[[1520,1187],[-18,30],[-42,32],[39,6],[-10,12],[-44,-4],[26,36],[39,13],[-42,12],[-1,32],[-33,15],[21,18],[20,5],[22,-8],[20,2],[-1,18],[18,6],[-48,18],[-30,22],[-19,25]],[[1437,1477],[19,0],[29,10],[27,16],[41,0],[23,28],[21,-3]],[[1597,1528],[29,12],[13,-1],[16,15],[30,-22],[21,-1]],[[1324,2210],[-19,9],[4,14],[26,-3],[-11,-20]],[[1929,1941],[0,-1]],[[1929,1940],[-41,-4],[-10,-29],[-37,-21],[-24,-3],[-16,-10],[-31,-3],[-39,23],[-21,-8],[-22,7],[-27,-12],[1,-18]],[[1662,1862],[-15,-14],[-55,-3],[4,18],[-27,-6]],[[1569,1857],[-5,4],[-38,2],[4,14],[-25,26],[13,33],[24,12],[-1,9],[-41,16],[-53,-9],[-26,17],[-8,-29],[-42,-11],[-13,19],[-26,23],[-44,24]],[[1288,2007],[34,53],[31,83],[6,54],[14,16],[32,2],[16,-10],[23,-2],[-11,-17],[18,-25],[65,-22],[33,5],[28,9],[33,27],[59,8],[11,-5],[128,67]],[[1809,2249],[-128,-68],[10,-7],[65,-78],[-10,-72],[42,-32],[34,-1],[13,14],[65,-2],[25,-13],[5,-25],[11,-12],[-12,-12]],[[1521,2407],[29,-22],[-8,-10],[-3,-46],[-24,-14],[0,-10],[-26,-21],[-28,-5],[-34,-27],[-48,-13],[-23,8],[-5,25],[15,46],[34,38],[83,77],[20,0],[18,-26]],[[1569,1857],[-12,2],[-24,-14],[-22,-19],[-10,-17],[-25,-20]],[[1476,1789],[-52,-19]],[[1424,1770],[0,37],[-29,6],[-13,16],[-55,2],[-14,8],[-61,-15]],[[1252,1824],[17,91],[11,43],[-1,21],[9,28]],[[1424,1770],[-30,1],[1,-10],[-38,-18],[-17,-22],[-23,-15],[47,-23]],[[1364,1683],[-40,-19]],[[1324,1664],[-31,15],[-27,-7],[-36,12],[-28,4]],[[1202,1688],[-6,23],[51,6],[-30,12],[18,34],[17,61]],[[1324,1664],[-13,-13],[17,-17],[-15,-14],[5,-14],[-64,-31],[0,-11]],[[1254,1564],[-43,2],[-5,-7],[-70,19]],[[1136,1578],[61,95],[5,15]],[[1505,1680],[-7,-13],[-117,14]],[[1381,1681],[-17,2]],[[1476,1789],[16,-14],[60,-8],[13,-6],[1,-18],[-18,-13],[-43,-12],[-20,-16],[20,-22]],[[1658,1575],[24,4],[52,-14],[10,-35],[-38,1]],[[1597,1528],[-26,31],[46,22],[23,-17],[18,11]],[[1505,1680],[36,-6],[32,-12],[17,10],[52,3],[49,-10],[19,2]],[[1710,1667],[-16,-4],[-38,-28],[-40,-13],[41,-24]],[[1657,1598],[0,-1]],[[1657,1597],[-3,-3]],[[1654,1594],[-13,-2],[-29,14],[-17,-16],[-25,-3],[-32,-15],[-40,0],[-37,4],[-63,30],[1,41],[-28,4],[10,30]],[[1654,1594],[3,3]],[[1657,1598],[12,-10]],[[1669,1588],[-11,-13]],[[1437,1477],[-66,-17]],[[1371,1460],[-5,22],[-38,-5],[-16,4],[-37,-15],[-30,-1],[-46,4],[11,50],[20,11],[24,34]],[[1662,1862],[11,-45],[24,-22],[11,-22],[20,-19],[-27,-18],[9,-14],[-20,-17],[1,-16],[29,-2],[9,0],[6,3],[0,12],[10,15],[30,-7],[-38,-12],[-1,-7],[-2,-4],[-24,-20]],[[1780,1576],[1,-1]],[[1781,1575],[9,-10],[26,-11],[23,5],[51,3],[43,-15],[22,6]],[[1955,1553],[1,0]],[[1956,1553],[-17,-10],[9,-15]],[[1669,1588],[10,-4],[40,6],[61,-14]],[[1371,1460],[-21,-5],[-19,-13],[-9,-29],[-39,-1],[-68,-11],[-22,-14],[-16,-18],[2,-36],[-6,-3]],[[1173,1330],[-41,17],[-26,29],[-36,-26],[-27,11],[43,34],[-4,11],[-28,8],[-38,23]],[[1016,1437],[73,80],[47,61]],[[1173,1330],[26,-20]],[[1199,1310],[-52,-29],[-28,0],[-20,-10],[2,-20],[-51,-34]],[[1050,1217],[-22,37],[9,6],[-22,22],[-47,-20],[-39,10],[-14,13],[-25,-11],[-13,14],[-23,-5],[-16,22]],[[838,1305],[65,47],[42,26],[71,59]],[[1050,1217],[-44,-7],[-71,-40],[-34,7],[-31,20],[-10,-6],[-26,13],[-5,12],[-40,14],[-22,21]],[[767,1251],[71,54]],[[1520,1187],[-46,1],[-21,-14],[-49,-11],[-46,-18],[-43,-6],[-53,0]],[[1262,1139],[-25,4],[6,13],[42,6],[-24,20]],[[1261,1182],[16,5],[11,16],[-13,16],[35,9],[15,14],[-12,9],[-8,22],[-26,-12],[-46,23],[16,10],[0,21],[-42,-7]],[[1207,1308],[-8,2]],[[1207,1308],[-10,-53],[-9,-14],[8,-23],[18,3],[7,18],[20,-2],[-15,-23],[35,-32]],[[1262,1139],[27,-33],[-42,-9],[-5,-9],[-29,8],[-17,-17]],[[1196,1079],[-55,5],[-77,-5],[-25,1],[-28,-14],[-15,2],[-48,-10],[-10,-7],[-32,1],[-17,-18]],[[889,1034],[-35,15],[-30,5],[-26,18],[-25,-3],[-37,9],[-20,14],[-25,-11]],[[691,1081],[19,17],[-39,37],[24,32],[-13,6],[-41,-9],[-15,3],[-21,36],[2,13],[19,18],[20,4],[38,-3],[5,8],[50,-9],[28,17]],[[1186,944],[28,5]],[[1214,949],[-28,-5]],[[995,986],[-23,-11],[-31,5],[-31,15],[43,1],[42,-10]],[[598,1027],[-51,-7],[29,19],[22,-12]],[[691,1081],[-5,-13],[49,-15],[33,-15],[62,-13],[55,-31],[20,-17],[36,-11],[30,-14],[55,-1],[20,21],[-55,20],[-59,16],[-41,7],[-18,13],[16,6]],[[1196,1079],[16,-19],[51,-10],[6,-16],[4,-43],[-7,-21]],[[1266,970],[-67,-17],[-28,-2],[-61,13],[-62,7],[-2,-23]],[[1046,948],[-10,-5]],[[1036,943],[-26,-9],[-11,-14],[-18,-6],[-58,-10],[-49,6],[-12,13],[-31,9],[-32,-1]],[[799,931],[-2,1]],[[797,932],[0,14],[-44,11],[-52,4],[-37,31],[-2,36],[-31,23],[-40,1],[-52,-9],[-28,-13],[-14,-23],[-13,-2]],[[484,1005],[-3,2]],[[481,1007],[26,24],[-10,21],[5,11],[88,26],[52,9],[36,-25],[13,8]],[[1642,1070],[-64,7],[-47,-9],[-43,-20],[-49,1],[-42,-18],[-18,-26],[-61,-31]],[[1318,974],[-32,-6]],[[1286,968],[-7,-2]],[[1279,966],[-1,0]],[[1278,966],[-12,4]],[[161,656],[29,-2],[37,-17],[56,-12],[46,-5],[36,-21],[66,0],[18,-12],[60,-2],[50,25],[38,6],[13,19],[6,21],[44,-6],[35,-35],[60,-5],[26,0],[34,12],[33,1],[29,-26],[-69,-55],[-108,-50],[-52,-1],[-47,-26],[-73,-16],[3,23],[-29,-12],[-39,-2],[-30,5],[-2,32],[6,10],[-39,13],[-62,7],[-36,14],[-17,-2],[-50,16],[-15,-16],[-13,8],[-48,-9],[13,-41],[-78,-4],[-43,15],[-37,35],[7,10],[-19,13],[27,19],[-11,15],[-4,23],[61,20],[9,-4],[79,19]],[[484,1005],[-16,-17],[24,-1],[38,6],[26,-13],[59,2],[9,-15],[25,-15],[8,-16],[29,-2],[48,-18],[17,11],[46,5]],[[799,931],[12,-28],[32,-15],[36,-5]],[[879,883],[-23,-6],[-22,-19],[0,-15],[36,-30],[8,-21],[-17,-38],[57,-80],[-12,-9],[4,-32],[9,-8]],[[919,625],[-34,-1],[-11,20],[-35,12],[-40,-12],[-50,8],[-45,11],[-12,16],[-17,2],[-58,30],[-54,-17],[5,-11],[-25,-39],[-25,2],[-18,-6],[-46,-5],[-57,29],[-20,-4],[-14,15],[-29,18],[-34,13],[-18,-13],[-65,-5],[-48,24],[-31,31],[-36,16],[-27,18],[5,14],[114,48],[47,4],[35,-5],[47,11],[2,23],[15,16],[16,3],[8,21],[-33,15],[-10,29],[31,24],[54,12],[49,-2],[26,17]],[[449,946],[-53,-22],[-29,-6],[-11,-34],[-27,-13],[-5,-21],[33,-9],[59,5],[25,8],[36,1],[34,-10],[45,33],[-24,4],[-13,34],[-20,11],[-32,6],[-18,13]],[[739,916],[0,-19],[-26,-16],[-21,-1],[-43,-14],[-39,-3],[-28,20],[-26,-5],[-45,-33],[23,-24],[5,-12],[-24,-5],[-5,-15],[59,4],[13,-19],[17,6],[43,-10],[43,-18],[13,-21],[37,-36],[40,-15],[20,2],[28,11],[42,-5],[-1,25],[-8,28],[-37,10],[-13,21],[-87,2],[-28,28],[-44,23],[-21,5],[6,12],[34,4],[51,16],[51,0],[-27,20],[21,21],[32,1],[8,15],[-10,8],[-41,-4],[-12,-7]],[[349,766],[18,9],[-37,30],[-33,13],[-11,-9],[26,-10],[13,-20],[24,-13]],[[1214,949],[-28,-5]],[[1402,751],[-31,-18],[-36,-32],[-26,-8],[3,-18],[-40,0],[-55,7],[-40,-10],[-5,27],[18,23],[-10,9],[-51,-5],[-45,-8],[-57,-20],[12,-7],[-5,-34],[40,-33],[-10,-10],[-37,-11],[-44,4],[-6,20],[-58,-2]],[[879,883],[80,12],[33,2],[38,21],[6,25]],[[1046,948],[22,-2],[64,-14],[37,2],[75,12],[34,20]],[[1279,966],[7,2]],[[1318,974],[23,-3],[35,15],[30,22],[58,-5],[29,2],[-9,-43],[31,7],[45,0],[15,-43],[0,-26],[-23,-22],[4,-31],[-50,-19],[-1,-22],[-32,-7],[-61,-23],[-23,-12],[13,-13]],[[1770,987],[-46,-16],[27,-13],[-7,-37],[4,-36],[39,5],[47,-2],[19,-23],[44,9],[21,-21],[-28,-14],[-2,-11],[27,-26]],[[1915,802],[-20,-13],[-9,-14],[7,-16],[-23,-11],[-8,-26],[-10,-7],[-19,-36],[-89,-1]],[[1744,678],[-23,42],[-33,0],[-24,11],[-11,-10],[-7,-27],[-41,-23],[-34,-26],[-43,21],[-97,-8],[-18,6],[-4,16],[20,2],[42,-10],[-6,26],[17,30],[-19,4],[-6,12],[-55,7]],[[2046,797],[-16,-4],[-44,0],[-11,7],[-25,-5],[-35,7]],[[1996,1004],[85,10],[24,-39],[11,3],[18,-23],[-32,-16],[-15,-26],[-39,-16],[-26,-4],[-5,-10],[20,-28],[-14,-10],[18,-24],[5,-24]],[[2506,1007],[16,-8],[5,-22],[15,-8],[55,-11],[10,-33],[-2,-19],[9,-11],[48,-24],[6,-26],[14,-14],[-8,-30],[-28,18],[-69,-16],[-28,-2],[-16,8],[-53,6]],[[2480,815],[-37,13],[-14,19],[-88,-14],[-48,-2],[1,-12],[-30,-17],[-38,10],[-51,-5],[14,-20],[-22,-16],[-25,-1],[-13,21],[-64,-8],[-19,14]],[[2480,815],[15,-62],[8,-12],[11,-42],[59,-65],[-57,-32],[-34,-6]],[[2482,596],[-168,-32],[-46,-41],[-7,-45],[-53,-8]],[[2208,470],[-11,23],[3,18],[-42,33],[-33,5],[-18,-15],[-23,-3],[-25,-20],[-71,14],[-10,-13],[-40,-2],[-33,6],[-25,-6],[-12,7],[16,37],[-42,18],[-37,-13],[-29,6],[-2,31],[-61,46],[31,36]],[[2595,997],[2,-10],[39,0],[51,-21],[-19,-8],[11,-36],[51,-13],[29,-3],[-26,-51],[30,-13],[10,-12],[26,-14],[20,-28],[23,-12],[12,-14],[1,-22],[11,-16],[-19,-75],[21,-40],[-36,-21],[-21,-6],[-15,-26],[-25,-21],[-4,-11],[-52,-32]],[[2715,492],[-22,10],[-13,-7],[-32,13],[2,19],[-53,22],[-47,13],[-56,8],[-20,17],[8,9]],[[2715,492],[13,-20],[-18,-2],[5,-38],[9,-11],[31,3],[52,19],[16,-8],[-42,-13],[36,-15],[-12,-9],[-37,-4],[-34,-10],[-16,-16],[-40,-22],[-26,-6],[-40,-30],[-2,-16],[-30,-10],[-25,32],[-46,-21],[10,-14]],[[2519,281],[-24,-3],[-4,17],[-22,2],[-3,19],[-25,-7]],[[2441,309],[5,17],[-9,13],[29,2],[10,8],[-24,18],[30,13],[16,14],[-32,23],[-46,-17],[-11,33],[-27,3],[-32,-5],[-50,3],[-12,15],[-80,21]],[[2519,281],[2,-14],[27,-16],[-9,-27],[58,13],[11,-8],[51,3],[1,-48],[64,-13],[-7,-29],[13,-21],[-11,-11],[-58,-15],[6,-32],[-21,-13],[-19,9],[-10,-12],[53,-24],[-7,-20],[-47,1],[-5,6],[-38,-4],[-10,-6],[-31,5],[-4,14],[-41,-5],[-38,-9],[-30,27],[-30,-13],[-52,-15],[-12,6],[14,14],[-3,37],[-38,12],[-17,22],[5,25],[39,18],[15,21],[27,1],[1,10],[30,37],[-36,4],[46,36],[10,24],[-18,12],[21,29],[20,-3]],[[2506,1770],[-1,1]],[[2485,1861],[53,7]],[[2625,1908],[-19,-19],[-132,-26],[-169,0],[-8,-16],[101,-15],[57,-5],[45,-31]],[[2499,1794],[0,-26],[-9,-25],[-31,-36]],[[2459,1707],[-20,-18],[-50,-24],[-27,1],[-59,-18],[-36,-18],[-10,-17]],[[2256,1612],[-50,6],[-26,-18],[15,-16],[0,-13],[-24,-46],[-58,-11]],[[2112,1513],[-68,-10],[-88,50]],[[1955,1553],[-28,14],[-64,17],[-37,1],[-45,-10]],[[1780,1576],[-9,57],[33,17],[96,35],[120,52],[17,4],[40,20],[-9,19],[1,8],[11,17],[8,6],[21,11],[-12,22],[-56,55],[-39,25],[-55,16],[-18,0]],[[1929,1941],[15,1],[52,-14],[7,-4],[39,-25],[56,-55],[13,-24],[-29,-14],[-12,-18],[20,-3],[8,15],[45,6],[58,36],[69,13],[24,12],[-36,34],[-23,12],[2,100],[65,65],[53,10]]],"transform":{"scale":[0.001,0.0009996433666191172],"translate":[3.358,50.751]},"objects":{"coropsubgebied_2026":{"type":"GeometryCollection","geometries":[{"arcs":[[0,1,2,3,4]],"type":"Polygon","properties":{"statcode":"CS010","jrstatcode":"2026CS010","statnaam":"Oost-Groningen","rubriek":"coropsubgebied","id":1,"FID":"coropsubgebied_gegeneraliseerd.96339b22-0861-4cdc-95a2-cbc756d8fe30"},"id":"CS010"},{"arcs":[[-5,5,6]],"type":"Polygon","properties":{"statcode":"CS020","jrstatcode":"2026CS020","statnaam":"Delfzijl en omgeving","rubriek":"coropsubgebied","id":2,"FID":"coropsubgebied_gegeneraliseerd.0dd2588d-67d7-4a4e-b94f-74f00bc11288"},"id":"CS020"},{"arcs":[[[-6,-4,7,8,9,10,11]],[[12]]],"type":"MultiPolygon","properties":{"statcode":"CS030","jrstatcode":"2026CS030","statnaam":"Overig Groningen","rubriek":"coropsubgebied","id":3,"FID":"coropsubgebied_gegeneraliseerd.e2fdeb53-8c15-46dc-87bd-8d6c7b2205f5"},"id":"CS030"},{"arcs":[[[13]],[[14]],[[15,-10,16,17,18]],[[19]],[[20]],[[21]]],"type":"MultiPolygon","properties":{"statcode":"CS040","jrstatcode":"2026CS040","statnaam":"Noord-Friesland","rubriek":"coropsubgebied","id":4,"FID":"coropsubgebied_gegeneraliseerd.ec2a0d47-2b83-4a59-bf2c-e8b7875f5b73"},"id":"CS040"},{"arcs":[[22,23,24,25,26,27,-18]],"type":"Polygon","properties":{"statcode":"CS050","jrstatcode":"2026CS050","statnaam":"Zuidwest-Friesland","rubriek":"coropsubgebied","id":5,"FID":"coropsubgebied_gegeneraliseerd.899f77f1-952b-405f-a8dc-a6bac8a03b4d"},"id":"CS050"},{"arcs":[[28,29,30,-23,-17,-9]],"type":"Polygon","properties":{"statcode":"CS060","jrstatcode":"2026CS060","statnaam":"Zuidoost-Friesland","rubriek":"coropsubgebied","id":6,"FID":"coropsubgebied_gegeneraliseerd.6c77655e-b81d-4f8e-8262-cf6d3cb40220"},"id":"CS060"},{"arcs":[[-3,31,32,-29,-8]],"type":"Polygon","properties":{"statcode":"CS070","jrstatcode":"2026CS070","statnaam":"Noord-Drenthe","rubriek":"coropsubgebied","id":7,"FID":"coropsubgebied_gegeneraliseerd.3d4af41f-d546-4bb5-9576-f3e484b069d6"},"id":"CS070"},{"arcs":[[33,34,35,-32,-2]],"type":"Polygon","properties":{"statcode":"CS080","jrstatcode":"2026CS080","statnaam":"Zuidoost-Drenthe","rubriek":"coropsubgebied","id":8,"FID":"coropsubgebied_gegeneraliseerd.b94d9e6f-d068-40a1-9769-e89885177a10"},"id":"CS080"},{"arcs":[[-33,-36,36,-30]],"type":"Polygon","properties":{"statcode":"CS090","jrstatcode":"2026CS090","statnaam":"Zuidwest-Drenthe","rubriek":"coropsubgebied","id":9,"FID":"coropsubgebied_gegeneraliseerd.e7eb2559-2653-4fcc-a2c7-e12c5ecf941f"},"id":"CS090"},{"arcs":[[-35,37,38,39,40,41,42,43,44,45,46,47,48,-24,-31,-37]],"type":"Polygon","properties":{"statcode":"CS100","jrstatcode":"2026CS100","statnaam":"Noord-Overijssel","rubriek":"coropsubgebied","id":10,"FID":"coropsubgebied_gegeneraliseerd.ef6c69b0-ee88-4852-b576-ad63a6b83ea7"},"id":"CS100"},{"arcs":[[49,50,51,-40]],"type":"Polygon","properties":{"statcode":"CS110","jrstatcode":"2026CS110","statnaam":"Zuidwest-Overijssel","rubriek":"coropsubgebied","id":11,"FID":"coropsubgebied_gegeneraliseerd.072edb15-9439-49d5-81d1-607aa4fab692"},"id":"CS110"},{"arcs":[[52,53,-50,-39]],"type":"Polygon","properties":{"statcode":"CS120","jrstatcode":"2026CS120","statnaam":"Twente","rubriek":"coropsubgebied","id":12,"FID":"coropsubgebied_gegeneraliseerd.f671f133-5825-4892-b88d-b82b5febb731"},"id":"CS120"},{"arcs":[[-52,54,55,56,57,58,59,60,61,62,63,-41]],"type":"Polygon","properties":{"statcode":"CS130","jrstatcode":"2026CS130","statnaam":"Veluwe","rubriek":"coropsubgebied","id":13,"FID":"coropsubgebied_gegeneraliseerd.bf3da93f-c969-40ac-ae24-48e9065fb278"},"id":"CS130"},{"arcs":[[64,65,-55,-51,-54]],"type":"Polygon","properties":{"statcode":"CS140","jrstatcode":"2026CS140","statnaam":"Achterhoek","rubriek":"coropsubgebied","id":14,"FID":"coropsubgebied_gegeneraliseerd.6ccfa3e4-9306-44ac-8c8f-9774f80a523b"},"id":"CS140"},{"arcs":[[66,67,68,69,-56,-66]],"type":"Polygon","properties":{"statcode":"CS150","jrstatcode":"2026CS150","statnaam":"Arnhem/Nijmegen","rubriek":"coropsubgebied","id":15,"FID":"coropsubgebied_gegeneraliseerd.642af73f-f869-452c-b43d-6edae55cf5b3"},"id":"CS150"},{"arcs":[[-57,-70,70,71,72,73,74]],"type":"Polygon","properties":{"statcode":"CS160","jrstatcode":"2026CS160","statnaam":"Zuidwest-Gelderland","rubriek":"coropsubgebied","id":16,"FID":"coropsubgebied_gegeneraliseerd.f0b49e0c-0fcd-464d-b61c-d9974ead2744"},"id":"CS160"},{"arcs":[[75,76,-58,-75,77,78,79,80]],"type":"Polygon","properties":{"statcode":"CS170","jrstatcode":"2026CS170","statnaam":"Utrecht","rubriek":"coropsubgebied","id":17,"FID":"coropsubgebied_gegeneraliseerd.efb30d58-b008-431b-a1e7-27f6628884be"},"id":"CS170"},{"arcs":[[[81]],[[82,83,84,85,86,-27,87]],[[88]]],"type":"MultiPolygon","properties":{"statcode":"CS180","jrstatcode":"2026CS180","statnaam":"Kop van Noord-Holland","rubriek":"coropsubgebied","id":18,"FID":"coropsubgebied_gegeneraliseerd.593b61e2-35e6-455a-9445-40dccfe35e06"},"id":"CS180"},{"arcs":[[89,90,91,92,-86]],"type":"Polygon","properties":{"statcode":"CS190","jrstatcode":"2026CS190","statnaam":"Alkmaar en omgeving","rubriek":"coropsubgebied","id":19,"FID":"coropsubgebied_gegeneraliseerd.2676f5ee-5125-4d67-93ea-2850ffa4e7ee"},"id":"CS190"},{"arcs":[[93,94,95,96,-92]],"type":"Polygon","properties":{"statcode":"CS200","jrstatcode":"2026CS200","statnaam":"IJmond","rubriek":"coropsubgebied","id":20,"FID":"coropsubgebied_gegeneraliseerd.09c8964c-5390-4878-b43d-d298bc8e85d8"},"id":"CS200"},{"arcs":[[97,98,99,-96]],"type":"Polygon","properties":{"statcode":"CS210","jrstatcode":"2026CS210","statnaam":"Agglomeratie Haarlem","rubriek":"coropsubgebied","id":21,"FID":"coropsubgebied_gegeneraliseerd.4042c71c-ddae-4aa6-b3cf-2c95413341b3"},"id":"CS210"},{"arcs":[[100,101,-94,-91,102]],"type":"Polygon","properties":{"statcode":"CS220","jrstatcode":"2026CS220","statnaam":"Zaanstreek","rubriek":"coropsubgebied","id":22,"FID":"coropsubgebied_gegeneraliseerd.ecb0d672-af73-4448-a787-f79baa3506bd"},"id":"CS220"},{"arcs":[[[103,-81,104]],[[105,106,107,108,109,-101]]],"type":"MultiPolygon","properties":{"statcode":"CS231","jrstatcode":"2026CS231","statnaam":"Amsterdam","rubriek":"coropsubgebied","id":23,"FID":"coropsubgebied_gegeneraliseerd.ea8a850d-3af8-4acf-acd2-e1f7fbeebd87"},"id":"CS231"},{"arcs":[[[110,-108,111,112,-105,-80,113,114,-98,-95,-102,-110]],[[115,-106,-103,-90,-85]]],"type":"MultiPolygon","properties":{"statcode":"CS232","jrstatcode":"2026CS232","statnaam":"Overig Groot-Amsterdam","rubriek":"coropsubgebied","id":24,"FID":"coropsubgebied_gegeneraliseerd.0a83ec0f-d843-415d-a6bb-611fa75fcb29"},"id":"CS232"},{"arcs":[[116,117,118,119,-76,-104,-113,120]],"type":"Polygon","properties":{"statcode":"CS240","jrstatcode":"2026CS240","statnaam":"Het Gooi en Vechtstreek","rubriek":"coropsubgebied","id":25,"FID":"coropsubgebied_gegeneraliseerd.36269a97-82e0-4ec0-b27a-d75a70841d18"},"id":"CS240"},{"arcs":[[-115,121,122,123,-99]],"type":"Polygon","properties":{"statcode":"CS250","jrstatcode":"2026CS250","statnaam":"Agglomeratie Leiden en Bollenstreek","rubriek":"coropsubgebied","id":26,"FID":"coropsubgebied_gegeneraliseerd.05d316bf-a9c8-4488-b100-389cd9536fbb"},"id":"CS250"},{"arcs":[[124,125,126,127,-123]],"type":"Polygon","properties":{"statcode":"CS260","jrstatcode":"2026CS260","statnaam":"Agglomeratie 's-Gravenhage","rubriek":"coropsubgebied","id":27,"FID":"coropsubgebied_gegeneraliseerd.48f4bc6a-964c-45f8-aab1-ab557d4ae012"},"id":"CS260"},{"arcs":[[-127,128,129]],"type":"Polygon","properties":{"statcode":"CS270","jrstatcode":"2026CS270","statnaam":"Delft en Westland","rubriek":"coropsubgebied","id":28,"FID":"coropsubgebied_gegeneraliseerd.bd20b05e-9cbb-4268-bfc2-3d43a5818c07"},"id":"CS270"},{"arcs":[[130,131,132,133,-125,-122,-114,-79]],"type":"Polygon","properties":{"statcode":"CS280","jrstatcode":"2026CS280","statnaam":"Oost-Zuid-Holland","rubriek":"coropsubgebied","id":29,"FID":"coropsubgebied_gegeneraliseerd.51aa0d6b-0725-4ac3-89ea-12da0c5681ff"},"id":"CS280"},{"arcs":[[134,-132,135,136,137,138,-129,-126,-134]],"type":"Polygon","properties":{"statcode":"CS291","jrstatcode":"2026CS291","statnaam":"Rijnmond","rubriek":"coropsubgebied","id":30,"FID":"coropsubgebied_gegeneraliseerd.aeffbc91-10cc-44f2-b291-5064ec29c546"},"id":"CS291"},{"arcs":[[[141]],[[142]],[[143,-137,144,145,146,147,148,149,150,151]],[[-135,-133]]],"type":"MultiPolygon","properties":{"statcode":"CS292","jrstatcode":"2026CS292","statnaam":"Overig Groot-Rijnmond","rubriek":"coropsubgebied","id":31,"FID":"coropsubgebied_gegeneraliseerd.e6b6dff8-3714-4561-bb49-af8ad0e43b80"},"id":"CS292"},{"arcs":[[-74,152,153,154,155,156,-145,-136,-131,-78]],"type":"Polygon","properties":{"statcode":"CS300","jrstatcode":"2026CS300","statnaam":"Zuidoost-Zuid-Holland","rubriek":"coropsubgebied","id":32,"FID":"coropsubgebied_gegeneraliseerd.14b844b8-0935-43bb-ace8-edd5ab0e42f6"},"id":"CS300"},{"arcs":[[157]],"type":"Polygon","properties":{"statcode":"CS310","jrstatcode":"2026CS310","statnaam":"Zeeuwsch-Vlaanderen","rubriek":"coropsubgebied","id":33,"FID":"coropsubgebied_gegeneraliseerd.0e92d431-2b59-410e-8b13-0bad6f293e69"},"id":"CS310"},{"arcs":[[158,-149,159,160,161,-151],[162],[163],[164]],"type":"Polygon","properties":{"statcode":"CS320","jrstatcode":"2026CS320","statnaam":"Overig Zeeland","rubriek":"coropsubgebied","id":34,"FID":"coropsubgebied_gegeneraliseerd.e5531d33-488d-497f-bfd6-6e34c46d7011"},"id":"CS320"},{"arcs":[[166,-161,167,-147,168,-156,169,-154,170]],"type":"Polygon","properties":{"statcode":"CS330","jrstatcode":"2026CS330","statnaam":"West-Noord-Brabant","rubriek":"coropsubgebied","id":35,"FID":"coropsubgebied_gegeneraliseerd.bef6d748-fb63-4c92-aaa3-e1b6bbf7bd20"},"id":"CS330"},{"arcs":[[-73,171,172,173,-171,-153]],"type":"Polygon","properties":{"statcode":"CS340","jrstatcode":"2026CS340","statnaam":"Midden-Noord-Brabant","rubriek":"coropsubgebied","id":36,"FID":"coropsubgebied_gegeneraliseerd.2bb6a1b7-ef1c-4337-8834-1eb89e482feb"},"id":"CS340"},{"arcs":[[174,-172,-72,175]],"type":"Polygon","properties":{"statcode":"CS351","jrstatcode":"2026CS351","statnaam":"Stadsgewest 's-Hertogenbosch","rubriek":"coropsubgebied","id":37,"FID":"coropsubgebied_gegeneraliseerd.f53060ab-ab96-450b-919f-6d0fbff07d6f"},"id":"CS351"},{"arcs":[[-69,176,177,-176,-71]],"type":"Polygon","properties":{"statcode":"CS352","jrstatcode":"2026CS352","statnaam":"Overig Noordoost-Noord-Brabant","rubriek":"coropsubgebied","id":38,"FID":"coropsubgebied_gegeneraliseerd.67be7d92-03b8-4332-a0bf-871ac0fba7dd"},"id":"CS352"},{"arcs":[[178,179,180,-173,-175,-178]],"type":"Polygon","properties":{"statcode":"CS360","jrstatcode":"2026CS360","statnaam":"Zuidoost-Noord-Brabant","rubriek":"coropsubgebied","id":39,"FID":"coropsubgebied_gegeneraliseerd.a14cc37d-a57d-4a98-837d-77d7b7aa3ba3"},"id":"CS360"},{"arcs":[[181,182,-179,-177,-68]],"type":"Polygon","properties":{"statcode":"CS370","jrstatcode":"2026CS370","statnaam":"Noord-Limburg","rubriek":"coropsubgebied","id":40,"FID":"coropsubgebied_gegeneraliseerd.6258c145-12ea-422e-a121-3d75a57bc2d8"},"id":"CS370"},{"arcs":[[183,184,185,-180,-183]],"type":"Polygon","properties":{"statcode":"CS380","jrstatcode":"2026CS380","statnaam":"Midden-Limburg","rubriek":"coropsubgebied","id":41,"FID":"coropsubgebied_gegeneraliseerd.db699731-c204-499e-980b-d5c6b583235c"},"id":"CS380"},{"arcs":[[186,-185]],"type":"Polygon","properties":{"statcode":"CS390","jrstatcode":"2026CS390","statnaam":"Zuid-Limburg","rubriek":"coropsubgebied","id":42,"FID":"coropsubgebied_gegeneraliseerd.26a933f4-056c-4cd0-b03f-a96f07ffd8ed"},"id":"CS390"},{"arcs":[[-49,189,-45,190,191,-62,192,-60,193,-119,194,-117,195,-83,196,-25]],"type":"Polygon","properties":{"statcode":"CS400","jrstatcode":"2026CS400","statnaam":"Flevoland","rubriek":"coropsubgebied","id":43,"FID":"coropsubgebied_gegeneraliseerd.149f8eb0-31f3-483a-9f6f-39ff9678c4a7"},"id":"CS400"}]}}}