{"type":"Topology","arcs":[[[3553,2494],[18,-6],[23,19],[45,11],[25,-14],[19,7],[27,-18],[23,15]],[[3733,2508],[117,-21],[10,-38],[-39,-59],[24,-26],[-4,-32],[14,-70],[-31,-69],[-78,-78],[-11,-26]],[[3735,2089],[-21,7],[-32,28],[-25,0],[31,43],[-31,9],[-79,68]],[[3578,2244],[-122,78]],[[3456,2322],[-20,66],[23,13],[0,48],[68,28],[26,17]],[[3553,2494],[-2,36],[-22,19],[-41,-8],[-32,8],[-42,-6],[-63,18],[-19,-12],[-52,17],[-18,-1],[-24,33],[35,16],[66,0],[82,48],[13,-7],[52,18],[30,-14]],[[3516,2659],[14,-12],[9,-40],[33,-29],[80,-21],[74,-8],[-5,-33],[12,-8]],[[2957,2345],[-53,20],[-57,2],[-29,19],[1,24]],[[2819,2410],[23,39],[30,20],[-12,24],[38,29],[-3,17],[26,15],[8,38]],[[2929,2592],[-27,8],[-11,0],[-14,-5],[-14,22],[-41,30],[11,15]],[[2833,2662],[70,3],[45,-18],[76,21],[134,11],[88,15],[64,16],[77,7],[52,-11],[17,8],[67,-21],[-7,-34]],[[3456,2322],[-77,48],[-42,2],[-60,-15],[-8,17],[-46,41],[-17,-6],[-34,37],[-46,9],[-78,-27],[-23,-27],[-39,-63],[-29,7]],[[2802,2609],[74,-16],[20,6],[33,-7]],[[2819,2410],[-55,-14],[-37,14],[-72,-4],[-70,-31],[-15,-15],[-46,-2],[13,-28],[38,-1],[14,-16],[-4,-21],[-40,-14],[-36,-3],[-16,15],[-44,-11],[-48,-1],[-4,20]],[[2397,2298],[-57,27],[-59,-7],[-40,1],[-11,16],[-61,30],[27,16],[-23,18],[-33,-7],[-63,12],[-23,-1]],[[2054,2403],[7,27],[29,41],[35,21],[45,17],[59,42],[67,20],[28,4],[186,57],[12,7],[53,0],[83,15],[78,5],[45,-4],[38,11],[14,-4]],[[2833,2662],[-30,-3],[-1,-50]],[[2799,2609],[3,0]],[[2802,2609],[-3,0]],[[1899,2624],[-36,-9],[-30,-17],[-39,9],[47,39],[198,31],[114,22],[34,-14],[-64,-16],[-26,-14],[-48,1],[-114,-35],[-36,3]],[[2304,2718],[26,-7],[97,1],[164,7],[-144,-30],[-75,5],[-62,-23],[-48,16],[9,28],[33,3]],[[2869,2730],[-69,-8],[-22,18],[54,15],[106,5],[-40,-31],[-29,1]],[[1736,2547],[-32,-3],[-90,-28],[5,-12],[-44,-16],[-23,-22],[-36,-1],[-20,9],[70,28],[36,20],[66,27],[35,10],[33,-12]],[[2462,2068],[-25,-10]],[[2437,2058],[-46,33],[-36,-2]],[[2355,2089],[-56,6],[-12,16],[-27,-9],[-33,-2],[-40,-16],[-92,22],[-27,-7],[-64,26],[7,24],[37,12],[-5,29],[13,24],[-15,29],[-1,32],[-20,30],[17,7],[-16,47],[25,14],[8,30]],[[2397,2298],[-18,-17],[12,-22],[-62,-26],[1,-46],[-46,0],[-2,-14],[24,-34],[35,12],[61,-12],[83,15],[40,-14],[-26,-18],[-37,-54]],[[1809,2250],[-1,1]],[[1808,2251],[1,-1]],[[2957,2345],[-10,-13],[63,-14],[-5,-33],[65,-62],[-35,-39],[-24,-11]],[[3011,2173],[-36,-16],[-30,19],[-46,3],[-51,-37],[-86,-37]],[[2762,2105],[-89,-39],[-45,7],[-13,20],[-43,-7],[-6,-11],[-45,-23],[-40,5],[-19,11]],[[3229,1987],[-29,9],[8,21],[-53,-4],[-22,9],[1,22],[-37,8],[25,36],[-49,13],[-11,32],[-60,13],[25,21],[-16,6]],[[3578,2244],[-97,-15],[-50,-15],[-61,-8],[-1,-40],[9,-36],[-21,-11],[13,-14],[-53,-57],[-14,4],[-74,-65]],[[3735,2089],[-21,-28],[-17,-163],[-13,-14],[-66,13],[-37,-8],[-42,13],[-75,-3],[-45,4],[-35,-7],[-32,-17]],[[3352,1879],[-2,21],[-79,21]],[[3271,1921],[1,43],[-34,0],[-9,23]],[[3271,1921],[-14,4],[-62,-8],[-39,-20],[5,-32],[-55,10],[-11,-10],[-47,7],[-22,-7],[-22,31],[-36,15],[-74,10],[-8,9],[-42,6],[-38,-5],[-44,70],[37,13],[45,31],[-82,60]],[[2470,1829],[16,33]],[[2486,1862],[52,7]],[[2538,1869],[22,-5],[40,12],[32,0],[31,16],[-39,18]],[[2624,1910],[-48,17],[31,18],[-22,21],[-21,36],[-72,34],[-31,0],[-24,22]],[[3352,1879],[17,-13],[-8,-26],[48,-25],[-40,-1],[-11,-14],[-35,4],[24,-32],[-7,-35]],[[3340,1737],[-29,9],[-28,-24],[-30,-4],[-10,12],[-95,12],[-2,-9],[-56,-17],[-18,-26],[-40,-11]],[[3032,1679],[-46,-3],[-52,11],[-14,21],[-42,9],[-92,2],[-4,-26],[-30,-1]],[[2752,1692],[-11,29],[-44,30],[-27,10],[-21,-6],[-42,-28],[-39,-2],[-16,23],[-27,22],[-17,0]],[[2508,1770],[-9,33],[-27,25]],[[2472,1828],[-2,1]],[[3024,1497],[-31,-4],[-12,-15],[-41,-1],[-132,5]],[[2808,1482],[-19,-3],[-23,24],[6,9],[-31,39],[-28,22],[11,50],[42,9],[6,18],[-19,9],[-1,33]],[[3032,1679],[15,-12],[-17,-36],[-45,-10],[-9,-19],[22,-33],[-29,-16],[2,-21],[46,-25],[7,-10]],[[3340,1737],[77,-26],[79,0],[8,-9],[80,-16],[52,30],[17,-36],[25,-26],[19,-2],[17,-28],[0,-21],[-46,-60],[2,-14],[33,-43],[-80,-14],[-30,-40],[-35,-3],[-34,-22],[-10,-27],[-17,-10],[-94,-1]],[[3403,1369],[-45,-1],[-54,12],[12,13],[-3,24],[-26,8],[-33,-11],[-21,19],[-36,-5],[-76,5],[-50,41],[-13,19],[-34,4]],[[2046,1498],[121,17],[12,9],[24,45],[77,46]],[[2280,1615],[78,24],[94,47],[30,31],[26,53]],[[2808,1482],[23,-14],[-32,-19],[35,-20],[-7,-17],[-25,0],[-84,-18],[-24,-20],[-43,-50]],[[2651,1324],[-63,4],[-47,-28],[-49,2],[-37,-28],[-68,-4],[-21,-19],[-10,-33],[-48,-15]],[[2308,1203],[-28,-16],[-32,6]],[[2248,1193],[21,9],[-1,22],[-34,27],[-5,30],[-29,18],[5,29],[-9,22],[-31,-22],[-39,-8],[-24,12],[26,12],[12,36],[-25,35],[-33,7],[-1,30],[-46,20],[11,26]],[[2810,1151],[-77,38],[-1,29],[70,13],[1,33],[15,25],[-60,10],[21,10],[-34,19],[-35,10],[-44,-21],[-15,7]],[[3403,1369],[-10,-34],[-16,-10],[-40,-5],[-7,-30],[26,0],[39,-12],[74,-34],[1,-30],[-29,-5],[-5,-24],[-24,-19],[-48,-20],[-47,20],[-37,-12],[-86,-18],[-80,-32],[-21,11],[-60,9],[17,-20],[-19,-21],[-25,2],[-19,16],[-39,-2],[-8,17],[-83,2],[-31,15],[-16,18]],[[2810,1151],[-42,-3],[19,-28],[22,-9],[0,-20],[-60,7],[-44,17],[-8,-13],[-61,-21],[-31,6],[-18,-14],[34,-25],[11,-32],[-38,-21]],[[2594,995],[-37,8],[-22,25],[-24,-2],[-5,-18]],[[2506,1008],[-84,-6],[-35,7],[-91,42],[-12,16],[-44,11]],[[2240,1078],[-13,11],[-17,38],[9,15],[49,7],[81,-6],[-1,15],[-46,22],[6,23]],[[2240,1078],[-40,0],[-17,-12],[-55,13],[-21,-18],[-26,-1],[-37,11],[-33,-31],[-15,-35]],[[1996,1005],[-58,-18],[-51,-3],[-23,9],[-94,-5]],[[1770,988],[10,35],[-42,15],[-32,-5],[-16,15],[-48,23]],[[1642,1071],[26,-2],[5,22],[25,32],[57,15],[36,46]],[[1791,1184],[31,33],[26,-8],[41,18],[23,-12],[63,-8],[15,11],[35,1],[59,17],[44,-2],[54,-17],[21,-12],[45,-12]],[[1791,1184],[-61,16],[-34,27],[-32,-7],[-24,8],[-30,-19],[-28,4],[-24,-20],[-38,-5]],[[1520,1188],[-18,30],[-57,46],[27,36],[38,13],[-42,12],[-1,32],[-31,15],[38,22],[43,-5],[-1,18],[-61,46],[-18,25]],[[1437,1478],[48,8],[40,19],[28,-1],[18,17],[26,8]],[[1597,1529],[42,11],[25,13]],[[1664,1553],[21,-20],[-16,-18],[29,-29],[-19,-10],[9,-59],[75,15],[71,-3],[25,28],[6,19],[43,57],[40,-4]],[[1948,1529],[51,-8],[47,-23]],[[1662,1863],[-15,-14],[-55,-3],[-23,12]],[[1569,1858],[-43,6],[4,14],[-25,29],[13,30],[23,21],[-41,16],[-52,-9],[-33,5],[-6,-21],[-38,-7],[-39,42],[-41,23]],[[1291,2007],[27,45],[29,69],[14,80],[12,13],[32,2],[38,-12],[-10,-17],[25,-27],[50,-19],[41,4],[32,11],[29,25],[57,6],[24,-12],[65,-78],[-10,-72],[43,-34],[31,0],[15,15],[65,-2],[25,-11],[5,-27],[16,-10],[-34,-18],[-24,-1],[-10,-29],[-38,-20],[-39,-14],[-31,-3],[-39,22],[-37,-1],[-33,-11],[1,-18]],[[1501,2434],[19,-25],[30,-22],[-8,-11],[-3,-47],[-50,-44],[-28,-5],[-37,-28],[-61,-17],[-12,40],[13,40],[15,20],[104,99],[18,0]],[[1809,2250],[-1,1]],[[1569,1858],[-29,-6],[-34,-29],[-71,2],[-11,-17]],[[1424,1808],[-29,6],[-13,16],[-43,0],[-25,8],[-62,-13]],[[1252,1825],[39,182]],[[1203,1689],[4,30],[27,41],[18,65]],[[1424,1808],[0,-37]],[[1424,1771],[-30,-9],[-44,-22],[-33,-33],[48,-23]],[[1365,1684],[-41,-20],[-31,16],[-30,-4],[-60,13]],[[1254,1565],[-29,4],[-19,-9],[-70,19]],[[1136,1579],[58,90],[9,20]],[[1365,1684],[16,-2]],[[1381,1682],[-10,-30],[29,-4],[-1,-19]],[[1399,1629],[-28,8],[-52,-9],[-4,-26],[-42,-13],[-19,-24]],[[1505,1681],[-7,-13],[-117,14]],[[1424,1771],[42,23],[26,-18],[59,-8],[15,-24],[-18,-13],[-43,-11],[-20,-17],[20,-22]],[[1505,1681],[36,-6],[32,-12],[17,10],[52,3],[68,-8]],[[1710,1668],[-39,-19],[-4,-9],[-45,-15],[35,-26]],[[1657,1599],[-16,-6],[-33,12],[-13,-14],[-57,-18],[-77,4],[-63,31],[1,21]],[[1658,1576],[6,-23]],[[1597,1529],[-25,28],[48,25],[20,-17],[18,11]],[[1657,1599],[11,-11]],[[1668,1588],[-10,-12]],[[1437,1478],[-69,-15]],[[1368,1463],[-2,20],[-54,-1],[-37,-15],[-76,3],[11,50],[20,12],[24,33]],[[1662,1863],[11,-44],[55,-64],[-47,-39],[10,-26],[33,-2],[-14,-20]],[[1668,1588],[51,3],[57,-13],[40,-23],[68,7],[55,-18],[9,-15]],[[1368,1463],[-37,-20],[-9,-29],[-39,-1],[-68,-10],[-38,-33],[-4,-39]],[[1173,1331],[-41,17],[-23,31],[-39,-28],[-27,11],[42,33],[-68,43]],[[1017,1438],[70,77],[49,64]],[[839,1304],[63,48],[44,26],[71,60]],[[1173,1331],[26,-20]],[[1199,1311],[-52,-29],[-48,-10],[2,-20],[-51,-34]],[[1050,1218],[-35,65],[-47,-20],[-39,10],[-75,11],[-15,20]],[[1050,1218],[-84,-26],[-31,-21],[-31,6],[-34,21],[-36,7],[-5,12],[-40,14],[-19,20]],[[770,1251],[69,53]],[[1386,1155],[1,27],[-48,-2],[-22,11],[12,27],[48,30],[-55,-1],[-55,18],[-34,20],[16,10],[0,21],[-42,-7]],[[1207,1309],[-8,2]],[[1520,1188],[-46,1],[-31,-17],[-57,-17]],[[1207,1309],[-17,-76],[46,11],[-10,-29],[59,-52],[-42,-6],[19,-17]],[[1262,1140],[20,-28],[-35,-14],[-34,-1],[-17,-17]],[[1196,1080],[-54,5],[-103,-4],[-43,-12],[-91,-16],[-16,-18]],[[889,1035],[-34,15],[-31,5],[-26,17],[-28,-3],[-54,23],[-42,42],[20,29],[-10,10],[-54,-2],[28,31],[-2,29],[33,13],[50,-10],[31,17]],[[1196,1080],[13,-17],[54,-12],[10,-59],[-7,-21]],[[1266,971],[-93,-20],[-62,14],[-54,5],[-69,24],[-97,22],[-2,19]],[[484,1006],[-3,2]],[[481,1008],[26,28],[-8,26],[112,31],[39,0],[28,-19],[128,-44],[29,-6],[52,-30],[18,-16],[67,-25],[74,-4]],[[1046,949],[-9,-5]],[[1037,944],[-22,-1],[-17,-22],[-84,-16],[-39,6],[-44,22],[-32,-1]],[[799,932],[-2,1]],[[797,933],[1,13],[-45,12],[-61,4],[-32,40],[3,26],[-33,24],[-39,1],[-52,-9],[-27,-13],[-28,-25]],[[1386,1155],[-76,-15],[-48,0]],[[933,985],[-11,18],[73,-16],[-16,-11],[-46,9]],[[1210,949],[-24,-4]],[[1186,945],[24,4]],[[1642,1071],[-64,7],[-48,-10],[-34,-17],[-57,-1],[-42,-18],[-18,-26],[-61,-31]],[[1318,975],[-32,-6]],[[1286,969],[-20,2]],[[58,510],[-46,32],[-12,23],[27,19],[-17,36],[62,23],[56,5],[19,9],[41,-2],[43,-18],[98,-16],[37,-22],[47,1],[71,-14],[25,0],[50,25],[37,7],[22,39],[42,-6],[33,-35],[35,-2],[43,-22],[44,5],[7,23],[25,5],[30,-27],[-68,-54],[-109,-51],[-43,2],[-56,-29],[-73,-16],[-26,11],[-70,5],[5,40],[-39,13],[-62,7],[-36,14],[-17,-2],[-50,16],[-76,-17],[13,-41],[-81,-4],[-31,18]],[[696,752],[5,-27],[34,-29],[40,-15],[47,13],[43,-5],[-9,53],[-39,11],[-11,20],[-86,3],[-54,41],[-40,14],[6,12],[34,4],[52,16],[51,0],[-29,26],[18,13],[41,9],[43,-22],[37,-5]],[[879,884],[-39,-16],[-7,-21],[39,-35],[6,-19],[-17,-38],[57,-80],[-12,-9],[13,-40]],[[919,626],[-33,-1],[-12,20],[-33,12],[-42,-12],[-79,13],[-27,22],[-45,10],[-31,22],[-54,-17],[5,-11],[-26,-39],[-88,-9],[-57,29],[-35,11],[-60,33],[-28,-17],[-57,-3],[-43,20],[-36,36],[-34,13],[-29,22],[4,11],[119,48],[25,6],[43,-7],[56,12],[1,21],[33,22],[6,22],[-30,13],[-11,28],[38,30],[55,8],[43,-3],[24,17]],[[484,1006],[-16,-17],[61,5],[25,-13],[61,2],[34,-30],[8,-16],[29,-2],[49,-17],[21,11],[41,4]],[[799,932],[-48,-8],[-13,-27],[-25,-15],[-61,-14],[-42,-4],[-40,15],[-38,4],[-13,34],[-52,17],[-11,14],[-89,-29],[-11,-34],[-29,-16],[0,-21],[39,-6],[89,13],[49,-5],[31,-27],[-25,-33],[59,4],[30,-13],[61,-12],[36,-17]],[[281,838],[-9,-16],[47,-31],[24,-28],[14,22],[-26,21],[-37,15],[-13,17]],[[879,884],[135,22],[20,24],[44,18],[56,-16],[99,13],[53,24]],[[1318,975],[23,-3],[35,15],[30,23],[58,-6],[30,2],[-10,-43],[29,7],[47,0],[15,-43],[0,-26],[-23,-22],[4,-31],[-50,-19],[-1,-22],[-32,-7],[-84,-35],[13,-13]],[[1402,752],[-30,-18],[-37,-32],[-26,-8],[3,-18],[-40,0],[-55,7],[-40,-10],[-5,27],[18,23],[-10,9],[-96,-13],[-57,-20],[-1,-28],[48,-46],[-47,-21],[-44,4],[-7,20],[-57,-2]],[[1210,949],[-24,-4]],[[1046,949],[-9,-5]],[[1915,803],[-38,-22],[-6,-32],[-38,-69],[-89,-1]],[[1744,679],[-23,42],[-68,1],[-7,-27],[-76,-45],[-42,17],[-97,-8],[-20,21],[59,-8],[-5,27],[19,32],[-26,14],[-56,7]],[[1770,988],[-26,-7],[4,-95],[43,3],[38,-37],[27,-16],[32,-7],[27,-26]],[[2046,798],[-21,-5],[-75,3],[-35,7]],[[1996,1005],[58,7],[-6,-24],[12,-30],[39,-20],[-8,-18],[-25,-16],[42,-11],[36,-20],[-33,-21],[-53,-13],[-20,-12],[8,-29]],[[2506,1008],[22,-31],[69,-18],[17,-63],[49,-25],[18,-38],[-2,-25],[-32,12],[-70,-16],[-97,12]],[[2480,816],[-37,13],[-14,19],[-131,-23],[-34,-22],[-38,10],[-51,-5],[14,-20],[-21,-15],[-26,-2],[-13,21],[-63,-8],[-20,14]],[[2208,471],[-8,41],[-42,33],[-33,5],[-18,-15],[-23,-3],[-25,-20],[-71,14],[-10,-13],[-40,-2],[-70,7],[16,37],[-42,18],[-37,-13],[-29,6],[-2,31],[-61,46],[31,36]],[[2480,816],[15,-62],[19,-54],[59,-65],[-57,-32],[-34,-6]],[[2482,597],[-168,-32],[-46,-41],[-7,-45],[-53,-8]],[[2594,995],[42,-7],[51,-21],[-18,-7],[10,-37],[43,-11],[29,-15],[-18,-41],[30,-13],[36,-27],[20,-27],[35,-26],[12,-38],[-19,-75],[21,-40],[-57,-30],[-44,-55],[-52,-32]],[[2715,493],[-22,9],[-25,-5],[-20,11],[2,20],[-53,22],[-47,13],[-56,8],[-12,26]],[[2519,282],[-28,14],[-50,14]],[[2441,310],[-4,30],[39,10],[-24,18],[46,27],[-41,14],[-36,0],[-2,20],[-31,10],[-38,-7],[-50,3],[-12,15],[-80,21]],[[2715,493],[-5,-22],[5,-38],[9,-11],[57,1],[36,-15],[-14,-9],[-69,-14],[-56,-38],[-38,-13],[-28,-23],[-3,-17],[-29,-9],[-25,32],[-46,-21],[10,-14]],[[2519,282],[2,-14],[27,-16],[-9,-27],[58,13],[11,-8],[53,4],[-1,-49],[64,-13],[-6,-32],[12,-18],[-14,-25],[-55,-1],[6,-32],[-50,-16],[53,-24],[-14,-19],[-37,0],[-18,7],[-44,-12],[-29,20],[-79,-14],[-30,27],[-33,-15],[-49,-13],[-12,8],[18,22],[-2,21],[-43,18],[-17,24],[12,27],[45,24],[30,22],[32,35],[-38,6],[46,36],[10,24],[-18,12],[21,29],[20,-3]],[[2624,1910],[-18,-20],[-131,-26],[-170,0],[-8,-16],[101,-15],[54,-3],[39,-26],[8,-33],[-7,-23],[-45,-51],[-63,-32],[-20,3],[-61,-19],[-49,-30],[-48,0],[-27,-21],[15,-26],[-25,-47],[-115,-21],[-27,11],[-68,40],[-48,18],[-74,14],[-46,-7],[-14,9],[-6,45],[33,17],[96,35],[177,76],[0,19],[22,24],[44,2],[56,36],[71,13],[24,12],[-36,34],[-25,10],[6,105],[64,63],[52,9]],[[2486,1862],[52,7]]],"transform":{"scale":[0.001,0.0009996423462088704],"translate":[3.358,50.75]},"objects":{"coropsubgebied_2011":{"type":"GeometryCollection","geometries":[{"arcs":[[0,1,2,3,4]],"type":"Polygon","properties":{"id":143065,"statcode":"CS010","statnaam":"Oost-Groningen","jrstatcode":"2011CS010","rubriek":"coropsubgebied","FID":"coropsubgebied_gegeneraliseerd_2011.86b1e3a0-4d19-4220-8ea5-18bb0988729e"},"id":"CS010"},{"arcs":[[-1,5,6]],"type":"Polygon","properties":{"id":143066,"statcode":"CS020","statnaam":"Delfzijl en omgeving","jrstatcode":"2011CS020","rubriek":"coropsubgebied","FID":"coropsubgebied_gegeneraliseerd_2011.131dbfa8-10f8-4ab7-861f-cf1d86e086eb"},"id":"CS020"},{"arcs":[[7,8,9,10,-6,-5,11]],"type":"Polygon","properties":{"id":143067,"statcode":"CS030","statnaam":"Overig Groningen","jrstatcode":"2011CS030","rubriek":"coropsubgebied","FID":"coropsubgebied_gegeneraliseerd_2011.681855b2-e996-4c42-b803-580aab8bcc7e"},"id":"CS030"},{"arcs":[[[12,-9,13,14,15,16]],[[19]],[[20]],[[21]],[[22]]],"type":"MultiPolygon","properties":{"id":143068,"statcode":"CS040","statnaam":"Noord-Friesland","jrstatcode":"2011CS040","rubriek":"coropsubgebied","FID":"coropsubgebied_gegeneraliseerd_2011.32c7f352-ce61-4e11-bd1f-55b59694db07"},"id":"CS040"},{"arcs":[[23,24,25,-15,26]],"type":"Polygon","properties":{"id":143069,"statcode":"CS050","statnaam":"Zuidwest-Friesland","jrstatcode":"2011CS050","rubriek":"coropsubgebied","FID":"coropsubgebied_gegeneraliseerd_2011.0891df8e-86b1-44e9-ae06-85fc3642f275"},"id":"CS050"},{"arcs":[[-8,29,30,31,-27,-14]],"type":"Polygon","properties":{"id":143070,"statcode":"CS060","statnaam":"Zuidoost-Friesland","jrstatcode":"2011CS060","rubriek":"coropsubgebied","FID":"coropsubgebied_gegeneraliseerd_2011.a41d8cde-22bf-4084-aabb-3ab1b3654d6f"},"id":"CS060"},{"arcs":[[32,-30,-12,-4,33]],"type":"Polygon","properties":{"id":143071,"statcode":"CS070","statnaam":"Noord-Drenthe","jrstatcode":"2011CS070","rubriek":"coropsubgebied","FID":"coropsubgebied_gegeneraliseerd_2011.b96d79c2-135e-4266-958f-0c217a7fadcf"},"id":"CS070"},{"arcs":[[34,35,36,-34,-3]],"type":"Polygon","properties":{"id":143072,"statcode":"CS080","statnaam":"Zuidoost-Drenthe","jrstatcode":"2011CS080","rubriek":"coropsubgebied","FID":"coropsubgebied_gegeneraliseerd_2011.834ccb2b-dda9-44a7-b695-f9a94c7f3806"},"id":"CS080"},{"arcs":[[-31,-33,-37,37]],"type":"Polygon","properties":{"id":143073,"statcode":"CS090","statnaam":"Zuidwest-Drenthe","jrstatcode":"2011CS090","rubriek":"coropsubgebied","FID":"coropsubgebied_gegeneraliseerd_2011.23b39ce8-477a-494c-8b5e-d84d21c1e9da"},"id":"CS090"},{"arcs":[[38,39,40,41,-24,-32,-38,-36,42,43,44,45,46,47]],"type":"Polygon","properties":{"id":143074,"statcode":"CS100","statnaam":"Noord-Overijssel","jrstatcode":"2011CS100","rubriek":"coropsubgebied","FID":"coropsubgebied_gegeneraliseerd_2011.488a568a-db70-41b1-954e-634779ec9085"},"id":"CS100"},{"arcs":[[48,49,-45,50]],"type":"Polygon","properties":{"id":143075,"statcode":"CS110","statnaam":"Zuidwest-Overijssel","jrstatcode":"2011CS110","rubriek":"coropsubgebied","FID":"coropsubgebied_gegeneraliseerd_2011.a45dd82a-5c08-4c07-8b45-184f6ece3c85"},"id":"CS110"},{"arcs":[[-51,-44,51,52]],"type":"Polygon","properties":{"id":143076,"statcode":"CS120","statnaam":"Twente","jrstatcode":"2011CS120","rubriek":"coropsubgebied","FID":"coropsubgebied_gegeneraliseerd_2011.d06d818e-80c3-461c-b552-aa37f227e34b"},"id":"CS120"},{"arcs":[[53,54,-46,-50,55,56,57,58]],"type":"Polygon","properties":{"id":143077,"statcode":"CS130","statnaam":"Veluwe","jrstatcode":"2011CS130","rubriek":"coropsubgebied","FID":"coropsubgebied_gegeneraliseerd_2011.af426ed3-43a0-4857-81ea-d2ff0259d9c4"},"id":"CS130"},{"arcs":[[59,-56,-49,-53,60]],"type":"Polygon","properties":{"id":143078,"statcode":"CS140","statnaam":"Achterhoek","jrstatcode":"2011CS140","rubriek":"coropsubgebied","FID":"coropsubgebied_gegeneraliseerd_2011.a8d10ac2-753f-4498-ad35-af3ffcefd948"},"id":"CS140"},{"arcs":[[-60,61,62,63,64,-57]],"type":"Polygon","properties":{"id":143079,"statcode":"CS150","statnaam":"Arnhem/Nijmegen","jrstatcode":"2011CS150","rubriek":"coropsubgebied","FID":"coropsubgebied_gegeneraliseerd_2011.cb81828b-bea4-4143-a7e9-b59a1c972675"},"id":"CS150"},{"arcs":[[65,66,67,68,69,-58,-65]],"type":"Polygon","properties":{"id":143080,"statcode":"CS160","statnaam":"Zuidwest-Gelderland","jrstatcode":"2011CS160","rubriek":"coropsubgebied","FID":"coropsubgebied_gegeneraliseerd_2011.53b604cb-0c47-4eaa-8cfd-f8be3eb954f5"},"id":"CS160"},{"arcs":[[-70,70,71,72,73,74,75,-59]],"type":"Polygon","properties":{"id":143081,"statcode":"CS170","statnaam":"Utrecht","jrstatcode":"2011CS170","rubriek":"coropsubgebied","FID":"coropsubgebied_gegeneraliseerd_2011.dbe0b6ec-6674-485c-9e63-9ac807d23f7d"},"id":"CS170"},{"arcs":[[[76,77,78]],[[79]]],"type":"MultiPolygon","properties":{"id":143082,"statcode":"CS180","statnaam":"Kop van Noord-Holland","jrstatcode":"2011CS180","rubriek":"coropsubgebied","FID":"coropsubgebied_gegeneraliseerd_2011.5e18d2ce-c314-44b6-a74b-090a402dc18d"},"id":"CS180"},{"arcs":[[81,82,83,-78]],"type":"Polygon","properties":{"id":143083,"statcode":"CS190","statnaam":"Alkmaar en omgeving","jrstatcode":"2011CS190","rubriek":"coropsubgebied","FID":"coropsubgebied_gegeneraliseerd_2011.e9daede3-90cb-42f0-9947-13ce2ed99f8a"},"id":"CS190"},{"arcs":[[84,-83,85,86,87]],"type":"Polygon","properties":{"id":143084,"statcode":"CS200","statnaam":"IJmond","jrstatcode":"2011CS200","rubriek":"coropsubgebied","FID":"coropsubgebied_gegeneraliseerd_2011.95054b03-a598-4e44-8b9c-8723f051833b"},"id":"CS200"},{"arcs":[[88,89,-88,90,91,92]],"type":"Polygon","properties":{"id":143085,"statcode":"CS210","statnaam":"Agglomeratie Haarlem","jrstatcode":"2011CS210","rubriek":"coropsubgebied","FID":"coropsubgebied_gegeneraliseerd_2011.734dd317-ce6e-47f3-acbf-02676cf7e391"},"id":"CS210"},{"arcs":[[93,-91,-87,94]],"type":"Polygon","properties":{"id":143086,"statcode":"CS220","statnaam":"Zaanstreek","jrstatcode":"2011CS220","rubriek":"coropsubgebied","FID":"coropsubgebied_gegeneraliseerd_2011.0cf99359-2474-4296-a251-45bfa6f7fe18"},"id":"CS220"},{"arcs":[[[-92,-94,95,96,97]],[[98,-74,99]]],"type":"MultiPolygon","properties":{"id":143087,"statcode":"CS231","statnaam":"Amsterdam","jrstatcode":"2011CS231","rubriek":"coropsubgebied","FID":"coropsubgebied_gegeneraliseerd_2011.f3b10f75-a195-438b-a012-413944fc855d"},"id":"CS231"},{"arcs":[[[-93,-98,100,101,-100,-73,102,103]],[[-77,104,-96,-95,-86,-82]]],"type":"MultiPolygon","properties":{"id":143088,"statcode":"CS232","statnaam":"Overig Groot-Amsterdam","jrstatcode":"2011CS232","rubriek":"coropsubgebied","FID":"coropsubgebied_gegeneraliseerd_2011.d94c3507-ccd5-4f7f-a9af-4bcda8fd9ca3"},"id":"CS232"},{"arcs":[[-99,-102,105,-75]],"type":"Polygon","properties":{"id":143089,"statcode":"CS240","statnaam":"Het Gooi en Vechtstreek","jrstatcode":"2011CS240","rubriek":"coropsubgebied","FID":"coropsubgebied_gegeneraliseerd_2011.76eff35b-21e6-4f1d-b975-41349aff1926"},"id":"CS240"},{"arcs":[[-104,106,107,108,-89]],"type":"Polygon","properties":{"id":143090,"statcode":"CS250","statnaam":"Agglomeratie Leiden en Bollenstree","jrstatcode":"2011CS250","rubriek":"coropsubgebied","FID":"coropsubgebied_gegeneraliseerd_2011.757d3de2-b73b-4569-93e7-f21f0e6167c1"},"id":"CS250"},{"arcs":[[109,-108,110,111,112]],"type":"Polygon","properties":{"id":143091,"statcode":"CS260","statnaam":"Agglomeratie 's-Gravenhage","jrstatcode":"2011CS260","rubriek":"coropsubgebied","FID":"coropsubgebied_gegeneraliseerd_2011.734ae1a6-e15d-4077-bc0a-f1434c650a3d"},"id":"CS260"},{"arcs":[[113,114,-113]],"type":"Polygon","properties":{"id":143092,"statcode":"CS270","statnaam":"Delft en Westland","jrstatcode":"2011CS270","rubriek":"coropsubgebied","FID":"coropsubgebied_gegeneraliseerd_2011.c8ab3314-f5d5-49c1-a0f7-48418005e659"},"id":"CS270"},{"arcs":[[115,116,-111,-107,-103,-72,117]],"type":"Polygon","properties":{"id":143093,"statcode":"CS280","statnaam":"Oost-Zuid-Holland","jrstatcode":"2011CS280","rubriek":"coropsubgebied","FID":"coropsubgebied_gegeneraliseerd_2011.39a98f11-b570-46d8-a63e-0025be2f24e5"},"id":"CS280"},{"arcs":[[-114,-112,-117,118,119,120,121]],"type":"Polygon","properties":{"id":143094,"statcode":"CS291","statnaam":"Rijnmond","jrstatcode":"2011CS291","rubriek":"coropsubgebied","FID":"coropsubgebied_gegeneraliseerd_2011.e45c2758-5e79-4308-90ea-7f317ae00257"},"id":"CS291"},{"arcs":[[[122,123,-121]],[[124,125,126,127,128,129]],[[130,-119,-116]],[[131]]],"type":"MultiPolygon","properties":{"id":143095,"statcode":"CS292","statnaam":"Overig Groot-Rijnmond","jrstatcode":"2011CS292","rubriek":"coropsubgebied","FID":"coropsubgebied_gegeneraliseerd_2011.13f0b039-8570-4858-8775-fb265e75e8dd"},"id":"CS292"},{"arcs":[[-131,-118,-71,-69,134,135,136,-123,-120]],"type":"Polygon","properties":{"id":143096,"statcode":"CS300","statnaam":"Zuidoost-Zuid-Holland","jrstatcode":"2011CS300","rubriek":"coropsubgebied","FID":"coropsubgebied_gegeneraliseerd_2011.551e5874-8e91-4383-91b7-54db296c3cf5"},"id":"CS300"},{"arcs":[[137]],"type":"Polygon","properties":{"id":143097,"statcode":"CS310","statnaam":"Zeeuwsch-Vlaanderen","jrstatcode":"2011CS310","rubriek":"coropsubgebied","FID":"coropsubgebied_gegeneraliseerd_2011.386edb25-3fd0-4dc3-8b68-bbf9ee50899a"},"id":"CS310"},{"arcs":[[138,139,140,-125,141,-129,142],[143]],"type":"Polygon","properties":{"id":143098,"statcode":"CS320","statnaam":"Overig Zeeland","jrstatcode":"2011CS320","rubriek":"coropsubgebied","FID":"coropsubgebied_gegeneraliseerd_2011.e00c1a0b-905f-4fbf-b3bc-cebae1f14525"},"id":"CS320"},{"arcs":[[-140,144,-136,145,146]],"type":"Polygon","properties":{"id":143099,"statcode":"CS330","statnaam":"West-Noord-Brabant","jrstatcode":"2011CS330","rubriek":"coropsubgebied","FID":"coropsubgebied_gegeneraliseerd_2011.17f46ca4-2ba7-4a3a-9cdc-fb583b71a491"},"id":"CS330"},{"arcs":[[149,150,-146,-135,-68,151]],"type":"Polygon","properties":{"id":143100,"statcode":"CS340","statnaam":"Midden-Noord-Brabant","jrstatcode":"2011CS340","rubriek":"coropsubgebied","FID":"coropsubgebied_gegeneraliseerd_2011.db7c4030-7715-45be-a184-16e45903ee3b"},"id":"CS340"},{"arcs":[[152,-152,-67,153]],"type":"Polygon","properties":{"id":143101,"statcode":"CS351","statnaam":"Stadsgewest 's-Hertogenbosch","jrstatcode":"2011CS351","rubriek":"coropsubgebied","FID":"coropsubgebied_gegeneraliseerd_2011.dabeedd9-2eec-46de-b0a3-bb2343ff5039"},"id":"CS351"},{"arcs":[[-66,-64,154,155,-154]],"type":"Polygon","properties":{"id":143102,"statcode":"CS352","statnaam":"Overig Noordoost-Noord-Brabant","jrstatcode":"2011CS352","rubriek":"coropsubgebied","FID":"coropsubgebied_gegeneraliseerd_2011.f562b532-b672-447e-bb5d-ae75edf9fe2c"},"id":"CS352"},{"arcs":[[156,-150,-153,-156,157,158]],"type":"Polygon","properties":{"id":143103,"statcode":"CS360","statnaam":"Zuidoost-Noord-Brabant","jrstatcode":"2011CS360","rubriek":"coropsubgebied","FID":"coropsubgebied_gegeneraliseerd_2011.23b9931b-0fae-4f49-9337-9d1b060bb6e3"},"id":"CS360"},{"arcs":[[-155,-63,159,160,-158]],"type":"Polygon","properties":{"id":143104,"statcode":"CS370","statnaam":"Noord-Limburg","jrstatcode":"2011CS370","rubriek":"coropsubgebied","FID":"coropsubgebied_gegeneraliseerd_2011.9c3bd7cf-d578-4ee1-9b38-7c6f5ce3b21e"},"id":"CS370"},{"arcs":[[161,162,-159,-161,163]],"type":"Polygon","properties":{"id":143105,"statcode":"CS380","statnaam":"Midden-Limburg","jrstatcode":"2011CS380","rubriek":"coropsubgebied","FID":"coropsubgebied_gegeneraliseerd_2011.d9ccf6ca-041d-40ee-b3f4-2f74382e3737"},"id":"CS380"},{"arcs":[[-162,164]],"type":"Polygon","properties":{"id":143106,"statcode":"CS390","statnaam":"Zuid-Limburg","jrstatcode":"2011CS390","rubriek":"coropsubgebied","FID":"coropsubgebied_gegeneraliseerd_2011.6d644c83-966e-4c79-b8a1-e1e5309a74f9"},"id":"CS390"},{"arcs":[[-25,-42,165]],"type":"Polygon","properties":{"id":143107,"statcode":"CS400","statnaam":"Flevoland","jrstatcode":"2011CS400","rubriek":"coropsubgebied","FID":"coropsubgebied_gegeneraliseerd_2011.e5a7f198-2b1e-4238-a34c-8b5483d3eb5b"},"id":"CS400"}]}}}