{"type":"Topology","arcs":[[[3735,2504],[114,-20],[11,-39],[-39,-59],[4,-17],[20,-9],[-4,-32],[14,-70],[-31,-69],[-78,-78],[-17,-14],[6,-12]],[[3735,2085],[-21,7],[-32,28],[-25,0],[25,35]],[[3682,2155],[-61,49]],[[3621,2204],[-9,7]],[[3612,2211],[-27,23]],[[3585,2234],[-6,6]],[[3579,2240],[-1,0]],[[3578,2240],[-122,78]],[[3456,2318],[-12,48],[21,7],[43,-2],[20,5],[73,-9],[-9,39],[-21,10],[-25,-2],[25,46],[-18,30]],[[3553,2490],[18,-6],[23,19],[45,11],[43,-7],[28,-18],[25,15]],[[3516,2655],[14,-12],[9,-40],[37,-23],[34,-14],[59,-17],[57,-4],[-6,-31],[15,-10]],[[3553,2490],[-2,36],[-22,0],[0,19],[-41,-8],[-31,7]],[[3457,2544],[-42,-14]],[[3415,2530],[-8,15],[-56,12],[-19,-12],[-53,16],[-17,0],[-24,33],[32,5],[2,11],[34,4],[33,-4],[55,34]],[[3394,2644],[2,0]],[[3396,2644],[25,14],[13,-7],[52,18],[30,-14]],[[3396,2644],[-2,0]],[[3415,2530],[42,14]],[[3456,2318],[-77,48],[-42,2],[-43,-10]],[[3294,2358],[-17,-5]],[[3277,2353],[-8,17],[-46,41],[-17,-6],[-16,23]],[[3190,2428],[-5,-2]],[[3185,2426],[-13,16]],[[3172,2442],[-14,3]],[[3158,2445],[-30,6],[-38,-8],[-5,-8],[-35,-10],[-25,-28],[-39,-63],[-29,7]],[[2957,2341],[-53,20],[-56,1],[-30,20],[1,25]],[[2819,2407],[23,35],[30,23],[-12,24],[38,29],[-2,18],[25,14],[8,38]],[[2929,2588],[-34,8],[-21,18],[-15,-3],[-20,27],[-6,20]],[[2833,2658],[8,-3],[62,6],[52,-16],[55,18],[28,5],[171,14],[79,20],[98,11],[54,-11],[16,8],[49,-12],[19,-11],[-8,-32]],[[3141,2797],[11,-10],[-37,-16],[-14,17],[19,13],[21,-4]],[[1742,2548],[-37,-7],[-30,-13],[-61,-16],[7,-13],[-60,-36],[-65,6],[79,33],[28,16],[75,31],[28,6],[36,-7]],[[2833,2658],[-29,-3],[-7,-16],[26,-35],[37,-3],[3,-12],[33,6],[33,-7]],[[2819,2407],[-55,-15],[-43,11],[-66,-1],[-38,-20],[-32,-11],[-10,-15],[-51,-2],[1,-14]],[[2525,2340],[-5,-2]],[[2520,2338],[-1,-6],[-58,-9],[-23,-17]],[[2438,2306],[-30,2]],[[2408,2308],[9,6]],[[2417,2314],[-4,22],[17,8],[-57,24],[-35,-1],[-16,9],[-23,-17],[-38,24],[-23,-10],[-45,8],[-23,12],[-25,-8],[-25,7],[-66,7]],[[2054,2399],[-1,24],[38,44],[34,21],[44,16],[60,43],[56,19],[89,24],[60,19],[39,9],[57,20],[45,-3],[83,15],[79,5],[44,-4],[38,11],[14,-4]],[[2112,2654],[-86,-5],[-27,-14],[-64,-18],[-36,3],[-36,-9],[-25,-14],[-41,5],[39,38],[57,11],[125,19],[97,18],[38,4],[30,-12],[-65,-16],[-6,-10]],[[2373,2709],[40,-2],[113,7],[53,-10],[-132,-19],[-75,5],[-27,-13],[-33,-7],[-40,7],[-14,23],[29,16],[86,-7]],[[3023,2759],[-107,-23],[-22,-11],[-55,-6],[-67,2],[25,26],[134,9],[78,8],[14,-5]],[[2417,2314],[-9,-6]],[[2438,2306],[2,-9],[60,-33],[8,-17],[21,-18],[46,-67],[-22,-17],[-25,-4],[-29,-23],[-37,-54]],[[2462,2064],[-25,-10]],[[2437,2054],[-46,33],[-36,-2]],[[2355,2085],[-28,8],[-27,-2],[-14,17],[-26,-10],[-33,-2],[-18,-15],[-22,-1],[-91,22],[-28,-7],[-60,26],[-12,13],[17,12],[36,11],[-6,29],[12,25],[-16,39],[11,17],[-32,35],[17,8],[-18,28],[-32,-17],[-46,-7],[-130,-68]],[[1809,2246],[-1,1]],[[1808,2247],[127,67],[56,11],[29,17],[1,13],[25,14],[8,30]],[[2957,2341],[-10,-13],[63,-14],[-5,-33],[65,-62],[-35,-39],[-24,-11]],[[3011,2169],[-36,-16],[-30,19],[-46,3],[-50,-37],[-87,-37]],[[2762,2101],[-89,-39],[-34,2],[-25,25],[-42,-7],[-6,-11],[-48,-23],[-32,4],[-24,12]],[[2520,2338],[5,2]],[[3158,2445],[14,-3]],[[3185,2426],[5,2]],[[3277,2353],[17,5]],[[3578,2240],[-81,-12]],[[3497,2228],[-16,-3]],[[3481,2225],[-50,-15],[-61,-8],[-3,-18],[11,-58],[-21,-11],[13,-14],[-38,-31],[2,-12],[-31,-10],[-74,-65]],[[3229,1983],[-29,9],[8,21],[-53,-4],[-22,9],[1,22],[-37,8],[25,36],[-29,13],[-20,0],[-11,32],[-60,13],[26,21],[-17,6]],[[3612,2211],[9,-7]],[[3735,2085],[-21,-28],[-8,-87],[-9,-79],[-13,-11],[-67,13],[-36,-8],[-42,13],[-75,-3],[-45,4],[-35,-7],[-32,-17]],[[3352,1875],[-2,21],[-79,21]],[[3271,1917],[1,43],[-34,0],[-9,23]],[[3481,2225],[16,3]],[[3579,2240],[6,-6]],[[3271,1917],[-14,4],[-62,-8],[-39,-20],[5,-32],[-55,10],[-11,-10],[-47,7],[-22,-9],[-20,31],[-38,17],[-3,10],[-50,-5],[-25,11],[-46,9],[-19,-10],[-20,5],[-43,70],[36,13],[46,31],[-65,45],[-17,15]],[[3352,1875],[17,-13],[-8,-26],[48,-25],[-41,-1],[-10,-14],[-35,4],[24,-32],[-7,-35]],[[3340,1733],[-29,9],[-27,-24],[-31,-4],[-10,12],[-47,9]],[[3196,1735],[-44,3]],[[3152,1738],[-6,-9],[-53,-13],[-13,-25],[-48,-16]],[[3032,1675],[-41,-3],[-57,10],[-14,22],[-42,9],[-92,2],[11,-15],[-15,-11],[-30,-1]],[[2752,1688],[-8,25]],[[2744,1713],[-8,8]],[[2736,1721],[-23,8],[-17,18],[-26,10],[-20,-6],[-43,-28],[-39,-2],[-16,24],[-23,19],[-21,2]],[[2508,1766],[-9,25]],[[2499,1791],[0,2]],[[2499,1793],[-17,24],[-16,10],[19,31]],[[2485,1858],[53,7]],[[2538,1865],[22,-5],[72,13],[29,17],[-35,14]],[[2626,1904],[-50,19],[31,18],[-22,21],[-21,36],[-72,34],[-31,3],[-24,19]],[[3032,1675],[15,-12],[-16,-36],[-46,-10],[-9,-19],[22,-33],[-29,-16],[2,-21],[42,-21],[11,-14]],[[3024,1493],[-31,-4],[-12,-15],[-46,4],[-42,-4],[-85,4]],[[2808,1478],[-18,-3],[-24,23],[6,10],[-31,39],[-15,2],[-13,20],[11,50],[42,9],[6,18],[-19,9],[8,25],[-9,8]],[[3340,1733],[55,-22],[22,-4],[79,0],[8,-9],[80,-16],[20,10],[16,21],[16,-1],[17,-36],[25,-26],[23,-4],[13,-26],[0,-21],[-16,-14],[-30,-46],[2,-14],[33,-43],[-42,-10],[-30,2],[-38,-46],[-35,-3],[-34,-22],[-9,-24],[-18,-13],[-94,-1]],[[3403,1365],[-45,-1],[-53,12],[11,13],[-3,24],[-26,8],[-33,-11],[-22,19],[-35,-5],[-76,6],[-50,40],[-13,19],[-34,4]],[[3152,1738],[44,-3]],[[2736,1721],[8,-8]],[[2808,1478],[23,-14],[-5,-13],[-27,-6],[37,-24],[-9,-13],[-25,1],[-84,-19],[-24,-20],[-18,-26],[-25,-24]],[[2651,1320],[-19,5],[-44,-1],[-36,-16],[-11,-12],[-49,2],[-37,-28],[-68,-4],[-21,-19],[-10,-33],[-48,-15]],[[2308,1199],[-36,-17],[-24,7]],[[2248,1189],[21,9],[-1,22],[-12,16],[-23,13],[-4,28],[-17,15]],[[2212,1292],[-12,3]],[[2200,1295],[5,29],[-9,22],[-31,-22],[-39,-8],[-25,10],[27,14],[13,53],[-18,12]],[[2123,1405],[1,2]],[[2124,1407],[-10,3]],[[2114,1410],[4,1]],[[2118,1411],[-36,7],[0,19]],[[2082,1437],[0,7]],[[2082,1444],[-30,22],[-17,2],[11,26]],[[2046,1494],[63,9],[3,7]],[[2112,1510],[1,1]],[[2113,1511],[56,0],[35,51],[49,31],[3,16]],[[2256,1609],[1,1]],[[2257,1610],[38,2],[25,14],[22,2],[40,17],[70,37],[7,22]],[[2459,1704],[23,9],[26,53]],[[3403,1365],[-10,-34],[-16,-10],[-39,-5],[-8,-30],[26,0],[39,-12],[74,-34],[2,-30],[-30,-5],[-5,-24],[-24,-19],[-48,-20],[-29,19],[-18,1],[-37,-12],[-52,-10],[-30,-12],[-55,-14],[-36,-13],[-36,10],[-21,-11],[-1,-26],[-44,7],[-18,16],[-39,-2],[-5,16],[-21,9],[-18,-6],[-47,0],[-31,15],[-16,18]],[[2810,1147],[-77,38],[-1,29],[39,10],[31,3],[1,33],[16,5],[-1,20],[-41,-4],[-24,7],[21,14],[-29,22],[-35,10],[-44,-21],[-15,7]],[[2810,1147],[-11,4],[-47,-10],[27,-9],[8,-16],[22,-8],[0,-21],[-60,7],[-44,17],[-27,-22],[-49,-12],[-24,6],[-18,-13],[34,-26],[12,-32],[-38,-18]],[[2595,994],[-38,5],[-22,25],[-25,-2],[-4,-18]],[[2506,1004],[-12,1],[-72,-7],[-35,7],[-13,13],[-30,6],[-8,10],[-37,10],[-22,22],[-37,8]],[[2240,1074],[-13,11],[-17,38],[9,15],[49,7],[81,-6],[-1,15],[-46,22],[6,23]],[[2240,1074],[-40,0],[-17,-12],[-55,13],[-12,-14],[-35,-5],[-37,11],[-33,-31],[-15,-35],[-58,-18],[-51,-3],[-29,9],[-53,0],[-35,-5]],[[1770,984],[10,13],[0,22],[-42,15],[-29,-7],[-19,17],[-32,10],[-16,13]],[[1642,1067],[26,-2],[1,40]],[[1669,1105],[32,-1],[-4,15],[26,3],[7,12],[25,0],[19,27],[48,52],[26,-8],[24,17],[17,1],[23,-12],[63,-8],[15,11],[35,1],[59,17],[44,-2],[54,-17],[21,-12],[45,-12]],[[1664,1549],[21,-20],[-16,-18],[31,-29],[-16,-4],[-9,-21]],[[1675,1457],[3,0]],[[1678,1457],[10,-44],[75,15],[72,-3],[24,27],[6,20],[43,57],[40,-4]],[[1948,1525],[51,-8],[47,-23]],[[2082,1444],[0,-7]],[[2118,1411],[-4,-1]],[[2124,1407],[-1,-2]],[[2200,1295],[12,-3]],[[1669,1105],[-3,22],[-25,3],[-4,18],[-39,14],[-6,16]],[[1592,1178],[-4,1]],[[1588,1179],[-14,15],[-54,-10]],[[1520,1184],[-18,30],[-42,32],[39,6],[-10,12],[-44,-4],[26,36],[39,13],[-42,12],[-1,32],[-33,15],[21,18],[20,5],[42,-6],[-1,18],[18,6],[-48,18],[-30,22],[-19,25]],[[1437,1474],[48,10],[27,16],[41,0],[18,15],[68,21],[25,13]],[[1929,1938],[0,-1]],[[1929,1937],[-41,-4],[-10,-29],[-37,-21],[-40,-13],[-31,-3],[-39,23],[-21,-8],[-22,7],[-27,-12],[1,-18]],[[1662,1859],[-15,-14],[-55,-3],[7,16]],[[1599,1858],[-4,2]],[[1595,1860],[-26,-6]],[[1569,1854],[-43,6],[3,10]],[[1529,1870],[1,4]],[[1530,1874],[-3,3]],[[1527,1877],[-9,4]],[[1518,1881],[-13,22],[13,30],[23,21],[-41,16],[-53,-9],[-26,17],[-8,-30],[-42,-10],[-39,42],[-44,24]],[[1288,2004],[30,44],[30,73],[11,73],[14,16],[32,2],[16,-10],[30,-44],[66,-23],[63,17],[30,25],[86,11],[112,59]],[[1809,2246],[-128,-68],[10,-7],[65,-78],[-10,-72],[42,-32],[34,-1],[13,14],[65,-2],[25,-13],[5,-25],[12,-7],[-13,-17]],[[1521,2404],[29,-22],[-8,-10],[-3,-46],[-50,-45],[-28,-5],[-45,-33],[-54,-11],[-11,37],[15,46],[34,38],[83,77],[20,0],[18,-26]],[[1518,1881],[9,-4]],[[1530,1874],[-1,-4]],[[1569,1854],[-37,-13],[-56,-55]],[[1476,1786],[-6,3]],[[1470,1789],[-7,-4]],[[1463,1785],[-31,-19]],[[1432,1766],[-6,0]],[[1426,1766],[-2,1]],[[1424,1767],[-4,12]],[[1420,1779],[0,12]],[[1420,1791],[4,13],[-37,11],[6,14]],[[1393,1829],[1,11]],[[1394,1840],[-12,-14],[-55,2],[-14,8],[-61,-15]],[[1252,1821],[17,91],[11,43],[-1,21],[9,28]],[[1420,1791],[0,-12]],[[1424,1767],[-67,-27],[-17,-22],[-23,-15],[47,-23]],[[1364,1680],[-40,-19]],[[1324,1661],[-31,15],[-27,-7],[-36,12],[-28,4]],[[1202,1685],[-8,23],[15,7],[20,31],[23,75]],[[1394,1840],[-1,-11]],[[1324,1661],[-13,-13],[17,-17],[-15,-14],[5,-14],[-64,-31],[0,-11]],[[1254,1561],[-16,4],[-49,-4]],[[1189,1561],[-52,14]],[[1137,1575],[-1,0]],[[1136,1575],[61,95],[5,15]],[[1426,1766],[6,0]],[[1463,1785],[7,4]],[[1476,1786],[16,-14],[60,-8],[14,-24],[-18,-13],[-43,-12],[-20,-16],[19,-23],[-6,-12],[-134,16]],[[1662,1859],[11,-44],[24,-23],[31,-41],[-27,-18],[3,-18],[-14,-13],[1,-16],[29,-2],[-11,-24],[-15,0],[-38,-32],[-29,-16],[43,-27]],[[1670,1585],[-15,-8],[9,-28]],[[1437,1474],[-66,-17]],[[1371,1457],[-5,22],[-38,-5],[-16,4],[-37,-15],[-30,-1],[-46,4],[11,50],[21,12],[23,33]],[[1595,1860],[4,-2]],[[1780,1573],[1,0]],[[1781,1573],[27,-21],[74,7],[51,-15],[22,6]],[[1955,1550],[1,0]],[[1956,1550],[-17,-10],[9,-15]],[[1678,1457],[-3,0]],[[1670,1585],[66,1],[44,-13]],[[1371,1457],[-40,-18],[-9,-29],[-39,-1],[-68,-11],[-38,-32],[2,-36],[-6,-3]],[[1173,1327],[-41,17],[-26,29],[-36,-26],[-27,11],[43,34],[-4,11],[-28,7],[-38,24]],[[1016,1434],[73,80],[47,61]],[[1137,1575],[52,-14]],[[1173,1327],[26,-20]],[[1199,1307],[-52,-29],[-28,0],[-20,-10],[2,-20],[-51,-34]],[[1050,1214],[-22,37],[9,6],[-22,22],[-47,-20],[-32,6],[-21,17],[-25,-11],[-13,14],[-23,-5],[-12,17]],[[842,1297],[-4,5]],[[838,1302],[63,45],[44,27],[71,60]],[[1050,1214],[-5,-2]],[[1045,1212],[-11,-1]],[[1034,1211],[-55,-18],[-44,-26],[-34,7],[-17,14],[-24,0],[-26,13],[-5,12],[-40,14],[-22,21]],[[767,1248],[62,50],[9,4]],[[838,1302],[4,-5]],[[1520,1184],[-46,1],[-21,-14],[-49,-11],[-46,-18],[-43,-6],[-53,0]],[[1262,1136],[-25,4],[6,13],[42,6],[-25,18],[28,23],[-13,16],[35,9],[15,14],[-20,31],[-26,-12],[-46,23],[16,10],[0,21],[-50,-5]],[[1186,941],[28,5]],[[1214,946],[-28,-5]],[[953,993],[42,-10],[-16,-10],[-26,1],[-49,19],[49,0]],[[1262,1136],[27,-33],[-42,-9],[-34,-1],[-17,-17],[16,-19],[51,-10],[10,-59],[-7,-21]],[[1266,967],[-66,-17],[-28,-3],[-63,14],[-61,7],[-2,-23]],[[1046,945],[-10,-5]],[[1036,940],[-26,-9],[-11,-14],[-76,-16],[-49,6],[-12,13],[-31,9],[-32,-1]],[[799,928],[-2,1]],[[797,929],[0,14],[-44,11],[-52,4],[-37,31],[8,14],[-8,22],[-30,23],[-43,1],[-52,-9],[-28,-13],[-14,-23],[-13,-2]],[[484,1002],[-3,2]],[[481,1004],[25,20],[-9,25],[5,11],[140,35],[36,-25],[25,18],[4,12],[-36,32],[25,29],[-15,9],[-39,-9],[-15,3],[-24,43],[23,24],[58,1],[6,9],[47,-10],[30,17]],[[1034,1211],[11,1]],[[700,1083],[-13,-8],[18,-16],[102,-34],[24,-4],[54,-30],[20,-17],[66,-25],[55,-1],[20,21],[-55,20],[-100,23],[-37,34],[-30,5],[-26,18],[-62,6],[-20,14],[-16,-6]],[[1588,1179],[4,-1]],[[1642,1067],[-64,7],[-47,-9],[-43,-20],[-49,1],[-42,-18],[-18,-26],[-61,-31]],[[1318,971],[-32,-6]],[[1286,965],[-7,-2]],[[1279,963],[-1,0]],[[1278,963],[-12,4]],[[158,653],[52,-6],[17,-13],[56,-12],[46,-5],[36,-21],[66,0],[53,-14],[25,0],[50,25],[42,7],[15,39],[42,-6],[37,-35],[33,-2],[29,-12],[22,11],[54,13],[15,-2],[29,-26],[-69,-55],[-108,-50],[-52,-1],[-47,-26],[-73,-16],[3,23],[-29,-12],[-39,-2],[-30,5],[-2,32],[6,10],[-39,13],[-62,7],[-36,14],[-17,-2],[-50,16],[-76,-17],[13,-41],[-78,-4],[-43,15],[-37,35],[7,10],[-19,13],[27,19],[-16,38],[61,19],[6,-3],[80,19]],[[484,1002],[8,-18],[38,6],[26,-13],[59,2],[9,-15],[25,-15],[8,-16],[29,-2],[48,-18],[17,11],[46,5]],[[799,928],[12,-28],[32,-15],[36,-5]],[[879,880],[-23,-6],[-22,-19],[0,-15],[36,-30],[8,-21],[-17,-38],[57,-80],[-12,-9],[4,-32],[9,-8]],[[919,622],[-34,-1],[-11,20],[-35,12],[-40,-12],[-50,8],[-45,11],[-12,16],[-17,2],[-58,30],[-54,-17],[5,-11],[-25,-39],[-88,-9],[-58,29],[-20,-4],[-43,33],[-34,13],[-18,-13],[-65,-5],[-48,24],[-30,31],[-46,21],[-18,12],[5,15],[115,47],[22,5],[59,-5],[47,11],[2,23],[31,19],[8,21],[-33,15],[-10,29],[10,13],[28,16],[72,8],[28,-3],[22,17]],[[449,943],[-53,-22],[-29,-6],[-2,-13],[-14,-25],[-22,-9],[-5,-21],[33,-9],[84,13],[36,1],[34,-10],[45,33],[-24,4],[-13,34],[-20,11],[-32,6],[-18,13]],[[739,913],[0,-19],[-26,-16],[-21,-1],[-43,-14],[-39,-3],[-28,20],[-26,-5],[-45,-33],[28,-36],[-24,-5],[-5,-15],[59,4],[13,-19],[17,6],[61,-12],[34,-16],[3,-21],[38,-36],[40,-15],[48,13],[42,-5],[-1,25],[-8,28],[-37,10],[-13,21],[-90,4],[-25,26],[-44,23],[-15,17],[34,4],[51,16],[53,-11],[-10,23],[-17,18],[19,11],[32,1],[-2,23],[-41,-4],[-12,-7]],[[349,755],[19,15],[-38,32],[-33,13],[-7,-11],[22,-8],[13,-20],[24,-21]],[[1214,946],[-28,-5]],[[1542,839],[-10,-4]],[[1532,835],[-26,-10],[4,-19],[-28,-7]],[[1482,799],[-7,-3]],[[1475,796],[-39,-15]],[[1436,781],[-16,-6]],[[1420,775],[-31,-14],[13,-13]],[[1402,748],[-31,-18],[-36,-32],[-26,-8],[3,-18],[-40,0],[-55,7],[-40,-10],[-5,27],[18,23],[-10,9],[-51,-5],[-45,-8],[-57,-20],[12,-7],[-5,-34],[40,-33],[-10,-10],[-37,-11],[-44,4],[-6,20],[-58,-2]],[[879,880],[80,12],[33,2],[38,21],[6,25]],[[1046,945],[40,-3],[46,-13],[30,1],[82,13],[34,20]],[[1279,963],[7,2]],[[1318,971],[23,-3],[35,15],[30,23],[58,-6],[29,2],[-9,-43],[31,7],[45,0],[15,-43],[0,-26],[-23,-22],[8,-28],[-18,-8]],[[1770,984],[-46,-16],[27,-13],[-7,-37],[4,-36],[39,5],[47,-2],[19,-23],[44,9],[21,-21],[-28,-14],[-2,-11],[27,-26]],[[1915,799],[-29,-27],[7,-16],[-23,-11],[-8,-26],[-10,-7],[-19,-36],[-89,-1]],[[1744,675],[-23,42],[-33,0],[-24,11],[-11,-10],[-7,-27],[-41,-23],[-34,-26],[-43,21],[-97,-8],[-18,6],[16,18],[42,-10],[-6,26],[17,30],[-25,16],[-55,7]],[[1420,775],[16,6]],[[1475,796],[7,3]],[[1532,835],[10,4]],[[2506,1004],[16,-8],[5,-22],[15,-8],[55,-11],[17,-63],[48,-24],[6,-26],[14,-14],[-8,-30],[-28,18],[-69,-16],[-28,-2],[-16,8],[-53,6]],[[2480,812],[-37,13],[-14,19],[-88,-14],[-48,-2],[1,-12],[-30,-17],[-38,10],[-51,-5],[14,-20],[-22,-16],[-25,-1],[-13,21],[-64,-8],[-18,14],[-61,-4],[-11,7]],[[1975,797],[-25,-5]],[[1950,792],[-35,7]],[[2480,812],[15,-62],[8,-12],[11,-42],[59,-65],[-56,-32],[-35,-6]],[[2482,593],[-168,-32],[-46,-41],[-7,-45],[-53,-8]],[[2208,467],[-11,23],[3,18],[-42,33],[-31,5],[-20,-15],[-23,-3],[-25,-20],[-71,14],[-10,-13],[-40,-2],[-70,7],[16,37],[-42,18],[-37,-13],[-29,6],[-2,31],[-61,46],[31,36]],[[1950,792],[25,5]],[[2595,994],[2,-10],[39,0],[51,-21],[-19,-8],[11,-36],[51,-13],[29,-3],[-26,-51],[30,-13],[36,-26],[20,-28],[35,-26],[1,-22],[11,-16],[-19,-75],[21,-40],[-36,-21],[-21,-6],[-44,-58],[-52,-32]],[[2715,489],[-35,3],[-32,13],[2,19],[-53,22],[-47,13],[-56,8],[-20,17],[8,9]],[[2715,489],[13,-20],[-18,-2],[5,-38],[9,-11],[31,3],[52,19],[16,-8],[-42,-13],[36,-15],[-12,-9],[-37,-4],[-34,-10],[-16,-16],[-40,-22],[-26,-6],[-40,-30],[-1,-14],[-31,-12],[-25,32],[-26,-15],[-21,-1],[11,-19]],[[2519,278],[-24,-3],[-4,17],[-22,2],[-3,19],[-25,-7]],[[2441,306],[5,17],[-9,13],[39,10],[-24,18],[30,13],[16,14],[-32,23],[-46,-17],[-11,33],[-27,3],[-32,-5],[-50,3],[-12,15],[-80,21]],[[2519,278],[2,-14],[27,-16],[-9,-27],[58,13],[11,-8],[51,3],[1,-48],[64,-13],[-7,-29],[13,-21],[-11,-11],[-58,-15],[6,-32],[-21,-13],[-29,-3],[53,-24],[-7,-20],[-131,2],[-4,14],[-41,-5],[-38,-9],[-30,27],[-82,-28],[-1,57],[-38,12],[-17,22],[5,25],[39,18],[15,21],[28,11],[30,37],[-36,4],[46,36],[10,24],[-18,12],[21,29],[20,-3]],[[2485,1858],[53,7]],[[2626,1904],[-20,-18],[-132,-26],[-169,0],[-8,-16],[101,-15],[57,-5],[44,-31]],[[2499,1791],[0,-26],[-9,-25],[-31,-36]],[[2459,1704],[-20,-18],[-50,-24],[-27,1],[-59,-18],[-36,-18],[-10,-17]],[[2256,1609],[-50,6],[-26,-18],[15,-29],[-24,-46],[-58,-11]],[[2112,1510],[-60,-10],[-96,50]],[[1955,1550],[-14,9],[-59,17],[-56,6],[-45,-9]],[[1780,1573],[-13,55],[37,19],[96,35],[177,76],[-9,19],[20,31],[21,11],[-12,22],[-56,55],[-39,25],[-55,16],[-18,0]],[[1929,1938],[15,1],[52,-14],[7,-4],[39,-25],[56,-55],[13,-24],[-13,-20],[45,6],[58,36],[69,13],[24,12],[-36,34],[-23,12],[2,100],[65,65],[53,10]]],"transform":{"scale":[0.001,0.0009996429846483414],"translate":[3.358,50.754]},"objects":{"coropgebied_2021":{"type":"GeometryCollection","geometries":[{"arcs":[[0,1,2,3,4,5,6,7,8,9]],"type":"Polygon","properties":{"id":1,"statcode":"CR01","jrstatcode":"2021CR01","statnaam":"Oost-Groningen","rubriek":"coropgebied","FID":"coropgebied_gegeneraliseerd_2021.f9793a85-ef53-4a2e-a35f-ea6586246fa4"},"id":"CR01"},{"arcs":[[10,-10,11,12,13,14,15]],"type":"Polygon","properties":{"id":2,"statcode":"CR02","jrstatcode":"2021CR02","statnaam":"Delfzijl en omgeving","rubriek":"coropgebied","FID":"coropgebied_gegeneraliseerd_2021.2a02ea4b-400e-478e-896b-9cc311bca57f"},"id":"CR02"},{"arcs":[[[-16,16,-14,17,-12,-9,18,19,20,21,22,23,24,25,26,27,28]],[[29]]],"type":"MultiPolygon","properties":{"id":3,"statcode":"CR03","jrstatcode":"2021CR03","statnaam":"Overig Groningen","rubriek":"coropgebied","FID":"coropgebied_gegeneraliseerd_2021.479d967d-be15-4e5b-aee1-96262fa0a6be"},"id":"CR03"},{"arcs":[[[30]],[[31,-27,32,33,34,35,36,37,38]],[[39]],[[40]],[[41]]],"type":"MultiPolygon","properties":{"id":4,"statcode":"CR04","jrstatcode":"2021CR04","statnaam":"Noord-Friesland","rubriek":"coropgebied","FID":"coropgebied_gegeneraliseerd_2021.32ea8890-7d4a-421e-9cbd-9d274ffa2054"},"id":"CR04"},{"arcs":[[42,-36,43,44,45,46,47,48,-38]],"type":"Polygon","properties":{"id":5,"statcode":"CR05","jrstatcode":"2021CR05","statnaam":"Zuidwest-Friesland","rubriek":"coropgebied","FID":"coropgebied_gegeneraliseerd_2021.48fa3ea6-1ffc-4244-8053-ccec9dd3fbc7"},"id":"CR05"},{"arcs":[[49,50,51,-44,-35,52,-33,-26]],"type":"Polygon","properties":{"id":6,"statcode":"CR06","jrstatcode":"2021CR06","statnaam":"Zuidoost-Friesland","rubriek":"coropgebied","FID":"coropgebied_gegeneraliseerd_2021.1b133be3-bbf2-4fce-aa29-59f73586a35f"},"id":"CR06"},{"arcs":[[53,-23,54,-21,55,-19,-8,56,57,58,59,-50,-25]],"type":"Polygon","properties":{"id":7,"statcode":"CR07","jrstatcode":"2021CR07","statnaam":"Noord-Drenthe","rubriek":"coropgebied","FID":"coropgebied_gegeneraliseerd_2021.a402dce7-8d3d-4d4a-a06d-77af9e6c04c2"},"id":"CR07"},{"arcs":[[60,-3,-2,61,62,63,-59,64,-57,-7,65,-5]],"type":"Polygon","properties":{"id":8,"statcode":"CR08","jrstatcode":"2021CR08","statnaam":"Zuidoost-Drenthe","rubriek":"coropgebied","FID":"coropgebied_gegeneraliseerd_2021.c52f8963-7a7c-46a8-95d8-9e55f18be2af"},"id":"CR08"},{"arcs":[[-60,-64,66,-51]],"type":"Polygon","properties":{"id":9,"statcode":"CR09","jrstatcode":"2021CR09","statnaam":"Zuidwest-Drenthe","rubriek":"coropgebied","FID":"coropgebied_gegeneraliseerd_2021.dadf1297-449c-4e43-90f9-b1fe1bfe99e3"},"id":"CR09"},{"arcs":[[-63,67,68,69,70,71,72,73,74,75,76,77,78,79,80,-45,-52,-67]],"type":"Polygon","properties":{"id":10,"statcode":"CR10","jrstatcode":"2021CR10","statnaam":"Noord-Overijssel","rubriek":"coropgebied","FID":"coropgebied_gegeneraliseerd_2021.6e76e2b0-1c3e-4b66-becb-568a65e26d26"},"id":"CR10"},{"arcs":[[81,82,83,-72]],"type":"Polygon","properties":{"id":11,"statcode":"CR11","jrstatcode":"2021CR11","statnaam":"Zuidwest-Overijssel","rubriek":"coropgebied","FID":"coropgebied_gegeneraliseerd_2021.ffd64251-d946-4a37-9f54-79ece770672e"},"id":"CR11"},{"arcs":[[84,85,-82,-71,86,-69]],"type":"Polygon","properties":{"id":12,"statcode":"CR12","jrstatcode":"2021CR12","statnaam":"Twente","rubriek":"coropgebied","FID":"coropgebied_gegeneraliseerd_2021.0a5951ea-c200-4c90-8deb-d2dc0ee76cea"},"id":"CR12"},{"arcs":[[87,-73,-84,88,89,90,91,92,93,94,95,96,97,98,99,100,101,102,103,104,105,-75]],"type":"Polygon","properties":{"id":13,"statcode":"CR13","jrstatcode":"2021CR13","statnaam":"Veluwe","rubriek":"coropgebied","FID":"coropgebied_gegeneraliseerd_2021.406f9723-0c56-4c05-97ce-a1c37200ef8d"},"id":"CR13"},{"arcs":[[106,107,-89,-83,-86]],"type":"Polygon","properties":{"id":14,"statcode":"CR14","jrstatcode":"2021CR14","statnaam":"Achterhoek","rubriek":"coropgebied","FID":"coropgebied_gegeneraliseerd_2021.f377b170-646f-4920-88bc-e99ce6f5736d"},"id":"CR14"},{"arcs":[[108,109,110,111,-90,-108]],"type":"Polygon","properties":{"id":15,"statcode":"CR15","jrstatcode":"2021CR15","statnaam":"Arnhem/Nijmegen","rubriek":"coropgebied","FID":"coropgebied_gegeneraliseerd_2021.169f4729-9f51-4d7f-80ed-25561938c078"},"id":"CR15"},{"arcs":[[-91,-112,112,113,114,115]],"type":"Polygon","properties":{"id":16,"statcode":"CR16","jrstatcode":"2021CR16","statnaam":"Zuidwest-Gelderland","rubriek":"coropgebied","FID":"coropgebied_gegeneraliseerd_2021.faae447d-0835-423f-a214-ea32147e62af"},"id":"CR16"},{"arcs":[[116,117,118,119,-100,120,-98,121,-96,122,-94,123,-92,-116,124,125,126,127,128]],"type":"Polygon","properties":{"id":17,"statcode":"CR17","jrstatcode":"2021CR17","statnaam":"Utrecht","rubriek":"coropgebied","FID":"coropgebied_gegeneraliseerd_2021.4e1460d2-097f-462c-8da7-82ddf043ae75"},"id":"CR17"},{"arcs":[[[129,130,131,132,133,134,135,136,137,138,139,-48,140]],[[141]]],"type":"MultiPolygon","properties":{"id":18,"statcode":"CR18","jrstatcode":"2021CR18","statnaam":"Kop van Noord-Holland","rubriek":"coropgebied","FID":"coropgebied_gegeneraliseerd_2021.fdf61c8b-ae82-4d34-bc7e-58525f00f89c"},"id":"CR18"},{"arcs":[[142,-137,143,-135,144,145,146,147,148,149,150,151,152,153,154,155,-139]],"type":"Polygon","properties":{"id":19,"statcode":"CR19","jrstatcode":"2021CR19","statnaam":"Alkmaar en omgeving","rubriek":"coropgebied","FID":"coropgebied_gegeneraliseerd_2021.07848c9b-7ac8-4ab4-a4de-b7901042b5cb"},"id":"CR19"},{"arcs":[[-153,156,-151,157,158,159,160,-155,161]],"type":"Polygon","properties":{"id":20,"statcode":"CR20","jrstatcode":"2021CR20","statnaam":"IJmond","rubriek":"coropgebied","FID":"coropgebied_gegeneraliseerd_2021.5bdf1dfe-f762-442d-9800-36648f655679"},"id":"CR20"},{"arcs":[[162,163,164,165,166,-160]],"type":"Polygon","properties":{"id":21,"statcode":"CR21","jrstatcode":"2021CR21","statnaam":"Agglomeratie Haarlem","rubriek":"coropgebied","FID":"coropgebied_gegeneraliseerd_2021.887e9a34-7857-422d-ac82-b98858c73aff"},"id":"CR21"},{"arcs":[[-158,-150,167,-148,168,-146,169]],"type":"Polygon","properties":{"id":22,"statcode":"CR22","jrstatcode":"2021CR22","statnaam":"Zaanstreek","rubriek":"coropgebied","FID":"coropgebied_gegeneraliseerd_2021.b24af8ca-b421-4370-ba59-6848746a8db3"},"id":"CR22"},{"arcs":[[-132,170,171,-129,172,173,-163,-159,-170,-145,-134,174]],"type":"Polygon","properties":{"id":23,"statcode":"CR23","jrstatcode":"2021CR23","statnaam":"Groot-Amsterdam","rubriek":"coropgebied","FID":"coropgebied_gegeneraliseerd_2021.54154d06-a2b8-429c-b052-47f2b080b4f9"},"id":"CR23"},{"arcs":[[175,176,177,178,-119,179,-117,-172,180]],"type":"Polygon","properties":{"id":24,"statcode":"CR24","jrstatcode":"2021CR24","statnaam":"Het Gooi en Vechtstreek","rubriek":"coropgebied","FID":"coropgebied_gegeneraliseerd_2021.ef27ef38-e07e-40df-b112-cf2900d8b329"},"id":"CR24"},{"arcs":[[-164,-174,181,182,183,-166,184]],"type":"Polygon","properties":{"id":25,"statcode":"CR25","jrstatcode":"2021CR25","statnaam":"Agglomeratie Leiden en Bollenstreek","rubriek":"coropgebied","FID":"coropgebied_gegeneraliseerd_2021.fac66b30-dd9a-41fb-baf0-72d764e03f39"},"id":"CR25"},{"arcs":[[185,186,187,188,189,-183]],"type":"Polygon","properties":{"id":26,"statcode":"CR26","jrstatcode":"2021CR26","statnaam":"Agglomeratie 's-Gravenhage","rubriek":"coropgebied","FID":"coropgebied_gegeneraliseerd_2021.692fcd5b-2db6-49c0-88e3-3e3b303aacfd"},"id":"CR26"},{"arcs":[[190,191,192,193,194,-188]],"type":"Polygon","properties":{"id":27,"statcode":"CR27","jrstatcode":"2021CR27","statnaam":"Delft en Westland","rubriek":"coropgebied","FID":"coropgebied_gegeneraliseerd_2021.8752dbca-f3b1-4b01-8aae-618c2e378fb7"},"id":"CR27"},{"arcs":[[195,196,-186,-182,-173,-128]],"type":"Polygon","properties":{"id":28,"statcode":"CR28","jrstatcode":"2021CR28","statnaam":"Oost-Zuid-Holland","rubriek":"coropgebied","FID":"coropgebied_gegeneraliseerd_2021.a40c30d9-8f80-48fa-9c46-f97527d5c425"},"id":"CR28"},{"arcs":[[[199]],[[200,201,202,203,204,205,206,207,-193,208,-191,-187,-197],[209]]],"type":"MultiPolygon","properties":{"id":29,"statcode":"CR29","jrstatcode":"2021CR29","statnaam":"Groot-Rijnmond","rubriek":"coropgebied","FID":"coropgebied_gegeneraliseerd_2021.ca1a53da-c783-47e9-9237-a6b8c8ed7235"},"id":"CR29"},{"arcs":[[210,-125,-115,211,212,213,214,215,-201,-196,-127]],"type":"Polygon","properties":{"id":30,"statcode":"CR30","jrstatcode":"2021CR30","statnaam":"Zuidoost-Zuid-Holland","rubriek":"coropgebied","FID":"coropgebied_gegeneraliseerd_2021.96ee1996-3029-4b04-9bc7-7de638b9843c"},"id":"CR30"},{"arcs":[[216]],"type":"Polygon","properties":{"id":31,"statcode":"CR31","jrstatcode":"2021CR31","statnaam":"Zeeuwsch-Vlaanderen","rubriek":"coropgebied","FID":"coropgebied_gegeneraliseerd_2021.4980b240-a547-483d-ba49-3408b9076f14"},"id":"CR31"},{"arcs":[[217,-205,218,219,220,-207],[221],[222],[223]],"type":"Polygon","properties":{"id":32,"statcode":"CR32","jrstatcode":"2021CR32","statnaam":"Overig Zeeland","rubriek":"coropgebied","FID":"coropgebied_gegeneraliseerd_2021.b346b2f9-6f4a-462a-af23-fc3eff3c007e"},"id":"CR32"},{"arcs":[[225,226,227,228,229,230,231,-220,232,-203,233,-215,234,-213,235]],"type":"Polygon","properties":{"id":33,"statcode":"CR33","jrstatcode":"2021CR33","statnaam":"West-Noord-Brabant","rubriek":"coropgebied","FID":"coropgebied_gegeneraliseerd_2021.90a49c19-35a3-4271-90b0-ba893712fa58"},"id":"CR33"},{"arcs":[[-114,236,237,238,-231,239,-229,240,-227,241,-236,-212]],"type":"Polygon","properties":{"id":34,"statcode":"CR34","jrstatcode":"2021CR34","statnaam":"Midden-Noord-Brabant","rubriek":"coropgebied","FID":"coropgebied_gegeneraliseerd_2021.09e8b8e2-2018-4e1f-8e79-ef48b425eac7"},"id":"CR34"},{"arcs":[[-111,242,243,244,245,-237,-113]],"type":"Polygon","properties":{"id":35,"statcode":"CR35","jrstatcode":"2021CR35","statnaam":"Noordoost-Noord-Brabant","rubriek":"coropgebied","FID":"coropgebied_gegeneraliseerd_2021.4b8d920c-0894-41f9-9eb3-f21a1e307ac5"},"id":"CR35"},{"arcs":[[246,247,248,-238,-246,249,-244]],"type":"Polygon","properties":{"id":36,"statcode":"CR36","jrstatcode":"2021CR36","statnaam":"Zuidoost-Noord-Brabant","rubriek":"coropgebied","FID":"coropgebied_gegeneraliseerd_2021.b066b6b3-a086-47f8-84da-196b1d615d7d"},"id":"CR36"},{"arcs":[[250,251,-247,-243,-110]],"type":"Polygon","properties":{"id":37,"statcode":"CR37","jrstatcode":"2021CR37","statnaam":"Noord-Limburg","rubriek":"coropgebied","FID":"coropgebied_gegeneraliseerd_2021.df5f1ee5-c36a-4100-a613-408c8c51d75d"},"id":"CR37"},{"arcs":[[252,253,254,-248,-252]],"type":"Polygon","properties":{"id":38,"statcode":"CR38","jrstatcode":"2021CR38","statnaam":"Midden-Limburg","rubriek":"coropgebied","FID":"coropgebied_gegeneraliseerd_2021.e2f6ea46-d499-45a1-aada-16d894606e5e"},"id":"CR38"},{"arcs":[[255,-254]],"type":"Polygon","properties":{"id":39,"statcode":"CR39","jrstatcode":"2021CR39","statnaam":"Zuid-Limburg","rubriek":"coropgebied","FID":"coropgebied_gegeneraliseerd_2021.874bc9f4-b09f-4423-9dc9-56816f200cf6"},"id":"CR39"},{"arcs":[[-81,257,-77,258,259,-104,260,-102,261,-178,262,-176,263,-130,264,-46]],"type":"Polygon","properties":{"id":40,"statcode":"CR40","jrstatcode":"2021CR40","statnaam":"Flevoland","rubriek":"coropgebied","FID":"coropgebied_gegeneraliseerd_2021.bbcaec58-204b-4242-9b59-81e00e84a344"},"id":"CR40"}]}}}