{"type":"Topology","arcs":[[[3456,2321],[-20,65],[23,14],[0,48],[67,28],[28,17]],[[3554,2493],[85,24],[43,-7],[28,-18],[23,15]],[[3733,2507],[111,-21],[16,-38],[-39,-59],[24,-26],[-4,-32],[14,-70],[-31,-69],[-78,-78],[-11,-26]],[[3735,2088],[-53,35],[-25,0],[31,43],[-31,9],[-79,68]],[[3578,2243],[-122,78]],[[3516,2658],[14,-12],[11,-45],[32,-24],[118,-27],[37,-2],[-7,-33],[12,-8]],[[3554,2493],[-3,36],[-22,19],[-41,-8],[-32,8],[-42,-6],[-27,15],[-36,3],[-19,-12],[-70,16],[-24,33],[34,16],[67,0],[82,48],[13,-7],[52,18],[30,-14]],[[3456,2321],[-76,48],[-43,2],[-60,-15],[-21,30],[-49,22],[-35,37],[-45,9],[-37,-8],[-40,-18],[-27,-30],[-37,-61],[-29,7]],[[2957,2344],[-53,20],[-57,2],[-29,19],[1,24]],[[2819,2409],[23,39],[30,20],[-12,24],[38,29],[-2,18],[25,14],[8,38],[-111,27],[-8,23],[23,20]],[[2833,2661],[65,4],[53,-22],[24,12],[148,22],[107,12],[68,18],[89,9],[52,-12],[17,9],[71,-21],[-11,-34]],[[2393,2297],[-74,30],[-38,-10],[-47,3],[-32,30],[-30,2],[18,35],[-45,1],[-68,15],[-24,-1]],[[2053,2402],[27,58],[44,30],[42,16],[63,45],[95,23],[186,57],[61,6],[80,14],[85,7],[45,-5],[52,8]],[[2819,2409],[-58,-10],[-25,7],[-81,-2],[-70,-30],[-9,-15],[-52,-2],[-12,-26],[63,-3],[10,-37],[-40,-14],[-36,-3],[-16,15],[-41,-12],[-51,0],[-8,20]],[[1942,2626],[-74,-10],[-44,-21],[-30,10],[40,37],[59,12],[114,16],[124,26],[47,4],[5,-17],[-60,-14],[-24,-15],[-58,0],[-73,-26],[-26,-2]],[[2373,2709],[208,9],[-52,-18],[-82,-13],[-75,6],[-64,-23],[-52,24],[23,25],[94,-10]],[[2761,2703],[11,28],[26,22],[111,1],[-14,-27],[-92,-5],[-42,-19]],[[1704,2543],[-92,-28],[13,-17],[-57,-30],[-57,-6],[-12,11],[64,26],[57,30],[58,23],[26,-9]],[[2393,2297],[-18,-32],[16,-7],[-62,-26],[0,-44],[-44,-2],[-3,-14],[24,-33],[37,11],[59,-12],[82,15],[41,-14],[-26,-18],[-37,-54]],[[2462,2067],[-25,-10]],[[2437,2057],[-46,33],[-36,-2]],[[2355,2088],[-55,6],[-14,16],[-59,-11],[-41,-16],[-90,22],[-28,-7],[-64,26],[-8,12],[52,24],[-5,29],[11,24],[-13,28],[9,29],[-29,88],[25,14],[7,30]],[[1809,2249],[-1,1]],[[1808,2250],[1,-1]],[[2957,2344],[-10,-13],[63,-14],[-5,-33],[65,-62],[-34,-39],[-25,-11]],[[3011,2172],[-36,-16],[-30,19],[-46,3],[-50,-37],[-87,-37]],[[2762,2104],[-89,-39],[-33,2],[-26,25],[-41,-7],[-7,-11],[-47,-23],[-57,16]],[[3578,2243],[-97,-15],[-50,-15],[-61,-8],[-1,-40],[9,-36],[-8,-25],[-53,-57],[-14,4],[-74,-65]],[[3229,1986],[-29,9],[8,21],[-53,-4],[-22,9],[1,22],[-37,8],[25,36],[-19,16],[-30,-3],[-11,32],[-60,13],[9,27]],[[3352,1878],[-1,21],[-80,21]],[[3271,1920],[1,43],[-34,0],[-9,23]],[[3735,2088],[-21,-28],[-17,-163],[-13,-14],[-66,13],[-38,-8],[-41,13],[-75,-3],[-45,4],[-35,-7],[-32,-17]],[[3271,1920],[-14,4],[-62,-8],[-39,-19],[5,-33],[-87,14],[-49,-16],[-18,31],[-39,16],[-74,11],[-50,15],[-38,-5],[-44,71],[37,12],[45,31],[-82,60]],[[2507,1768],[-12,38],[-17,19],[8,36]],[[2486,1861],[52,7]],[[2538,1868],[37,-4],[57,12],[27,17],[-33,14]],[[2626,1907],[-50,18],[31,18],[-43,58],[-72,34],[-31,3],[-24,19]],[[3352,1878],[17,-13],[-11,-67],[-18,-62]],[[3340,1736],[-29,9],[-27,-24],[-136,20],[-2,-9],[-53,-14],[-13,-24],[-47,-16]],[[3033,1678],[-57,-3],[-42,10],[-14,22],[-41,9],[-93,2],[-4,-26],[-30,-1]],[[2752,1691],[-10,29],[-72,40],[-63,-34],[-40,-2],[-24,32],[-36,12]],[[2808,1481],[-42,21],[6,9],[-28,40],[-31,22],[13,49],[31,5],[-5,64]],[[3033,1678],[14,-12],[-17,-36],[-45,-10],[-9,-19],[22,-33],[-29,-16],[2,-21],[53,-35]],[[3024,1496],[-43,-19],[-41,-1],[-132,5]],[[3340,1736],[77,-26],[79,0],[8,-9],[80,-16],[52,30],[17,-36],[25,-26],[19,-2],[17,-28],[-46,-81],[2,-14],[33,-43],[-80,-14],[-30,-40],[-43,-5],[-26,-20],[-9,-27],[-18,-10],[-94,-1]],[[3403,1368],[-45,-1],[-54,12],[10,36],[-81,17],[-36,-5],[-76,6],[-50,40],[-12,19],[-35,4]],[[2651,1323],[-64,4],[-46,-28],[-49,2],[-37,-28],[-68,-4],[-21,-19],[-10,-33],[-48,-15]],[[2308,1202],[-26,-15],[-34,5]],[[2248,1192],[21,14],[-13,33],[-22,11],[-5,30],[-29,18],[5,29],[-79,-8],[14,60],[-25,35],[-33,7],[-1,31],[-46,19],[11,26]],[[2046,1497],[101,18],[23,-1],[39,56],[45,27],[130,52],[62,32],[43,47],[18,40]],[[2808,1481],[19,-26],[-29,-11],[35,-16],[-24,-16],[-91,-18],[-24,-20],[-43,-51]],[[2796,1154],[39,36],[-35,18],[3,55],[14,25],[-60,-3],[8,27],[-55,25],[-44,-21],[-15,7]],[[3403,1368],[-10,-34],[-56,-15],[-7,-30],[65,-12],[74,-34],[2,-30],[-30,-5],[-5,-24],[-24,-19],[-48,-20],[-29,19],[-151,-32],[-69,-29],[-60,16],[-11,-43],[-39,9],[-18,15],[-39,-2],[-6,15],[-85,4],[-61,37]],[[2796,1154],[-29,-7],[20,-28],[22,-8],[0,-21],[-77,11],[-35,1],[-60,-22],[-32,6],[-18,-14],[34,-26],[12,-31],[-38,-18]],[[2595,997],[-38,5],[-21,25],[-29,-21]],[[2507,1006],[-96,-5],[-24,7],[-60,32],[-22,4],[-26,24],[-39,9]],[[2240,1077],[-30,49],[1,25],[138,-9],[-1,15],[-46,22],[6,23]],[[2240,1077],[-41,-1],[-17,-11],[-50,14],[-25,-19],[-26,-1],[-34,12],[-36,-32],[-15,-34]],[[1996,1005],[-59,-19],[-50,-3],[-24,10],[-93,-6]],[[1770,987],[9,35],[-36,14],[-33,-7],[-20,18],[-47,23]],[[1643,1070],[26,-2],[26,52],[60,17],[67,80]],[[1822,1217],[33,-7],[32,17],[73,-23],[30,13],[35,1],[47,14],[57,1],[66,-26],[53,-15]],[[1948,1527],[57,-9],[41,-21]],[[1822,1217],[-32,7],[-14,22],[-31,6],[-35,-8],[-35,-25],[-40,6],[-22,-16],[-27,4],[-32,-22],[-34,-4]],[[1520,1187],[-18,30],[-57,46],[27,36],[-5,57],[-33,15],[40,23],[43,-6],[-1,18],[-61,46],[-18,25]],[[1437,1477],[48,8],[14,12],[54,6],[44,25]],[[1597,1528],[67,24]],[[1664,1552],[21,-19],[-15,-16],[46,-52],[60,-1],[11,-17],[-21,-16],[68,-3],[74,104],[40,-5]],[[1809,2249],[-128,-68],[75,-85],[-10,-71],[51,-34],[38,14],[65,-2],[25,-11],[-3,-50],[-34,-6],[-10,-29],[-75,-32],[-32,1],[-47,16],[-59,-9],[-3,-21]],[[1662,1862],[-15,-14],[-55,-3],[-24,12]],[[1568,1857],[-37,19],[-26,30],[13,30],[23,21],[-41,16],[-53,-9],[-31,7],[-7,-23],[-35,-5],[-42,40],[-41,23]],[[1291,2006],[27,45],[30,72],[8,59],[17,31],[32,2],[38,-12],[-10,-17],[16,-23],[65,-25],[67,17],[29,25],[86,11],[112,59]],[[1495,2294],[-34,-15],[-34,-27],[-68,-14],[-4,52],[28,48],[87,82],[27,13],[53,-48],[-11,-56],[-44,-35]],[[1929,1940],[0,1]],[[1929,1941],[0,-1]],[[1568,1857],[-28,-6],[-34,-29],[-71,1],[-15,-39]],[[1420,1784],[-59,18],[-23,-8],[-24,43],[-62,-13]],[[1252,1824],[39,182]],[[1203,1688],[5,30],[25,40],[19,66]],[[1420,1784],[5,-14]],[[1425,1770],[-68,-27],[-40,-38],[48,-22]],[[1365,1683],[-41,-20],[-32,16],[-25,-5],[-64,14]],[[1399,1628],[-25,8],[-54,-9],[-5,-26],[-43,-14],[-18,-23]],[[1254,1564],[-48,-5],[-70,19]],[[1136,1578],[61,95],[6,15]],[[1365,1683],[16,-2]],[[1381,1681],[-10,-30],[29,-4],[-1,-19]],[[1425,1770],[42,23],[24,-18],[60,-8],[15,-24],[-18,-13],[-43,-12],[-20,-16],[20,-22]],[[1505,1680],[-7,-13],[-117,14]],[[1654,1594],[-46,10],[-16,-15],[-54,-17],[-77,3],[-63,32],[1,21]],[[1505,1680],[68,-18],[17,10],[52,3],[68,-9]],[[1710,1666],[-43,-27],[-67,-21],[54,-24]],[[1597,1528],[-25,29],[48,24],[38,-6]],[[1658,1575],[6,-23]],[[1286,1471],[-41,-6],[-45,4],[10,50],[20,11],[24,34]],[[1654,1594],[16,-6]],[[1670,1588],[-12,-13]],[[1437,1477],[-72,-10],[1,15],[-54,-1],[-26,-10]],[[1662,1862],[11,-44],[55,-64],[-47,-39],[10,-26],[38,-2],[-19,-21]],[[1670,1588],[49,2],[56,-13],[28,-21],[72,6],[46,-10],[27,-25]],[[1017,1437],[70,77],[49,64]],[[1286,1471],[7,-21],[-19,-20],[-38,0],[-35,-16],[-23,-46],[-5,-39]],[[1173,1329],[-41,18],[-23,31],[-39,-28],[-27,11],[42,34],[-68,42]],[[1119,1281],[-26,17],[-45,-20],[-19,11],[-61,-27],[-32,6],[-22,17],[-24,-11],[-36,9],[-14,20]],[[840,1303],[106,74],[71,60]],[[1173,1329],[26,-19]],[[1199,1310],[-52,-29],[-28,0]],[[769,1250],[71,53]],[[1119,1281],[-18,-30],[-66,-39],[-29,-2],[-71,-40],[-75,21],[-27,23],[-44,16],[-20,20]],[[1520,1187],[-46,1],[-26,-16],[-62,-17]],[[1386,1155],[1,26],[-48,-2],[-22,11],[12,27],[48,30],[-28,4],[-52,-26],[-38,23],[-18,-11]],[[1241,1237],[-42,-4],[8,75],[-8,2]],[[1241,1237],[-15,-22],[59,-53],[-60,-9],[36,-14]],[[1261,1139],[21,-28],[-45,-22]],[[1237,1089],[-42,-10],[-64,5],[-90,-4],[-120,-27]],[[921,1053],[-37,-19],[-60,20],[-26,17],[-27,-2],[-55,23],[-25,-11]],[[691,1081],[19,17],[-40,38],[25,31],[-57,-2],[-4,14],[25,23],[0,24],[55,2],[55,22]],[[799,931],[-2,1]],[[797,932],[-32,23],[-53,2],[-47,35],[2,26],[-33,33],[-43,1],[-52,-9],[-55,-38]],[[484,1005],[-3,2]],[[481,1007],[19,10],[6,49],[103,24],[41,6],[41,-15]],[[691,1081],[14,-18],[98,-34],[29,-6],[72,-46],[68,-25],[56,-1],[18,21],[-57,21],[-98,22],[-6,15],[36,23]],[[1237,1089],[-18,-31],[-6,-46],[54,-34]],[[1267,978],[-19,-12],[-75,-16],[-64,15],[-60,6],[-3,-23]],[[1046,948],[-10,-5]],[[1036,943],[-21,-1],[-16,-22],[-76,-17],[-40,5],[-51,24],[-33,-1]],[[1386,1155],[-75,-16],[-50,0]],[[1643,1070],[-89,5],[-66,-27],[-24,0]],[[1464,1048],[-25,1],[-47,-18],[-13,-23],[-42,-22],[-70,-8]],[[14,622],[48,18],[109,17],[57,-20],[101,-17],[37,-22],[65,1],[24,-13],[54,-1],[50,25],[41,4],[15,41],[45,-5],[33,-35],[35,-2],[47,-22],[39,9],[8,20],[26,4],[29,-27],[-67,-54],[-110,-51],[-43,2],[-55,-28],[-74,-17],[-26,11],[-70,5],[5,40],[-39,13],[-62,7],[-103,28],[-76,-17],[13,-41],[-81,-4],[-59,31],[-11,29],[-19,13],[27,19],[-13,39]],[[879,883],[-39,-16],[-7,-21],[39,-35],[-5,-38]],[[867,773],[-18,-18],[19,-12]],[[868,743],[7,-8]],[[875,735],[0,-28],[26,-9]],[[901,698],[17,-24],[-12,-9],[16,-40]],[[922,625],[-36,-1],[-12,20],[-32,11],[-45,-11],[-93,19],[-28,19],[-59,29],[-54,-17],[5,-11],[-25,-39],[-89,-9],[-92,40],[-60,33],[-20,-15],[-65,-5],[-54,27],[-20,24],[-69,37],[4,14],[114,47],[25,5],[51,-6],[54,12],[42,-7],[91,13],[49,-5],[30,-28],[1,-14],[64,-27],[61,-13],[76,-72],[39,-14],[49,12],[41,-5],[-9,53],[-37,10],[-13,21],[-90,4],[-50,40],[-40,14],[79,31],[64,1],[-28,21],[21,20],[72,-19],[45,-1]],[[484,1005],[13,-18],[32,6],[25,-13],[59,3],[36,-31],[8,-16],[29,-2],[50,-17],[20,11],[41,4]],[[799,931],[-52,-9],[-9,-26],[-25,-15],[-61,-14],[-42,-4],[-39,15],[-39,3],[-13,35],[-53,17],[-10,14],[-96,-32],[-28,12],[-10,27],[24,24],[65,14],[51,-3],[19,18]],[[1402,751],[-67,-50],[-27,-8],[4,-18],[-95,7],[-40,-10],[-5,27],[8,32],[-96,-13],[-57,-20],[-1,-28],[48,-46],[-47,-21],[-44,4],[-6,20],[-55,-2]],[[901,698],[21,21],[-47,16]],[[868,743],[-1,30]],[[879,883],[113,14],[75,49],[78,-15],[104,17],[32,13],[113,11],[51,-12],[34,2]],[[1479,962],[81,7],[15,-43],[0,-26],[-23,-21],[4,-32],[-50,-19],[3,-20],[-36,-9],[-84,-35],[13,-13]],[[1489,977],[-10,-13],[-43,1],[-39,11],[32,24],[60,5]],[[1489,1005],[0,-28]],[[1046,948],[-10,-5]],[[1479,962],[10,15]],[[1489,1005],[-61,1],[-30,19],[27,18],[39,5]],[[1770,987],[-46,-16],[25,-11],[-5,-39],[4,-36],[43,3],[26,-29],[39,-24],[32,-7],[27,-26]],[[1915,802],[-29,-27],[-53,-96],[-89,-1]],[[1744,678],[-23,42],[-68,1],[-6,-27],[-74,-47],[-45,19],[-97,-8],[-3,23],[43,-8],[-6,25],[19,32],[-27,14],[-55,7]],[[2046,797],[-21,-5],[-75,3],[-35,7]],[[1996,1005],[58,6],[-6,-24],[12,-30],[39,-20],[-12,-24],[57,-41],[-6,-13],[-80,-21],[-17,-17],[5,-24]],[[2480,815],[-37,12],[-14,20],[-87,-14],[-49,-2],[2,-12],[-31,-17],[-38,10],[-51,-5],[14,-20],[-47,-17],[-13,21],[-63,-8],[-20,14]],[[2507,1006],[20,-29],[70,-19],[10,-56],[54,-30],[29,-64],[-44,11],[-69,-16],[-97,12]],[[2480,815],[15,-62],[19,-54],[59,-65],[-57,-32],[-34,-6]],[[2482,596],[-168,-32],[-46,-42],[-7,-44],[-53,-8]],[[2208,470],[-10,46],[-40,28],[-31,5],[-43,-18],[-25,-20],[-71,14],[-10,-13],[-40,-1],[-70,7],[15,37],[-41,17],[-37,-13],[-29,5],[-2,32],[-61,46],[31,36]],[[2595,997],[41,-10],[51,-21],[-19,-8],[11,-36],[72,-26],[-18,-41],[66,-40],[20,-27],[35,-26],[12,-38],[-19,-75],[21,-40],[-57,-27],[-44,-58],[-52,-32]],[[2715,492],[-47,4],[-21,11],[4,19],[-54,23],[-48,14],[-55,7],[-12,26]],[[2715,492],[0,-60],[28,-12],[38,2],[24,-20],[-71,-18],[-55,-38],[-39,-13],[-30,-39],[-30,-10],[-25,32]],[[2555,316],[-80,29],[-18,-1]],[[2457,344],[-7,19],[48,31],[-31,23],[-47,-17],[-1,28],[-31,11],[-35,-8],[-47,4],[-19,14],[-79,21]],[[2555,316],[-26,-15],[-8,-34],[27,-16],[-9,-27],[58,13],[11,-8],[53,4],[-1,-49],[64,-13],[-7,-32],[13,-18],[-14,-25],[-55,-1],[6,-32],[-21,-13],[24,-27],[-14,-19],[-56,7],[-57,-11],[-15,19],[-34,-13],[-45,-1],[-30,26],[-38,-25],[-56,5],[18,21],[-9,29],[-36,12],[-17,24],[5,23],[38,16],[16,23],[30,14],[30,31],[-37,8],[45,35],[10,24],[-16,9],[13,31],[18,-3],[24,36]],[[2626,1907],[-20,-18],[-131,-26],[-169,0],[-10,-15],[102,-16],[58,-5],[38,-26],[-2,-55],[-53,-57],[-50,-25],[-25,2],[-60,-18],[-51,-31],[-47,0],[-27,-19],[16,-28],[-24,-45],[-116,-22],[-96,51],[-53,20],[-69,13],[-38,-8],[-21,8],[-7,46],[33,16],[96,36],[177,76],[22,43],[42,1],[59,37],[70,13],[24,12],[-36,34],[-23,10],[2,102],[64,64],[54,11]],[[1929,1941],[0,-1]],[[2486,1861],[52,7]]],"transform":{"scale":[0.001,0.0009996406755300048],"translate":[3.358,50.751]},"objects":{"coropsubgebied_2001":{"type":"GeometryCollection","geometries":[{"arcs":[[0,1,2,3,4]],"type":"Polygon","properties":{"id":253585,"statcode":"CS010","statnaam":"Oost-Groningen","jrstatcode":"2001CS010","rubriek":"coropsubgebied","FID":"coropsubgebied_gegeneraliseerd_2001.dd709fc1-6e7b-49e2-9847-45d2056f2a77"},"id":"CS010"},{"arcs":[[5,-2,6]],"type":"Polygon","properties":{"id":253586,"statcode":"CS020","statnaam":"Delfzijl en omgeving","jrstatcode":"2001CS020","rubriek":"coropsubgebied","FID":"coropsubgebied_gegeneraliseerd_2001.a69b7aa8-05ac-4b1f-a826-c162c2d4e1fb"},"id":"CS020"},{"arcs":[[7,8,9,10,-7,-1]],"type":"Polygon","properties":{"id":253587,"statcode":"CS030","statnaam":"Overig Groningen","jrstatcode":"2001CS030","rubriek":"coropsubgebied","FID":"coropsubgebied_gegeneraliseerd_2001.4d2a48b8-f7e9-4236-8ba7-936563fce672"},"id":"CS030"},{"arcs":[[[11,12,-10,13]],[[14]],[[15]],[[16]],[[17]]],"type":"MultiPolygon","properties":{"id":253588,"statcode":"CS040","statnaam":"Noord-Friesland","jrstatcode":"2001CS040","rubriek":"coropsubgebied","FID":"coropsubgebied_gegeneraliseerd_2001.7b7eb72e-3b3f-4e7f-8a73-e18920a86a14"},"id":"CS040"},{"arcs":[[18,19,20,21,-12]],"type":"Polygon","properties":{"id":253589,"statcode":"CS050","statnaam":"Zuidwest-Friesland","jrstatcode":"2001CS050","rubriek":"coropsubgebied","FID":"coropsubgebied_gegeneraliseerd_2001.49a98dd9-bd63-4abc-a226-480e4e61a63d"},"id":"CS050"},{"arcs":[[-9,24,25,26,-19,-14]],"type":"Polygon","properties":{"id":253590,"statcode":"CS060","statnaam":"Zuidoost-Friesland","jrstatcode":"2001CS060","rubriek":"coropsubgebied","FID":"coropsubgebied_gegeneraliseerd_2001.3d260b9f-7ed0-4042-b96f-73bdb30954b4"},"id":"CS060"},{"arcs":[[-8,-5,27,28,-25]],"type":"Polygon","properties":{"id":253591,"statcode":"CS070","statnaam":"Noord-Drenthe","jrstatcode":"2001CS070","rubriek":"coropsubgebied","FID":"coropsubgebied_gegeneraliseerd_2001.bd4c49fd-7891-4f5c-bb76-fab627563c97"},"id":"CS070"},{"arcs":[[29,30,-28,-4,31]],"type":"Polygon","properties":{"id":253592,"statcode":"CS080","statnaam":"Zuidoost-Drenthe","jrstatcode":"2001CS080","rubriek":"coropsubgebied","FID":"coropsubgebied_gegeneraliseerd_2001.f8b7310d-a9ff-4040-9f04-8526cd2bd0cf"},"id":"CS080"},{"arcs":[[32,-26,-29,-31]],"type":"Polygon","properties":{"id":253593,"statcode":"CS090","statnaam":"Zuidwest-Drenthe","jrstatcode":"2001CS090","rubriek":"coropsubgebied","FID":"coropsubgebied_gegeneraliseerd_2001.66744bf3-161e-4560-90b8-f23ab2896bc0"},"id":"CS090"},{"arcs":[[33,34,35,36,-20,-27,-33,-30,37,38,39,40]],"type":"Polygon","properties":{"id":253594,"statcode":"CS100","statnaam":"Noord-Overijssel","jrstatcode":"2001CS100","rubriek":"coropsubgebied","FID":"coropsubgebied_gegeneraliseerd_2001.2527fde1-9ce1-4578-bf79-a6725a625429"},"id":"CS100"},{"arcs":[[41,-40,42,43]],"type":"Polygon","properties":{"id":253595,"statcode":"CS110","statnaam":"Zuidwest-Overijssel","jrstatcode":"2001CS110","rubriek":"coropsubgebied","FID":"coropsubgebied_gegeneraliseerd_2001.71b60349-d501-4f4f-b1d0-f9deb894db26"},"id":"CS110"},{"arcs":[[44,45,-43,-39]],"type":"Polygon","properties":{"id":253596,"statcode":"CS120","statnaam":"Twente","jrstatcode":"2001CS120","rubriek":"coropsubgebied","FID":"coropsubgebied_gegeneraliseerd_2001.05135ed2-eaa4-44b3-8668-b191b590fad8"},"id":"CS120"},{"arcs":[[46,47,48,49,-41,-42,50]],"type":"Polygon","properties":{"id":253597,"statcode":"CS130","statnaam":"Veluwe","jrstatcode":"2001CS130","rubriek":"coropsubgebied","FID":"coropsubgebied_gegeneraliseerd_2001.4d884b57-d4c5-4046-a013-39a877b179c6"},"id":"CS130"},{"arcs":[[51,-51,-44,-46,52]],"type":"Polygon","properties":{"id":253598,"statcode":"CS140","statnaam":"Achterhoek","jrstatcode":"2001CS140","rubriek":"coropsubgebied","FID":"coropsubgebied_gegeneraliseerd_2001.0777060d-03ea-4a3a-9b3f-f99f482bfcf0"},"id":"CS140"},{"arcs":[[53,54,55,56,-47,-52]],"type":"Polygon","properties":{"id":253599,"statcode":"CS150","statnaam":"Arnhem/Nijmegen","jrstatcode":"2001CS150","rubriek":"coropsubgebied","FID":"coropsubgebied_gegeneraliseerd_2001.a4ff9e8c-246f-4742-bb7e-088f2761f1aa"},"id":"CS150"},{"arcs":[[57,58,59,60,61,-48,-57]],"type":"Polygon","properties":{"id":253600,"statcode":"CS160","statnaam":"Zuidwest-Gelderland","jrstatcode":"2001CS160","rubriek":"coropsubgebied","FID":"coropsubgebied_gegeneraliseerd_2001.3d46fc7e-fe1d-4e2c-beb0-b904f8f8a779"},"id":"CS160"},{"arcs":[[62,-49,-62,63,64,65,66,67]],"type":"Polygon","properties":{"id":253601,"statcode":"CS170","statnaam":"Utrecht","jrstatcode":"2001CS170","rubriek":"coropsubgebied","FID":"coropsubgebied_gegeneraliseerd_2001.f5a2c3a9-3675-4755-87d7-6f9f8daba883"},"id":"CS170"},{"arcs":[[[-23,68,69,70,71]],[[72]]],"type":"MultiPolygon","properties":{"id":253602,"statcode":"CS180","statnaam":"Kop van Noord-Holland","jrstatcode":"2001CS180","rubriek":"coropsubgebied","FID":"coropsubgebied_gegeneraliseerd_2001.f52ea130-5c3c-47bb-803f-83181f8691d4"},"id":"CS180"},{"arcs":[[-71,75,76,77]],"type":"Polygon","properties":{"id":253603,"statcode":"CS190","statnaam":"Alkmaar en omgeving","jrstatcode":"2001CS190","rubriek":"coropsubgebied","FID":"coropsubgebied_gegeneraliseerd_2001.adf0af29-21c0-4117-a048-9d8487879504"},"id":"CS190"},{"arcs":[[78,-77,79,80,81]],"type":"Polygon","properties":{"id":253604,"statcode":"CS200","statnaam":"IJmond","jrstatcode":"2001CS200","rubriek":"coropsubgebied","FID":"coropsubgebied_gegeneraliseerd_2001.36328e8b-c008-4d1b-a4bc-3926f353e8cf"},"id":"CS200"},{"arcs":[[82,83,84,-82,85,86]],"type":"Polygon","properties":{"id":253605,"statcode":"CS210","statnaam":"Agglomeratie Haarlem","jrstatcode":"2001CS210","rubriek":"coropsubgebied","FID":"coropsubgebied_gegeneraliseerd_2001.afde6e52-f46c-4ba7-9e09-8b9ee0c8a969"},"id":"CS210"},{"arcs":[[-86,-81,87,88]],"type":"Polygon","properties":{"id":253606,"statcode":"CS220","statnaam":"Zaanstreek","jrstatcode":"2001CS220","rubriek":"coropsubgebied","FID":"coropsubgebied_gegeneraliseerd_2001.ee7ca909-74ab-47c3-9c4b-4c359ebdd268"},"id":"CS220"},{"arcs":[[[89,-87,-89,90,91]],[[-67,92,93]]],"type":"MultiPolygon","properties":{"id":253607,"statcode":"CS231","statnaam":"Amsterdam","jrstatcode":"2001CS231","rubriek":"coropsubgebied","FID":"coropsubgebied_gegeneraliseerd_2001.e5fbdf4c-c4bb-49ab-991c-a06454e0b91f"},"id":"CS231"},{"arcs":[[[94,-83,-90,95,96,-93,-66,97]],[[-88,-80,-76,-70,98,-91]]],"type":"MultiPolygon","properties":{"id":253608,"statcode":"CS232","statnaam":"Overig Groot-Amsterdam","jrstatcode":"2001CS232","rubriek":"coropsubgebied","FID":"coropsubgebied_gegeneraliseerd_2001.e2403fde-4056-4493-8b50-ecfc5e825675"},"id":"CS232"},{"arcs":[[-94,-97,99,-68]],"type":"Polygon","properties":{"id":253609,"statcode":"CS240","statnaam":"Het Gooi en Vechtstreek","jrstatcode":"2001CS240","rubriek":"coropsubgebied","FID":"coropsubgebied_gegeneraliseerd_2001.1de4f3bd-5650-44f3-a57e-c746d8f0bac9"},"id":"CS240"},{"arcs":[[100,-84,-95,101,102]],"type":"Polygon","properties":{"id":253610,"statcode":"CS250","statnaam":"Agglomeratie Leiden en Bollens","jrstatcode":"2001CS250","rubriek":"coropsubgebied","FID":"coropsubgebied_gegeneraliseerd_2001.ebb4270d-2322-43fb-b4b6-b05f94c57376"},"id":"CS250"},{"arcs":[[103,104,-103,105,106]],"type":"Polygon","properties":{"id":253611,"statcode":"CS260","statnaam":"Agglomeratie 's-Gravenhage","jrstatcode":"2001CS260","rubriek":"coropsubgebied","FID":"coropsubgebied_gegeneraliseerd_2001.cb494609-2707-4a3b-a5d3-207d4481197b"},"id":"CS260"},{"arcs":[[107,-104,108]],"type":"Polygon","properties":{"id":253612,"statcode":"CS270","statnaam":"Delft en Westland","jrstatcode":"2001CS270","rubriek":"coropsubgebied","FID":"coropsubgebied_gegeneraliseerd_2001.817352e0-56b2-4f9a-af8f-5a25eed27aba"},"id":"CS270"},{"arcs":[[109,110,111,-106,-102,-98,-65]],"type":"Polygon","properties":{"id":253613,"statcode":"CS280","statnaam":"Oost-Zuid-Holland","jrstatcode":"2001CS280","rubriek":"coropsubgebied","FID":"coropsubgebied_gegeneraliseerd_2001.99067126-7e52-4615-bbdf-cdd3badc57e2"},"id":"CS280"},{"arcs":[[-112,112,113,114,115,116,-109,-107]],"type":"Polygon","properties":{"id":253614,"statcode":"CS291","statnaam":"Rijnmond","jrstatcode":"2001CS291","rubriek":"coropsubgebied","FID":"coropsubgebied_gegeneraliseerd_2001.2900f504-3074-4277-b6fa-92e73bbfbef5"},"id":"CS291"},{"arcs":[[[117,118,119,120,121,-115,122,123,124,125]],[[-111,126,-113]]],"type":"MultiPolygon","properties":{"id":253615,"statcode":"CS292","statnaam":"Overig Groot-Rijnmond","jrstatcode":"2001CS292","rubriek":"coropsubgebied","FID":"coropsubgebied_gegeneraliseerd_2001.06439a16-a3b9-4ae8-90f8-9979b6be212a"},"id":"CS292"},{"arcs":[[-127,-110,-64,-61,127,128,-123,-114]],"type":"Polygon","properties":{"id":253616,"statcode":"CS300","statnaam":"Zuidoost-Zuid-Holland","jrstatcode":"2001CS300","rubriek":"coropsubgebied","FID":"coropsubgebied_gegeneraliseerd_2001.7b58f32f-1c8a-409e-8f04-693426a1bbcb"},"id":"CS300"},{"arcs":[[129]],"type":"Polygon","properties":{"id":253617,"statcode":"CS310","statnaam":"Zeeuwsch-Vlaanderen","jrstatcode":"2001CS310","rubriek":"coropsubgebied","FID":"coropsubgebied_gegeneraliseerd_2001.dcacdc2d-d30c-4532-adde-db1e10e29a7e"},"id":"CS310"},{"arcs":[[[130,131,132,133,134,135]],[[136,-118,137,-120]]],"type":"MultiPolygon","properties":{"id":253618,"statcode":"CS320","statnaam":"Overig Zeeland","jrstatcode":"2001CS320","rubriek":"coropsubgebied","FID":"coropsubgebied_gegeneraliseerd_2001.aae9b86b-3ff3-4f99-9823-3826d786df48"},"id":"CS320"},{"arcs":[[[138,-135,139,-133,140,-131,141,142]],[[143,144]]],"type":"MultiPolygon","properties":{"id":253619,"statcode":"CS330","statnaam":"West-Noord-Brabant","jrstatcode":"2001CS330","rubriek":"coropsubgebied","FID":"coropsubgebied_gegeneraliseerd_2001.42e75716-1633-4564-bd8f-27225528724d"},"id":"CS330"},{"arcs":[[-143,146,-145,147,-128,-60,148,149,150]],"type":"Polygon","properties":{"id":253620,"statcode":"CS340","statnaam":"Midden-Noord-Brabant","jrstatcode":"2001CS340","rubriek":"coropsubgebied","FID":"coropsubgebied_gegeneraliseerd_2001.c484dc70-ea64-4c22-9ad4-21ea3ad4d3a6"},"id":"CS340"},{"arcs":[[151,-149,-59,152]],"type":"Polygon","properties":{"id":253621,"statcode":"CS351","statnaam":"Stadsgewest 's-Hertogenbosch","jrstatcode":"2001CS351","rubriek":"coropsubgebied","FID":"coropsubgebied_gegeneraliseerd_2001.5283b860-25db-421f-8ff0-c7a0b5d3839e"},"id":"CS351"},{"arcs":[[153,-153,-58,-56,154]],"type":"Polygon","properties":{"id":253622,"statcode":"CS352","statnaam":"Overig Noordoost-Noord-Brabant","jrstatcode":"2001CS352","rubriek":"coropsubgebied","FID":"coropsubgebied_gegeneraliseerd_2001.cf35a721-2faf-4295-9e7a-b19d1dfde482"},"id":"CS352"},{"arcs":[[155,156,157,-150,-152,-154]],"type":"Polygon","properties":{"id":253623,"statcode":"CS360","statnaam":"Zuidoost-Noord-Brabant","jrstatcode":"2001CS360","rubriek":"coropsubgebied","FID":"coropsubgebied_gegeneraliseerd_2001.5a9c9298-623d-47e4-8a5d-5d478b1f36af"},"id":"CS360"},{"arcs":[[-55,158,159,-156,-155]],"type":"Polygon","properties":{"id":253624,"statcode":"CS370","statnaam":"Noord-Limburg","jrstatcode":"2001CS370","rubriek":"coropsubgebied","FID":"coropsubgebied_gegeneraliseerd_2001.7f94d8cb-5a9d-4f9d-b114-7dc8ddf2f6db"},"id":"CS370"},{"arcs":[[160,161,162,-157,-160]],"type":"Polygon","properties":{"id":253625,"statcode":"CS380","statnaam":"Midden-Limburg","jrstatcode":"2001CS380","rubriek":"coropsubgebied","FID":"coropsubgebied_gegeneraliseerd_2001.c69dbee0-bf87-4751-bda1-0d1f37560298"},"id":"CS380"},{"arcs":[[-162,163]],"type":"Polygon","properties":{"id":253626,"statcode":"CS390","statnaam":"Zuid-Limburg","jrstatcode":"2001CS390","rubriek":"coropsubgebied","FID":"coropsubgebied_gegeneraliseerd_2001.3fecd94e-518b-46e8-8bcf-c89716a56229"},"id":"CS390"},{"arcs":[[-21,-37,164]],"type":"Polygon","properties":{"id":253627,"statcode":"CS400","statnaam":"Flevoland","jrstatcode":"2001CS400","rubriek":"coropsubgebied","FID":"coropsubgebied_gegeneraliseerd_2001.e94ce2bf-7b0c-4f55-813e-f05e37b31e20"},"id":"CS400"}]}}}