{"type":"Topology","arcs":[[[3733,2507],[114,-20],[13,-39],[-39,-59],[24,-26],[-4,-32],[14,-70],[-31,-69],[-78,-78],[-11,-26]],[[3735,2088],[-53,35],[-25,0],[31,43],[-32,10],[-78,67]],[[3578,2243],[-122,78]],[[3456,2321],[-20,65],[23,14],[0,48],[67,28],[17,-3],[51,34],[45,10],[43,-7],[28,-18],[23,15]],[[3568,2570],[158,-22],[-5,-33],[12,-8]],[[3456,2321],[-76,48],[-43,2],[-60,-15],[-21,30],[-49,22],[-29,38],[-51,8],[-37,-8],[-40,-18],[-27,-30],[-37,-61],[-29,7]],[[2957,2344],[-53,20],[-57,2],[-29,19],[1,32],[23,31],[30,20],[-12,24],[14,15]],[[2874,2507],[22,32],[25,14],[8,38],[-111,27],[-8,23],[23,20]],[[2833,2661],[65,4],[53,-22],[24,12],[148,22],[107,12],[68,18],[89,9],[52,-12],[17,9],[71,-21],[-11,-34],[14,-12],[11,-45],[42,-20]],[[3583,2581],[-15,-11]],[[3141,2787],[-30,-12],[-23,16],[17,13],[36,-17]],[[2053,2402],[27,58],[45,31],[44,16],[60,44],[95,23],[186,57],[61,6],[80,14],[85,7],[45,-5],[52,8]],[[2874,2507],[-38,13],[-53,-6],[-66,-15],[-119,-21],[-30,24],[-65,36],[-28,-20],[-1,-25],[49,-18],[-23,-21],[4,-33],[64,-2],[-17,-24],[35,-23],[-10,-13],[-52,-2],[-12,-26],[63,-3],[10,-37],[-48,-21]],[[2537,2270],[-44,19],[-41,-12],[-51,0],[-8,20],[-52,23],[10,20],[48,26],[8,58],[-42,-5],[-30,11],[-40,-14],[-63,12],[-11,-15],[26,-19],[-39,-14],[-38,16],[-25,-8],[-68,15],[-24,-1]],[[1992,2635],[-56,-14],[-68,-5],[-49,-22],[-17,24],[31,25],[33,8],[91,11],[129,23],[67,16],[31,-17],[-76,-20],[-9,-10],[-75,-3],[-32,-16]],[[2526,2703],[-79,-15],[-75,5],[-64,-23],[-52,25],[14,22],[130,-8],[125,8],[1,-14]],[[2526,2704],[0,-1]],[[2526,2703],[0,1]],[[2753,2747],[45,6],[111,1],[-14,-27],[-92,-5],[-19,-18],[-25,4],[13,23],[-19,16]],[[1736,2545],[-124,-30],[13,-17],[-57,-30],[-57,-6],[-12,11],[64,26],[39,22],[76,31],[28,6],[30,-13]],[[2537,2270],[-11,-13],[3,-32],[47,-60],[-48,-21],[-29,-23],[-37,-54]],[[2462,2067],[-25,-10]],[[2437,2057],[-46,33],[-36,-2]],[[2355,2088],[-55,6],[-14,16],[-59,-11],[-41,-16],[-90,22],[-28,-7],[-32,11],[-40,27],[52,24],[-5,29],[11,24],[-13,28],[9,29],[-29,88],[25,14],[7,30]],[[1809,2249],[-1,1]],[[1808,2250],[1,-1]],[[2985,2161],[-40,14],[-46,3],[-50,-37],[-87,-37]],[[2762,2104],[-89,-39],[-33,2],[-26,25],[-41,-7],[-7,-11],[-47,-23],[-57,16]],[[2957,2344],[-10,-13],[63,-14],[-5,-33],[65,-62],[-34,-39],[-51,-22]],[[3578,2243],[-97,-15],[-49,-15],[-62,-8],[-3,-18],[11,-58],[-8,-25],[-44,-26],[-11,-18],[-97,-86]],[[3218,1974],[-40,5],[-44,64],[-53,11],[24,35],[-32,11],[-11,32],[-60,13],[-17,16]],[[3218,1974],[31,-11],[1,-40]],[[3250,1923],[-55,-7],[-39,-19],[5,-33],[-85,12],[-51,-14],[-18,31],[-39,16],[-74,11],[-38,16],[-31,-11],[-27,18],[-36,58],[37,12],[45,31],[-82,60]],[[3735,2088],[-21,-28],[-17,-163],[-13,-14],[-66,13],[-38,-8],[-41,13],[-75,-3],[-45,4],[-35,-7],[-32,-17]],[[3352,1878],[-1,21],[-101,24]],[[2626,1907],[-50,18],[31,18],[-22,22],[-21,36],[-72,34],[-31,0],[-24,22]],[[3352,1878],[17,-13],[-8,-26],[48,-25],[-41,-2],[-10,-14],[-35,5],[24,-32],[-7,-35]],[[3340,1736],[-29,9],[-27,-24],[-136,20],[-2,-9],[-53,-14],[-13,-24],[-47,-16]],[[3033,1678],[-57,-4],[-19,9],[-82,-11],[-14,-37],[-29,-10],[-6,-23],[-34,10],[-29,18]],[[2763,1630],[10,20],[-20,8],[9,25],[-27,22],[-70,-11]],[[2665,1694],[10,35],[-32,21],[-36,-24],[-40,-2],[-24,32],[-36,12]],[[2507,1768],[-5,24],[-24,33],[8,36]],[[2486,1861],[52,7]],[[2538,1868],[37,-4],[57,11],[27,18],[-33,14]],[[3403,1368],[-45,-1],[-54,12],[-39,-10],[-55,1],[-26,24],[13,33],[-63,1]],[[3134,1428],[-63,45],[-12,19],[54,26],[-10,52],[-39,6],[-66,-8],[-22,33],[9,19],[45,10],[17,36],[-14,12]],[[3340,1736],[76,-26],[80,0],[8,-9],[80,-16],[52,30],[17,-36],[25,-26],[19,-2],[17,-28],[-15,-35],[-31,-46],[2,-14],[33,-43],[-80,-14],[-30,-40],[-43,-5],[-26,-20],[-9,-27],[-18,-10],[-94,-1]],[[3134,1428],[-8,-21],[-23,-6],[31,-27],[-14,-24],[-35,5],[-28,-17],[-4,-23],[-79,11],[-59,-4],[-55,25]],[[2860,1347],[-28,17],[-8,37],[9,27],[-35,16],[33,23],[-46,22],[-41,62],[-31,22],[13,49],[37,8]],[[2308,1202],[-26,-15],[-34,5]],[[2248,1192],[21,14],[-13,33],[-22,11],[-11,33],[-23,15],[5,29],[-67,-6]],[[2138,1321],[-10,22],[12,36],[-17,21],[4,32],[36,10],[23,-17],[34,20],[49,-1],[6,14]],[[2275,1458],[38,16],[13,17],[42,2]],[[2368,1493],[25,-49],[42,3],[17,-47],[50,-2],[24,-43],[62,-7],[0,-21]],[[2588,1327],[-47,-28],[-49,2],[-37,-28],[-68,-4],[-21,-19],[-10,-33],[-48,-15]],[[2665,1694],[-49,-34],[-62,-23],[-47,-35],[16,-17],[-40,-31],[11,-24],[-9,-13],[-93,1],[11,-20],[-35,-5]],[[2275,1458],[-82,-6],[-35,32],[-34,6],[-3,18]],[[2121,1508],[49,6],[32,48],[52,35],[128,51],[64,33],[43,47],[18,40]],[[2860,1347],[-39,-7],[-42,-32]],[[2779,1308],[-34,19],[-35,10],[-44,-21],[-34,12],[-44,-1]],[[3403,1368],[-10,-34],[-16,-10],[-40,-5],[-7,-30],[65,-12],[74,-34],[2,-30],[-30,-5],[-5,-24],[-24,-19],[-48,-20],[-29,19],[-151,-32],[-69,-29],[-22,11],[-50,5],[1,-43],[-39,9],[-18,15],[-39,-2],[-6,15],[-85,4],[-61,37]],[[2796,1154],[39,36],[-35,18],[3,55],[14,25],[-38,20]],[[2796,1154],[-29,-7],[20,-28],[22,-8],[0,-21],[-77,11],[-26,13]],[[2706,1114],[-58,17],[-26,-23],[-22,-4],[-33,19],[-28,-3],[-40,-19],[-25,20],[-107,15],[-29,8],[-70,4]],[[2268,1148],[-9,24],[43,11],[6,19]],[[1770,987],[9,35],[-36,14],[-33,-7],[-20,18],[-47,23]],[[1643,1070],[26,-2],[4,22],[22,30],[60,17],[36,45]],[[1791,1182],[31,35],[33,-8],[17,16],[26,-5]],[[1898,1220],[62,-16],[30,13],[35,1],[47,14],[57,1],[66,-26],[53,-15]],[[2268,1148],[-57,3],[-61,-12],[-63,-6],[-44,-46],[14,-17]],[[2057,1070],[-46,-31]],[[2011,1039],[-41,6],[-60,-13],[2,-9],[-79,-8],[-5,-24],[-58,-4]],[[2706,1114],[-9,-12],[-60,-22],[-32,6],[-18,-14],[34,-26],[12,-31],[-39,-17],[42,-11],[51,-21],[-19,-8],[6,-33]],[[2674,925],[-55,-32]],[[2619,893],[-12,9],[-10,56],[-70,19],[-8,23],[-23,8],[-75,-7],[-30,5],[-64,34],[-22,4],[-26,24],[-49,11],[-48,-14],[-50,14],[-25,-19],[-50,10]],[[2626,1907],[-20,-18],[-131,-26],[-169,0],[-10,-15],[102,-16],[58,-5],[38,-26],[5,-31],[-8,-25],[-54,-57],[-48,-24],[-25,2],[-60,-18],[-52,-31],[-46,0],[-27,-19],[16,-28],[-24,-45],[-116,-22],[-96,51],[-38,15],[-93,17],[-50,1],[-7,46],[33,16],[96,36],[177,76],[0,18],[29,23],[35,3],[59,37],[70,13],[24,12],[-36,34],[-23,10],[2,102],[64,64],[54,11]],[[2486,1861],[52,7]],[[1857,1439],[1,15]],[[1858,1454],[7,21],[43,57],[40,-5]],[[1948,1527],[57,-9],[52,-23],[64,13]],[[2138,1321],[-11,-16],[-36,-13],[-11,27],[-106,14],[-10,18],[-58,23],[-21,46],[-28,19]],[[1804,1356],[24,-14],[-26,-15],[-7,-21]],[[1795,1306],[-81,5],[-46,35],[29,29],[32,10],[62,-18],[13,-11]],[[1597,1528],[67,24]],[[1664,1552],[21,-19],[-15,-16],[30,-32],[-21,-10],[-2,-38],[11,-21],[75,15],[71,-3],[24,26]],[[1857,1439],[-42,-75],[-11,-8]],[[1795,1306],[78,-47],[25,-39]],[[1791,1182],[-61,17],[-34,27],[-33,-7],[-28,6],[-22,-16],[-27,4],[-32,-22],[-34,-4]],[[1520,1187],[-18,30],[-57,46],[27,36],[37,13],[-41,12],[-1,32],[-33,15]],[[1434,1371],[40,22],[43,-5],[-1,18],[-61,46],[-18,25]],[[1437,1477],[19,0],[70,26],[27,0],[44,25]],[[1809,2249],[-128,-68],[75,-85],[-10,-71]],[[1746,2025],[-70,-23],[-88,2],[-47,-47]],[[1541,1957],[-41,16],[-53,-9],[-32,6],[-6,-22],[-35,-5],[-42,40],[-41,23]],[[1291,2006],[27,45],[30,72],[8,59],[17,31],[37,2],[33,-12],[-10,-17],[16,-23],[69,-25],[63,17],[29,25],[86,11],[112,59]],[[1390,2345],[79,73],[28,15],[53,-48],[-11,-56],[-49,-44],[-29,-6],[-34,-27],[-68,-14],[-8,28],[17,53],[22,26]],[[1662,1862],[-15,-14],[-55,-3],[-24,12]],[[1568,1857],[-37,19],[-26,30],[13,30],[23,21]],[[1746,2025],[51,-34],[38,14],[65,-1],[25,-12],[-3,-50],[-34,-7],[-10,-28],[-75,-32],[-32,1],[-47,16],[-59,-9],[-3,-21]],[[1568,1857],[-28,-6],[-56,-57],[-17,-1],[-35,-24]],[[1432,1769],[-7,1]],[[1425,1770],[-64,32],[-25,-7],[-22,42],[-62,-13]],[[1252,1824],[39,182]],[[1425,1770],[-68,-27],[-40,-38],[48,-22]],[[1365,1683],[-41,-20],[-32,16],[-25,-5],[-64,14]],[[1203,1688],[5,30],[27,46],[17,60]],[[1365,1683],[16,-2]],[[1381,1681],[-10,-30],[29,-4],[-1,-19]],[[1399,1628],[-25,8],[-54,-9],[-5,-26],[-43,-14],[-18,-23]],[[1254,1564],[-48,-5],[-70,19]],[[1136,1578],[61,95],[6,15]],[[1432,1769],[9,-28],[94,-34],[6,-33]],[[1541,1674],[-43,-7],[-117,14]],[[1662,1862],[11,-44],[55,-64],[-47,-39],[29,-49]],[[1710,1666],[-68,9],[-52,-3],[-17,-10],[-32,12]],[[1597,1528],[-25,29],[-5,28],[-29,-13],[-77,3],[-63,32],[1,21]],[[1710,1666],[-43,-27],[-64,-25],[66,-26]],[[1669,1588],[-14,-7],[9,-29]],[[1437,1477],[-72,-10],[-19,17],[-60,-13]],[[1286,1471],[-41,-6],[-45,4]],[[1200,1469],[10,50],[20,11],[24,34]],[[1669,1588],[50,2],[57,-13],[27,-21],[72,6],[63,-17],[10,-18]],[[1286,1471],[7,-21],[-19,-20],[-38,0],[-35,-16],[-23,-46],[-5,-39]],[[1173,1329],[-41,18],[-23,31],[-39,-27],[-27,10],[43,34],[-3,11]],[[1083,1406],[25,41],[72,-17],[20,39]],[[1083,1406],[-29,8],[-37,23]],[[1017,1437],[52,57],[67,84]],[[840,1303],[58,44],[48,30]],[[946,1377],[40,-30],[-2,-37]],[[984,1310],[-94,-36],[-36,9],[-14,20]],[[1207,1308],[-8,2]],[[1199,1310],[-26,19]],[[1434,1371],[-87,-27],[-64,3],[-9,-22],[-67,-17]],[[946,1377],[71,60]],[[1199,1310],[-52,-29],[-28,0],[-27,17],[-108,12]],[[1021,1212],[-64,-25],[-22,-17],[-73,20]],[[862,1190],[-29,24],[-44,16],[-20,20]],[[769,1250],[71,53]],[[1207,1308],[-17,-86]],[[1190,1222],[-35,-11],[-43,18],[-42,-4],[-49,-13]],[[1520,1187],[-46,1],[-26,-16],[-42,-8],[-40,-17],[-55,-8],[-50,0]],[[1261,1139],[-36,14],[60,9],[-59,53],[-36,7]],[[638,1165],[-4,14],[25,23],[0,24],[55,2],[55,22]],[[862,1190],[-7,-7]],[[855,1183],[15,-31],[38,3]],[[908,1155],[68,-12],[62,3],[21,24],[-38,42]],[[1261,1139],[21,-28],[-35,-14],[-22,-30],[-16,-5]],[[1209,1062],[-21,19],[-96,0],[-36,11],[-41,0],[-38,21],[-68,1],[-28,8],[-25,27],[-52,27],[-54,9],[-44,-4],[-68,-16]],[[908,1155],[-53,28]],[[1643,1070],[-89,5],[-66,-27],[-24,0]],[[1464,1048],[-25,1],[-47,-18],[-13,-22],[-42,-23],[-68,-9]],[[1269,977],[5,18],[-11,55],[-54,12]],[[799,931],[-2,1]],[[797,932],[0,13],[-33,11],[-52,1],[-47,35],[-3,36],[-30,23],[-41,1],[-52,-9],[-55,-37]],[[484,1006],[-3,1]],[[481,1007],[26,29],[-8,25],[25,11],[85,19],[41,5],[37,-18],[23,20],[-40,38],[25,31],[-57,-2]],[[1269,977],[-21,-11],[-77,-16],[-122,21],[-3,-23]],[[1046,948],[-10,-5]],[[1036,943],[-21,-1],[-15,-21],[-77,-18],[-48,8],[-44,21],[-32,-1]],[[691,1081],[14,-18],[98,-34],[29,-6],[77,-49],[63,-22],[56,-1],[18,21],[-87,29],[-68,14],[-9,19],[-58,20],[-26,17],[-28,-3],[-54,24],[-25,-11]],[[868,743],[7,-8]],[[875,735],[0,-28],[26,-9]],[[901,698],[17,-24],[-12,-9],[16,-40]],[[922,625],[-36,-1],[-12,20],[-32,11],[-45,-11],[-93,19],[-15,12],[-72,36],[-54,-17],[5,-10],[-26,-40],[-88,-9],[-92,41],[-59,32],[-20,-15],[-71,-4],[-40,20],[-33,34],[-49,21],[-9,28],[136,52],[51,-8],[54,12],[42,-7],[91,13],[49,-5],[30,-28],[1,-14],[64,-27],[48,-9],[38,-20],[12,-20],[39,-36],[39,-14],[49,12],[41,-5],[-9,53],[-37,10],[-13,21],[-90,4],[-50,40],[-40,14],[79,31],[64,1],[-26,30],[35,10],[57,-18],[44,-1]],[[879,883],[-39,-16],[-7,-21],[39,-35],[-5,-38]],[[867,773],[-18,-17],[19,-13]],[[584,614],[21,10],[10,31],[45,-5],[33,-35],[35,-2],[47,-22],[23,5],[34,30],[45,-29],[-67,-54],[-110,-51],[-43,2],[-57,-29],[-72,-16],[-27,11],[-69,5],[5,40],[-39,13],[-62,7],[-103,28],[-76,-17],[13,-41],[-81,-4],[-39,15],[-20,16],[-10,30],[-20,12],[27,19],[-17,35],[13,9],[107,21],[55,7],[43,-19],[101,-16],[36,-21],[66,0],[18,-11],[60,-3],[8,10],[67,19]],[[484,1006],[13,-19],[32,6],[25,-13],[59,3],[36,-31],[8,-16],[29,-2],[50,-17],[15,10],[46,5]],[[799,931],[-52,-9],[-9,-26],[-25,-15],[-61,-14],[-42,-4],[-22,12],[-56,6],[-13,35],[-53,17],[-10,14],[-96,-32],[-28,12],[-10,27],[24,24],[65,14],[51,-3],[19,18]],[[1190,722],[-10,9],[-96,-13],[-57,-20],[-1,-28],[48,-46],[-47,-21],[-44,4],[-6,20],[-55,-2]],[[901,698],[21,21],[-47,16]],[[868,743],[15,12],[-16,18]],[[879,883],[113,14],[75,49],[68,-14],[109,14],[47,17]],[[1291,963],[36,-48],[14,-28],[-98,-13],[13,-17],[-17,-18],[-5,-29],[33,-9],[14,-28],[-91,-51]],[[1046,948],[-10,-5]],[[1770,987],[-46,-16]],[[1724,971],[-54,-11],[-70,12],[-40,-3],[15,-43],[0,-26],[-23,-21],[4,-32],[-45,-17],[-2,-22],[-36,-9],[-84,-35],[13,-13]],[[1402,751],[-67,-50],[-27,-8],[4,-18],[-95,7],[-40,-10],[-5,27],[18,23]],[[1291,963],[67,5],[39,8],[32,24],[-15,39],[50,9]],[[1744,678],[-23,42],[-68,1],[-6,-27],[-42,-23],[-34,-26],[-43,21],[-97,-8],[-3,23],[43,-8],[-6,25],[19,32],[-27,14],[-55,7]],[[1724,971],[25,-11],[-5,-39],[4,-36],[43,3],[26,-29],[39,-24],[32,-7],[27,-26]],[[1915,802],[-29,-27],[7,-16],[-23,-11],[-37,-69],[-89,-1]],[[2011,1039],[-13,-39],[56,11],[-6,-24],[12,-30],[39,-20],[-12,-24],[57,-41],[-6,-13],[-80,-21],[-17,-17],[5,-24]],[[2046,797],[-21,-5],[-75,3],[-35,7]],[[2619,893],[42,-21],[29,-64],[-44,11],[-69,-16],[-97,12]],[[2480,815],[-37,12],[-14,20],[-87,-14],[-48,-2],[1,-12],[-31,-17],[-38,10],[-51,-5],[15,-20],[-23,-16],[-25,-1],[-13,21],[-63,-8],[-20,14]],[[2208,470],[-10,46],[-40,28],[-31,5],[-43,-18],[-25,-20],[-71,14],[-10,-13],[-40,-1],[-70,7],[15,37],[-41,17],[-37,-13],[-29,5],[-2,32],[-61,46],[31,36]],[[2480,815],[15,-62],[19,-54],[59,-65],[-57,-32],[-34,-6]],[[2482,596],[-168,-32],[-46,-42],[-7,-44],[-53,-8]],[[2154,739],[-62,5],[-38,-10],[-55,-31],[5,-19],[65,-5],[9,-25],[90,0],[0,26],[18,7],[-36,33],[4,19]],[[2674,925],[77,-29],[-18,-41],[66,-40],[20,-27],[35,-26],[12,-38],[-19,-75],[21,-40],[-57,-27],[-44,-58],[-52,-32]],[[2715,492],[-47,4],[-21,11],[4,19],[-54,23],[-47,13],[-56,8],[-12,26]],[[2555,316],[-80,29],[-18,-1]],[[2457,344],[-7,19],[48,31],[-31,23],[-47,-17],[-1,28],[-31,11],[-35,-8],[-53,3],[-13,15],[-79,21]],[[2715,492],[0,-60],[28,-12],[38,2],[24,-20],[-71,-18],[-55,-38],[-39,-13],[-30,-39],[-30,-10],[-25,32]],[[2561,227],[100,6],[-1,-49],[64,-13],[-7,-32],[13,-18],[-14,-25],[-55,-1],[6,-32],[-21,-13],[24,-27],[-14,-19],[-56,7],[-57,-11],[-15,19],[-41,-5]],[[2487,14],[-24,33],[53,40],[-13,44],[-59,5],[0,27]],[[2444,163],[29,3],[59,18],[29,-2],[0,45]],[[2388,192],[56,-29]],[[2487,14],[-38,-9],[-30,26],[-38,-25],[-56,5],[18,21],[-9,29],[-36,12],[-17,24],[5,23],[38,16],[16,23],[24,-1],[24,34]],[[2555,316],[-26,-15],[-8,-34],[27,-16],[13,-24]],[[2388,192],[-25,20],[45,35],[10,24],[-16,9],[13,31],[18,-3],[24,36]]],"transform":{"scale":[0.001,0.0009996433666191172],"translate":[3.358,50.751]},"objects":{"ggdregio_1997":{"type":"GeometryCollection","geometries":[{"arcs":[[0,1,2,3]],"type":"Polygon","properties":{"id":282376,"statcode":"GG01","statnaam":"DGD Oost-Groningen","jrstatcode":"1997GG01","rubriek":"ggdregio","FID":"ggdregio_gegeneraliseerd_1997.4759fbb6-dee9-4e7a-9456-e85d3203de10"},"id":"GG01"},{"arcs":[[[4,-4,5,6,7,8,9]],[[10]]],"type":"MultiPolygon","properties":{"id":282377,"statcode":"GG02","statnaam":"GGD Groningen, Stad en Ommelanden","jrstatcode":"1997GG02","rubriek":"ggdregio","FID":"ggdregio_gegeneraliseerd_1997.6f7a2600-859f-4ef6-b54d-06832916d225"},"id":"GG02"},{"arcs":[[[11,-8,12,13]],[[14]],[[15]],[[18]],[[19]]],"type":"MultiPolygon","properties":{"id":282378,"statcode":"GG04","statnaam":"GGD Noord-Friesland","jrstatcode":"1997GG04","rubriek":"ggdregio","FID":"ggdregio_gegeneraliseerd_1997.3bd62b58-34f7-471e-8758-f4f4ebdea09a"},"id":"GG04"},{"arcs":[[-14,20,21,22,23]],"type":"Polygon","properties":{"id":282379,"statcode":"GG05","statnaam":"GGD Zuid-West Friesland","jrstatcode":"1997GG05","rubriek":"ggdregio","FID":"ggdregio_gegeneraliseerd_1997.4ea95924-1677-480b-989f-b2466529e37e"},"id":"GG05"},{"arcs":[[26,27,-21,-13,-7,28]],"type":"Polygon","properties":{"id":282380,"statcode":"GG06","statnaam":"GGD De Friese Wouden","jrstatcode":"1997GG06","rubriek":"ggdregio","FID":"ggdregio_gegeneraliseerd_1997.1de3ef3a-bdc3-417c-9e22-d51a36198d8c"},"id":"GG06"},{"arcs":[[-3,29,30,-29,-6]],"type":"Polygon","properties":{"id":282381,"statcode":"GG07","statnaam":"GGD Noord- en Midden Drenthe","jrstatcode":"1997GG07","rubriek":"ggdregio","FID":"ggdregio_gegeneraliseerd_1997.68d9fd30-7e02-4e1b-8ceb-c74461589fd4"},"id":"GG07"},{"arcs":[[-31,31,32,-27]],"type":"Polygon","properties":{"id":282382,"statcode":"GG08","statnaam":"GGD Zuid-West Drenthe","jrstatcode":"1997GG08","rubriek":"ggdregio","FID":"ggdregio_gegeneraliseerd_1997.86643be0-a380-4beb-abaa-0bc01023a70c"},"id":"GG08"},{"arcs":[[-2,33,34,-32,-30]],"type":"Polygon","properties":{"id":282383,"statcode":"GG09","statnaam":"DGD Zuid-Oost Drenthe","jrstatcode":"1997GG09","rubriek":"ggdregio","FID":"ggdregio_gegeneraliseerd_1997.0c6c9d9e-e9f9-4938-8d98-980f65a968e1"},"id":"GG09"},{"arcs":[[35,-22,-28,-33,-35,36,37,38,39,40,41,42,43]],"type":"Polygon","properties":{"id":282384,"statcode":"GG10","statnaam":"GGD Regio IJssel-Vecht","jrstatcode":"1997GG10","rubriek":"ggdregio","FID":"ggdregio_gegeneraliseerd_1997.c86c2ce7-6944-45c0-af1d-8d856dd4c7a6"},"id":"GG10"},{"arcs":[[44,45,-38,46]],"type":"Polygon","properties":{"id":282385,"statcode":"GG11","statnaam":"GGD Regio Twente","jrstatcode":"1997GG11","rubriek":"ggdregio","FID":"ggdregio_gegeneraliseerd_1997.ca23d5b7-ddf5-47e5-bb2a-dcf645f6c95b"},"id":"GG11"},{"arcs":[[-46,47,48,-39]],"type":"Polygon","properties":{"id":282386,"statcode":"GG14","statnaam":"DGD Gewest Midden IJssel","jrstatcode":"1997GG14","rubriek":"ggdregio","FID":"ggdregio_gegeneraliseerd_1997.33efef41-4377-468f-8ed8-64d8acf5a2fb"},"id":"GG14"},{"arcs":[[49,50,51,52,53,54]],"type":"Polygon","properties":{"id":282387,"statcode":"GG15","statnaam":"GGD West-Veluwe/Vallei","jrstatcode":"1997GG15","rubriek":"ggdregio","FID":"ggdregio_gegeneraliseerd_1997.a8d0134e-7d4a-460b-a354-c8882ddd11fe"},"id":"GG15"},{"arcs":[[55,-53,56,57,-41]],"type":"Polygon","properties":{"id":282388,"statcode":"GG16","statnaam":"GGD Noordwest Veluwe","jrstatcode":"1997GG16","rubriek":"ggdregio","FID":"ggdregio_gegeneraliseerd_1997.929ecea0-43c8-4697-8fac-dcc8a49f0a0e"},"id":"GG16"},{"arcs":[[-49,58,59,-54,-56,-40]],"type":"Polygon","properties":{"id":282389,"statcode":"GG17","statnaam":"GGD Oost-Veluwe","jrstatcode":"1997GG17","rubriek":"ggdregio","FID":"ggdregio_gegeneraliseerd_1997.af80c49f-a8bb-4f5b-8e66-f13acde158a8"},"id":"GG17"},{"arcs":[[60,61,-59,-48,-45]],"type":"Polygon","properties":{"id":282390,"statcode":"GG18","statnaam":"GGD Regio Achterhoek","jrstatcode":"1997GG18","rubriek":"ggdregio","FID":"ggdregio_gegeneraliseerd_1997.5c419abd-0468-446b-8c9a-e5665e1ecfa8"},"id":"GG18"},{"arcs":[[-62,62,63,64,-55,-60]],"type":"Polygon","properties":{"id":282391,"statcode":"GG19","statnaam":"Dienst Welzijn en Volksgezondheid Arnhe","jrstatcode":"1997GG19","rubriek":"ggdregio","FID":"ggdregio_gegeneraliseerd_1997.90ab495b-25de-40a9-8fc0-4ce26cbeb744"},"id":"GG19"},{"arcs":[[65,66,67,68,-50,-65,69,70,71]],"type":"Polygon","properties":{"id":282392,"statcode":"GG20","statnaam":"GGD Rivierenland","jrstatcode":"1997GG20","rubriek":"ggdregio","FID":"ggdregio_gegeneraliseerd_1997.d2bab756-ef15-439e-95d9-69a9c3e6827c"},"id":"GG20"},{"arcs":[[72,73,74,-70,-64]],"type":"Polygon","properties":{"id":282393,"statcode":"GG21","statnaam":"GGD Regio Nijmegen","jrstatcode":"1997GG21","rubriek":"ggdregio","FID":"ggdregio_gegeneraliseerd_1997.e603e445-94b2-4660-af8f-c20565978830"},"id":"GG21"},{"arcs":[[-23,-36,75]],"type":"Polygon","properties":{"id":282394,"statcode":"GG22","statnaam":"GGD Flevoland","jrstatcode":"1997GG22","rubriek":"ggdregio","FID":"ggdregio_gegeneraliseerd_1997.2bc10f08-01fa-41dd-b08c-1c080ccc8b2a"},"id":"GG22"},{"arcs":[[77,78,79,-57,-52,80]],"type":"Polygon","properties":{"id":282395,"statcode":"GG23","statnaam":"GGD Eemland","jrstatcode":"1997GG23","rubriek":"ggdregio","FID":"ggdregio_gegeneraliseerd_1997.fc35ded5-4afa-45aa-b50c-d85af51dff9f"},"id":"GG23"},{"arcs":[[81,82]],"type":"Polygon","properties":{"id":282396,"statcode":"GG24","statnaam":"GG en GD Utrecht","jrstatcode":"1997GG24","rubriek":"ggdregio","FID":"ggdregio_gegeneraliseerd_1997.c1be32b8-44b3-4197-94f2-6925a2c5be22"},"id":"GG24"},{"arcs":[[83,84,-78,85,-83,86,-68,87,88,89,90]],"type":"Polygon","properties":{"id":282397,"statcode":"GG25","statnaam":"GGD West-Utrecht","jrstatcode":"1997GG25","rubriek":"ggdregio","FID":"ggdregio_gegeneraliseerd_1997.14e1f655-8bb3-4960-992a-6add31dc6ec1"},"id":"GG25"},{"arcs":[[-69,-87,-82,-86,-81,-51]],"type":"Polygon","properties":{"id":282398,"statcode":"GG26","statnaam":"GGD Zuid-Oost Utrecht","jrstatcode":"1997GG26","rubriek":"ggdregio","FID":"ggdregio_gegeneraliseerd_1997.1d5ba679-de31-4725-a0aa-0fd2f8462e70"},"id":"GG26"},{"arcs":[[[-25,91,92,93,94]],[[95]]],"type":"MultiPolygon","properties":{"id":282399,"statcode":"GG27","statnaam":"GGD Kop Van Noord-Holland","jrstatcode":"1997GG27","rubriek":"ggdregio","FID":"ggdregio_gegeneraliseerd_1997.c6162a34-2f1e-43c6-aced-17419bd6b0e8"},"id":"GG27"},{"arcs":[[96,97,-93,98]],"type":"Polygon","properties":{"id":282400,"statcode":"GG28","statnaam":"GGD West-Friesland","jrstatcode":"1997GG28","rubriek":"ggdregio","FID":"ggdregio_gegeneraliseerd_1997.da79cec0-447c-43c9-b5e5-bad244e49fa3"},"id":"GG28"},{"arcs":[[-98,99,100,101,102,-94]],"type":"Polygon","properties":{"id":282401,"statcode":"GG29","statnaam":"GGD Noord-Kennemerland","jrstatcode":"1997GG29","rubriek":"ggdregio","FID":"ggdregio_gegeneraliseerd_1997.5055959b-12ed-45d0-8b09-0e864542ee79"},"id":"GG29"},{"arcs":[[-102,103,104,105]],"type":"Polygon","properties":{"id":282402,"statcode":"GG30","statnaam":"GGD Midden-Kennemerland","jrstatcode":"1997GG30","rubriek":"ggdregio","FID":"ggdregio_gegeneraliseerd_1997.ce82868d-063d-4f61-bdfe-1682fcf3d6f6"},"id":"GG30"},{"arcs":[[-105,106,107,108,109,110]],"type":"Polygon","properties":{"id":282403,"statcode":"GG31","statnaam":"GGD Zuid-Kennemerland","jrstatcode":"1997GG31","rubriek":"ggdregio","FID":"ggdregio_gegeneraliseerd_1997.472a95e0-7f3b-4274-9bdf-9999740b96ff"},"id":"GG31"},{"arcs":[[-101,111,112,-107,-104]],"type":"Polygon","properties":{"id":282404,"statcode":"GG32","statnaam":"GGD Zaanstreek","jrstatcode":"1997GG32","rubriek":"ggdregio","FID":"ggdregio_gegeneraliseerd_1997.5df79e26-90d9-4152-8f91-820968126d53"},"id":"GG32"},{"arcs":[[-97,113,114,-112,-100]],"type":"Polygon","properties":{"id":282405,"statcode":"GG33","statnaam":"GGD Waterland","jrstatcode":"1997GG33","rubriek":"ggdregio","FID":"ggdregio_gegeneraliseerd_1997.98e83d2e-296c-4c42-9e87-4d9e892e2531"},"id":"GG33"},{"arcs":[[115,-108,-113,-115,116,117,-84]],"type":"Polygon","properties":{"id":282406,"statcode":"GG34","statnaam":"GG en GD Amsterdam","jrstatcode":"1997GG34","rubriek":"ggdregio","FID":"ggdregio_gegeneraliseerd_1997.da4f1f53-3ef5-475e-8caa-abc9e0fa81ee"},"id":"GG34"},{"arcs":[[118,119,120,-109,-116,-91]],"type":"Polygon","properties":{"id":282407,"statcode":"GG35","statnaam":"GGD Amstelland - De Meerlanden","jrstatcode":"1997GG35","rubriek":"ggdregio","FID":"ggdregio_gegeneraliseerd_1997.047d87a3-567f-4cd6-b0e5-9d4b873910d4"},"id":"GG35"},{"arcs":[[-79,-85,-118,121]],"type":"Polygon","properties":{"id":282408,"statcode":"GG36","statnaam":"GGD Gooi en Vechtstreek","jrstatcode":"1997GG36","rubriek":"ggdregio","FID":"ggdregio_gegeneraliseerd_1997.57452fe2-ffe5-4742-a235-4f138928c494"},"id":"GG36"},{"arcs":[[-120,122,123,124]],"type":"Polygon","properties":{"id":282409,"statcode":"GG37","statnaam":"GGD Leiden en omstreken","jrstatcode":"1997GG37","rubriek":"ggdregio","FID":"ggdregio_gegeneraliseerd_1997.578074e5-cd2f-4f76-97da-9bfc008ebdde"},"id":"GG37"},{"arcs":[[-121,-125,125,126,-110]],"type":"Polygon","properties":{"id":282410,"statcode":"GG38","statnaam":"GGD Duin- en Bollenstreek","jrstatcode":"1997GG38","rubriek":"ggdregio","FID":"ggdregio_gegeneraliseerd_1997.11196ce2-6215-4ac1-9b58-d177cd244bb9"},"id":"GG38"},{"arcs":[[127,128,129]],"type":"Polygon","properties":{"id":282411,"statcode":"GG39","statnaam":"GG en GD 's-Gravenhage","jrstatcode":"1997GG39","rubriek":"ggdregio","FID":"ggdregio_gegeneraliseerd_1997.f24cfcfd-7bd3-4e73-9b06-c4f1ea950289"},"id":"GG39"},{"arcs":[[130,131,-123,-119,-90,132]],"type":"Polygon","properties":{"id":282412,"statcode":"GG40","statnaam":"GGD Rijnstreek","jrstatcode":"1997GG40","rubriek":"ggdregio","FID":"ggdregio_gegeneraliseerd_1997.d5874ac1-fc21-4d8c-809e-1dbfe86791f1"},"id":"GG40"},{"arcs":[[-129,133,-126,-124,-132,134]],"type":"Polygon","properties":{"id":282413,"statcode":"GG41","statnaam":"GGD West-Holland","jrstatcode":"1997GG41","rubriek":"ggdregio","FID":"ggdregio_gegeneraliseerd_1997.31e8a3d7-adac-4311-8e2b-83524a0a8c8a"},"id":"GG41"},{"arcs":[[135,136,137,-130,-135,-131,138,139]],"type":"Polygon","properties":{"id":282414,"statcode":"GG44","statnaam":"GGD Delftland","jrstatcode":"1997GG44","rubriek":"ggdregio","FID":"ggdregio_gegeneraliseerd_1997.dec45be8-28ee-4df4-b67c-3e6b0f27ec86"},"id":"GG44"},{"arcs":[[140,141,-139,-133,-89]],"type":"Polygon","properties":{"id":282415,"statcode":"GG45","statnaam":"GGD Midden Holland","jrstatcode":"1997GG45","rubriek":"ggdregio","FID":"ggdregio_gegeneraliseerd_1997.bd9132a2-8558-4eb5-a08d-2d877b09553c"},"id":"GG45"},{"arcs":[[142,-137,143,144,145,-140,-142,146,147]],"type":"Polygon","properties":{"id":282416,"statcode":"GG46","statnaam":"GGD Rotterdam e.o.","jrstatcode":"1997GG46","rubriek":"ggdregio","FID":"ggdregio_gegeneraliseerd_1997.c066d7c6-da10-49ba-b060-7023b75c429e"},"id":"GG46"},{"arcs":[[-146,148,-144,-136]],"type":"Polygon","properties":{"id":282417,"statcode":"GG47","statnaam":"GGD Nieuwe Waterweg Noord","jrstatcode":"1997GG47","rubriek":"ggdregio","FID":"ggdregio_gegeneraliseerd_1997.837a87ce-347b-4340-8ab6-d61cce9c7775"},"id":"GG47"},{"arcs":[[149,150,151,-147,-141,-88,-67]],"type":"Polygon","properties":{"id":282418,"statcode":"GG48","statnaam":"GGD Regio Dordrecht","jrstatcode":"1997GG48","rubriek":"ggdregio","FID":"ggdregio_gegeneraliseerd_1997.5bc86008-9f43-4980-9e54-74f97e3110bd"},"id":"GG48"},{"arcs":[[[152,153,154,155,-148,-152,156,157,158],[159]],[[-149,-145]]],"type":"MultiPolygon","properties":{"id":282419,"statcode":"GG49","statnaam":"GGD Zuid-Hollandse Eilanden","jrstatcode":"1997GG49","rubriek":"ggdregio","FID":"ggdregio_gegeneraliseerd_1997.c3c50350-6376-421b-a1ab-64f0474d8290"},"id":"GG49"},{"arcs":[[[160,161,162,163,164,165]],[[166]],[[-155,167,-153,168]]],"type":"MultiPolygon","properties":{"id":282420,"statcode":"GG50","statnaam":"GGD Zeeland","jrstatcode":"1997GG50","rubriek":"ggdregio","FID":"ggdregio_gegeneraliseerd_1997.d39aa535-d83d-4585-8c9f-067ac23e0a4a"},"id":"GG50"},{"arcs":[[169,-163,170,-161,171,-165,172,173]],"type":"Polygon","properties":{"id":282421,"statcode":"GG51","statnaam":"GD Streekgewest Westelijk Noord-Brabant","jrstatcode":"1997GG51","rubriek":"ggdregio","FID":"ggdregio_gegeneraliseerd_1997.0e7f203c-951d-41cb-af0a-344018bce8ef"},"id":"GG51"},{"arcs":[[-150,-66,175,176,177,-174,178]],"type":"Polygon","properties":{"id":282422,"statcode":"GG52","statnaam":"Gezondheidsdienst Stadsgewest Breda","jrstatcode":"1997GG52","rubriek":"ggdregio","FID":"ggdregio_gegeneraliseerd_1997.c58dbae0-8eba-40f4-a082-16950bd2191f"},"id":"GG52"},{"arcs":[[179,-177,180,181]],"type":"Polygon","properties":{"id":282423,"statcode":"GG53","statnaam":"GGD Midden Brabant","jrstatcode":"1997GG53","rubriek":"ggdregio","FID":"ggdregio_gegeneraliseerd_1997.2b8e8c8a-c091-475e-8cac-7d486a0f1db5"},"id":"GG53"},{"arcs":[[182,183,-181,-176,-72]],"type":"Polygon","properties":{"id":282424,"statcode":"GG54","statnaam":"Stadsgewest 's-Hertogenbosch","jrstatcode":"1997GG54","rubriek":"ggdregio","FID":"ggdregio_gegeneraliseerd_1997.887be0c9-a638-4dfa-99ab-06d82e610932"},"id":"GG54"},{"arcs":[[-71,-75,184,185,-183]],"type":"Polygon","properties":{"id":282425,"statcode":"GG55","statnaam":"GGD Brabant-Noordoost","jrstatcode":"1997GG55","rubriek":"ggdregio","FID":"ggdregio_gegeneraliseerd_1997.47e90338-4a7f-4486-af99-c16d39ccc8ed"},"id":"GG55"},{"arcs":[[186,-182,-184,-186,187,188],[189]],"type":"Polygon","properties":{"id":282426,"statcode":"GG56","statnaam":"GGD Zuidoost Brabant","jrstatcode":"1997GG56","rubriek":"ggdregio","FID":"ggdregio_gegeneraliseerd_1997.2276d9b5-c9fb-4765-8ea6-a78c19f4b57d"},"id":"GG56"},{"arcs":[[-190]],"type":"Polygon","properties":{"id":282427,"statcode":"GG57","statnaam":"GGD Eindhoven","jrstatcode":"1997GG57","rubriek":"ggdregio","FID":"ggdregio_gegeneraliseerd_1997.0a6f0a04-2bee-4cae-91a3-00fb1c5dabb8"},"id":"GG57"},{"arcs":[[-188,-185,-74,190,191]],"type":"Polygon","properties":{"id":282428,"statcode":"GG59","statnaam":"GGD Noord-Limburg","jrstatcode":"1997GG59","rubriek":"ggdregio","FID":"ggdregio_gegeneraliseerd_1997.f1592040-7efd-4f11-8ecc-eaf4b72a320d"},"id":"GG59"},{"arcs":[[192,193,-189,-192,194]],"type":"Polygon","properties":{"id":282429,"statcode":"GG60","statnaam":"GGD Midden-Limburg","jrstatcode":"1997GG60","rubriek":"ggdregio","FID":"ggdregio_gegeneraliseerd_1997.8f0558ca-6a0e-4f9d-bee6-2a80428fb1c4"},"id":"GG60"},{"arcs":[[195,196,197]],"type":"Polygon","properties":{"id":282430,"statcode":"GG61","statnaam":"GGD Oostelijk Zuid-Limburg","jrstatcode":"1997GG61","rubriek":"ggdregio","FID":"ggdregio_gegeneraliseerd_1997.b3149fff-5880-40de-939b-663ce2ea594f"},"id":"GG61"},{"arcs":[[198,-197,199]],"type":"Polygon","properties":{"id":282431,"statcode":"GG62","statnaam":"DGD Zuidelijk Zuid-Limburg","jrstatcode":"1997GG62","rubriek":"ggdregio","FID":"ggdregio_gegeneraliseerd_1997.10275da8-fa28-469a-8e0d-2ad8a55c2484"},"id":"GG62"},{"arcs":[[-193,200,-198,-199,201]],"type":"Polygon","properties":{"id":282432,"statcode":"GG63","statnaam":"GGD Westelijke Mijnstreek","jrstatcode":"1997GG63","rubriek":"ggdregio","FID":"ggdregio_gegeneraliseerd_1997.0d3342a2-bfd1-4b1a-b7b0-3d711699263f"},"id":"GG63"}]}}}