{"type":"Topology","arcs":[[[3735,2085],[-21,7],[-32,28],[-25,0],[31,43],[-30,9],[-79,67],[-200,127],[-42,2],[-58,-8],[-26,25]],[[3253,2385],[-2,0]],[[3251,2385],[-45,20],[-16,23]],[[3190,2428],[-5,-2]],[[3185,2426],[-13,16],[-44,9],[-38,-8],[-5,-8],[-35,-10],[-25,-28],[-39,-63],[-29,7]],[[2957,2341],[-53,20],[-56,1],[-30,20],[1,32],[23,28],[30,23],[-12,24],[38,29],[-2,18],[25,14],[8,38]],[[2929,2588],[-34,8],[-21,18],[-15,-3],[-20,27],[-6,20]],[[2833,2658],[70,3],[52,-16],[55,18],[28,5],[171,14],[79,20],[98,11],[54,-11],[16,8],[49,-12],[19,-11],[-8,-32],[14,-12],[9,-40],[33,-21],[-2,-7],[99,-26],[57,-4],[-6,-31],[26,-15],[55,-6],[48,-9],[11,-39],[-39,-59],[4,-17],[20,-9],[-4,-32],[14,-70],[-31,-69],[-78,-78],[-17,-14],[6,-12]],[[3141,2797],[11,-10],[-37,-16],[-14,17],[19,13],[21,-4]],[[2833,2658],[-29,-3],[-7,-16],[26,-35],[37,-3],[3,-12],[33,6],[33,-7]],[[2957,2341],[-10,-13],[63,-14],[-5,-33],[65,-62],[-35,-39],[-60,-27],[-30,19],[-46,3],[-50,-37],[-87,-37]],[[2762,2101],[-89,-39],[-34,2],[-25,25],[-42,-7],[-6,-11],[-48,-23],[-32,4],[-24,12],[-25,-10]],[[2437,2054],[-46,33],[-36,-2]],[[2355,2085],[-28,8],[-27,-2],[-14,17],[-26,-10],[-33,-2],[-18,-15],[-22,-1],[-91,22],[-28,-7],[-60,26],[-12,13],[17,12],[36,11],[-6,29],[12,25],[-16,39],[11,17],[-32,35],[17,8],[-18,28],[-32,-17],[-46,-7],[-130,-68]],[[1809,2246],[-1,1]],[[1808,2247],[127,67],[56,11],[29,17],[1,13],[25,14],[16,60],[29,38],[34,21],[44,16],[60,43],[56,19],[89,24],[60,19],[39,9],[57,20],[45,-3],[83,15],[79,5],[44,-4],[38,11],[14,-4]],[[2112,2654],[-86,-5],[-27,-14],[-64,-18],[-36,3],[-36,-9],[-25,-14],[-41,5],[39,38],[57,11],[125,19],[97,18],[38,4],[30,-12],[-65,-16],[-6,-10]],[[2329,2712],[84,-5],[113,7],[53,-10],[-132,-19],[-75,5],[-27,-13],[-33,-7],[-40,7],[-14,23],[29,16],[42,-4]],[[3033,2763],[-6,-5],[-111,-22],[-22,-11],[-55,-6],[-67,2],[25,26],[134,9],[78,8],[24,-1]],[[1742,2548],[-37,-7],[-30,-13],[-61,-16],[7,-13],[-60,-36],[-65,6],[79,33],[28,16],[75,31],[28,6],[36,-7]],[[1746,2021],[-34,-6],[-13,-11],[-31,-5],[-80,2],[-47,-47]],[[1541,1954],[-41,16],[-53,-9],[-26,17],[-8,-30],[-42,-10],[-39,42],[-44,24]],[[1288,2004],[30,44],[30,73],[11,73],[14,16],[32,2],[16,-10],[30,-44],[66,-23],[61,16],[31,26],[87,11],[112,59]],[[1809,2246],[-128,-68],[9,-7],[66,-78],[-10,-72]],[[1521,2404],[29,-22],[-8,-10],[-3,-46],[-50,-45],[-28,-5],[-45,-33],[-54,-11],[-11,37],[15,46],[34,38],[83,77],[20,0],[18,-26]],[[3185,2426],[5,2]],[[3251,2385],[2,0]],[[3735,2085],[-21,-28],[-8,-87],[-9,-79],[-13,-11],[-67,13],[-36,-8],[-42,13],[-75,-3],[-45,4],[-35,-7],[-32,-17]],[[3352,1875],[-2,21],[-93,25],[-62,-8],[-39,-20],[5,-32],[-55,10],[-11,-10],[-47,7],[-22,-9],[-20,31],[-38,17],[-3,10],[-50,-5],[-25,11],[-46,9],[-19,-10],[-20,5],[-43,70],[36,13],[46,31],[-65,45],[-17,15]],[[1929,1937],[-41,-4],[-10,-29],[-37,-21],[-40,-13],[-31,-3],[-39,23],[-21,-8],[-22,7],[-27,-12],[1,-18]],[[1662,1859],[-15,-14],[-55,-3],[-23,12]],[[1569,1854],[-5,4],[-38,2],[-11,21]],[[1515,1881],[0,1]],[[1515,1882],[-10,21],[13,30],[23,21]],[[1746,2021],[42,-32],[34,-1],[13,14],[65,-2],[25,-11],[5,-27],[12,-7],[-13,-18]],[[1515,1882],[0,-1]],[[1569,1854],[-12,2],[-25,-15],[-24,-20],[-24,-31],[-18,0],[-34,-24],[-38,2],[1,-10],[-33,-16]],[[1362,1742],[-27,16],[3,16],[-36,5],[-62,-1]],[[1240,1778],[17,65],[12,69],[11,43],[-1,21],[9,28]],[[3352,1875],[17,-13],[-8,-26],[48,-25],[-41,-1],[-10,-14],[-35,4],[24,-32],[-7,-35]],[[3340,1733],[-29,9],[-28,-24],[-30,-4],[-10,12],[-47,9],[-49,3],[-1,-9],[-53,-13],[-13,-25],[-48,-16],[15,-12],[-16,-36],[-46,-10],[-9,-19],[22,-33],[-29,-16],[2,-21],[42,-21],[11,-14]],[[3024,1493],[-31,-4],[-12,-15],[-46,4],[-42,-4],[-103,1],[-24,23],[6,10],[-31,39],[-15,2],[-13,20],[11,50],[42,9],[6,18],[-19,9],[8,25],[-14,10],[-3,23],[-31,16],[-17,18],[-26,10],[-27,-10]],[[2643,1747],[-36,-24],[-39,-2],[-16,24],[-23,19],[-21,2]],[[2508,1766],[-9,25]],[[2499,1791],[0,2]],[[2499,1793],[-33,34],[19,31]],[[2485,1858],[53,7]],[[2538,1865],[22,-5],[72,13],[29,17],[-35,14]],[[2626,1904],[-50,19],[31,18],[-22,21],[-21,36],[-72,34],[-31,3],[-24,19]],[[2626,1904],[-20,-18],[-132,-26],[-169,0],[-8,-16],[101,-15],[57,-5],[44,-31]],[[2499,1791],[0,-26],[-9,-25],[-31,-36]],[[2459,1704],[-20,-18],[-50,-24],[-27,1],[-59,-18],[-36,-18],[-10,-17]],[[2257,1610],[-1,-1]],[[2256,1609],[-50,6],[-26,-18],[15,-29],[-24,-46],[-58,-11]],[[2113,1511],[-1,-1]],[[2112,1510],[-60,-10],[-96,50]],[[1956,1550],[-1,0]],[[1955,1550],[-45,19],[-47,12],[-37,1],[-45,-9]],[[1781,1573],[-1,0]],[[1780,1573],[-13,55],[37,19],[96,35],[177,76],[-9,19],[20,31],[21,11],[-12,22],[-56,55],[-39,25],[-55,16],[-18,0]],[[1929,1937],[15,2],[52,-14],[7,-4],[39,-25],[56,-55],[13,-24],[-13,-20],[45,6],[58,36],[69,13],[24,12],[-36,34],[-23,12],[2,100],[65,65],[53,10]],[[2485,1858],[53,7]],[[1662,1859],[11,-44],[24,-23],[31,-41],[-27,-18],[3,-18],[-13,-29],[29,-2],[-10,-20]],[[1710,1664],[-19,-2],[-49,10],[-52,-3],[-17,-10],[-32,12],[-33,7],[-10,-14],[-117,14]],[[1381,1678],[-17,2]],[[1364,1680],[-47,23],[45,39]],[[1364,1680],[-40,-19]],[[1324,1661],[-31,15],[-27,-7],[-64,16]],[[1202,1685],[-8,23],[15,7],[20,31],[11,32]],[[1324,1661],[-13,-13],[17,-17],[-15,-14],[5,-14],[-64,-31],[0,-11]],[[1254,1561],[-43,2],[-5,-7],[-70,19]],[[1136,1575],[61,95],[5,15]],[[2643,1747],[32,-22],[2,-16],[-61,-52],[-62,-23],[-47,-36],[16,-16],[-40,-31],[11,-24],[-31,-7],[-72,-5],[12,-20],[-35,-5]],[[2368,1490],[-42,-2],[-3,-16],[-48,-17],[-83,-6],[-34,32],[-32,5],[-5,19]],[[2121,1505],[48,6],[35,51],[49,31],[3,16]],[[2257,1610],[38,2],[25,14],[22,2],[40,17],[70,37],[7,22]],[[2459,1704],[23,9],[26,53]],[[1710,1664],[-39,-18],[-15,-18],[-29,-16],[43,-27]],[[1670,1585],[-15,-8],[9,-28]],[[1664,1549],[-25,-13],[-68,-21],[-18,-15],[-41,0],[-27,-16],[-48,-10]],[[1437,1474],[-70,-14],[-1,19],[-38,-5],[-16,4]],[[1312,1478],[32,13],[24,19],[62,26],[29,23],[0,15],[-61,29],[1,41],[-28,4],[10,30]],[[3340,1733],[55,-22],[22,-4],[79,0],[8,-9],[80,-16],[20,10],[16,21],[16,-1],[17,-36],[25,-26],[23,-4],[13,-26],[0,-21],[-16,-14],[-30,-46],[2,-14],[33,-43],[-42,-10],[-30,2],[-38,-46],[-35,-3],[-34,-22],[-9,-24],[-18,-13],[-94,-1]],[[3403,1365],[-45,-1],[-53,12],[11,13],[-3,24],[-26,8],[-33,-11],[-22,19],[-35,-5],[-37,4],[-26,-4]],[[3134,1424],[-13,6],[-50,40],[-13,19],[-34,4]],[[1312,1478],[-37,-15],[-30,-1],[-46,4],[11,50],[21,12],[23,33]],[[1781,1573],[27,-21],[74,7],[51,-15],[22,6]],[[1956,1550],[-17,-10],[9,-15]],[[1948,1525],[-40,4],[-43,-57],[-7,-21]],[[1858,1451],[-23,-26],[-78,2]],[[1757,1427],[-69,-14],[-10,44]],[[1678,1457],[-3,0]],[[1675,1457],[9,21],[16,4],[-31,29],[16,18],[-21,20]],[[1670,1585],[66,1],[44,-13]],[[3134,1424],[-11,-36],[11,-18],[-11,-14],[-57,-13],[-55,27],[-11,12],[-30,2],[-50,-16],[-20,-12],[-22,4],[-25,-22],[-33,-1],[-7,-12],[-34,-20]],[[2779,1305],[-34,19],[-35,10],[-44,-21],[-34,12],[-44,-1]],[[2588,1324],[0,21],[-63,7],[-18,20],[-5,23],[-50,2],[-18,47],[-41,-3],[-20,15],[11,11],[-16,23]],[[1437,1474],[19,-25],[30,-22],[48,-18],[-18,-6],[1,-18],[-42,6],[-20,-5],[-21,-18]],[[1434,1368],[-83,-28],[6,-13],[-49,-17],[-29,10],[-72,-15]],[[1207,1305],[-8,2]],[[1199,1307],[-26,20],[-41,17],[-19,20],[-6,31],[-53,15],[-38,24]],[[1016,1434],[42,44],[78,97]],[[1675,1457],[3,0]],[[1757,1427],[-20,-25],[26,-10],[-14,-13]],[[1749,1379],[-20,3],[-26,-13],[-28,-6],[-30,24],[-33,-19],[35,-34],[-6,-22],[18,-5]],[[1659,1307],[-26,-8],[-8,-25],[12,-6],[-85,-11],[-75,-25]],[[1477,1232],[-17,14],[39,6],[-10,12],[-44,-4],[27,36],[38,13],[-42,12],[-1,32],[-33,15]],[[1948,1525],[51,-8],[47,-23]],[[2046,1494],[-11,-26],[46,-19],[1,-31],[40,-5],[19,-20],[-13,-53],[-27,-14],[39,-23]],[[2140,1303],[-52,-12],[-9,27],[-105,12],[-10,18],[-30,13],[-36,21],[-13,35],[-31,6],[4,28]],[[2588,1324],[-36,-16],[-11,-12],[-49,2],[-37,-28],[-68,-4],[-9,-18],[-47,-7],[-56,0],[-19,-5],[12,-16],[1,-22],[-21,-9]],[[2248,1189],[-45,12],[-21,12],[-62,16]],[[2120,1229],[16,12],[35,45],[-31,17]],[[2046,1494],[63,9],[3,7]],[[2113,1511],[8,-6]],[[1749,1379],[42,-15],[12,-24],[25,-1],[7,-15],[-33,0],[-7,-21]],[[1795,1303],[-7,-4],[-75,9],[-20,-32],[-34,31]],[[2120,1229],[-36,3],[-59,-17],[-35,-1],[-15,-11],[-77,14]],[[1898,1217],[-2,15],[-35,29]],[[1861,1261],[-15,5]],[[1846,1266],[-3,12],[-48,25]],[[1199,1307],[-52,-29],[-28,0],[-20,-10],[2,-20],[-31,-26],[-34,-14],[-57,-15],[-44,-26],[-34,7],[-17,14],[-24,0],[-26,13],[-5,12],[-36,21]],[[793,1234],[-15,5]],[[778,1239],[-11,9]],[[767,1248],[62,50],[18,9],[54,40],[44,27],[71,60]],[[3403,1365],[-10,-34],[-16,-10],[-39,-5],[-8,-30],[26,0],[39,-12],[74,-34],[2,-30],[-30,-5],[-5,-24],[-24,-19],[-48,-20],[-29,19],[-18,1],[-37,-12],[-52,-10],[-30,-12],[-55,-14],[-28,-14],[-22,11],[-22,0],[-21,-11],[-1,-26],[-44,7],[-18,16],[-39,-2],[-5,16],[-21,9],[-18,-6],[-47,0],[-31,15],[-16,18]],[[2810,1147],[-77,38],[-1,29],[39,10],[31,3],[1,33],[16,5],[-1,20],[-24,3],[-30,-7],[-6,14],[21,10]],[[1846,1266],[15,-5]],[[1898,1217],[-26,5],[-11,-12]],[[1861,1210],[-6,-3]],[[1855,1207],[-33,6],[-48,-53],[-19,-26],[-23,1],[-9,-13],[-25,-3],[3,-15],[-32,1]],[[1669,1105],[-26,16],[-6,27],[-39,14],[-17,13],[-7,19],[-54,-10]],[[1520,1184],[-18,30],[-25,18]],[[1520,1184],[-46,1],[-21,-14],[-49,-11],[-46,-18],[-43,-6],[-53,0]],[[1262,1136],[-19,17],[42,6],[-59,52],[15,23],[-20,2],[-7,-18],[-18,-3],[-8,23],[9,14],[10,53]],[[2810,1147],[-11,4],[-47,-10],[27,-9],[8,-16],[22,-8],[0,-21],[-60,7],[-44,17]],[[2705,1111],[-46,16],[-23,-5],[-13,-16],[-26,-3],[-34,18],[-40,-6],[-10,20],[-14,6],[-25,-23],[-106,15],[-19,6]],[[2349,1139],[-1,15],[-25,10],[-20,26],[-31,-8],[-24,7]],[[1262,1136],[27,-33],[-42,-9],[-34,-1],[-17,-17],[-55,5],[-102,-4],[-28,-14],[-15,2],[-90,-16],[-17,-18]],[[889,1031],[-35,15],[-30,5],[-26,18],[-62,6],[-20,14],[-29,-14],[18,-16],[102,-34],[24,-4],[54,-30],[20,-17],[66,-25],[55,-1],[14,9]],[[1040,957],[6,-12]],[[1046,945],[-10,-5]],[[1036,940],[-26,-9],[-11,-14],[-76,-16],[-49,6],[-12,13],[-31,9],[-32,-1]],[[799,928],[-2,1]],[[797,929],[0,14],[-44,11],[-52,4],[-37,31],[8,14],[-8,22],[-30,23],[-43,1],[-52,-9],[-28,-13],[-14,-23],[-13,-2]],[[484,1002],[-3,2]],[[481,1004],[25,20],[-4,36],[140,35],[36,-25],[25,18],[4,12],[-36,32],[25,29],[-15,9],[-39,-9],[-15,3],[-24,43],[23,24],[58,1],[6,9],[47,-10],[30,17]],[[778,1239],[15,-5]],[[2349,1139],[-81,6],[-49,-7],[-9,-15],[17,-38],[13,-11]],[[2240,1074],[-40,0],[-17,-12],[-55,13],[-12,-14],[-35,-5],[-37,11],[-33,-31],[-15,-35],[-58,-18],[-51,-3],[-39,7]],[[1848,987],[-43,2],[-35,-5]],[[1770,984],[10,13],[0,22],[-42,15],[-29,-7],[-19,17],[-32,10],[-16,13]],[[1642,1067],[26,-2],[1,40]],[[1855,1207],[6,3]],[[1642,1067],[-64,7],[-47,-9],[-43,-20],[-49,1],[-42,-18],[-18,-26],[-62,-32],[-30,-5]],[[1287,965],[-1,0]],[[1286,965],[-7,-2]],[[1279,963],[-1,0]],[[1278,963],[-17,6],[-31,-11],[-58,-11],[-63,14],[-61,7],[-8,-11]],[[1040,957],[6,12],[-55,20],[-100,23],[-2,19]],[[953,993],[42,-10],[-16,-10],[-26,1],[-49,19],[49,0]],[[1186,941],[28,5]],[[1214,946],[-28,-5]],[[2705,1111],[-27,-22],[-49,-12],[-24,6],[-18,-13],[34,-26],[12,-32],[-38,-18]],[[2595,994],[-19,-8],[-15,-22]],[[2561,964],[-34,10],[-5,22],[-28,9],[-72,-7],[-35,7],[-13,13],[-75,26],[-22,22],[-37,8]],[[2561,964],[36,-9],[17,-63],[48,-24],[6,-26],[14,-14],[-8,-30],[-28,18],[-69,-16],[-28,-2],[-16,8],[-53,6]],[[2480,812],[-37,13],[-14,19],[-88,-14],[-48,-2],[1,-12],[-30,-17],[-38,10],[-51,-5],[14,-20],[-22,-16],[-25,-1],[-13,21],[-64,-8],[-18,14],[-22,-4],[-75,2],[-35,7]],[[1915,799],[-27,26],[-32,7],[-39,24],[-26,29],[18,30],[56,5],[8,50],[-25,17]],[[1770,984],[-74,-26],[-45,1],[-51,10],[-40,-3],[15,-43],[0,-26],[-23,-22],[4,-31],[-50,-19],[-1,-22],[-32,-7],[-84,-35],[13,-13]],[[1402,748],[-26,-16]],[[1376,732],[8,20],[0,25],[-38,19],[-22,49],[-18,5],[1,30],[34,4],[-14,28],[25,7],[-13,15],[-30,-2],[-22,33]],[[1915,799],[-29,-27],[7,-16],[-23,-11],[-37,-69],[-89,-1]],[[1744,675],[-23,42],[-68,1],[-7,-28],[-41,-22],[-34,-26],[-40,19],[-50,0],[-50,-6],[-16,4],[14,20],[43,-12],[-7,28],[17,30],[-25,16],[-55,7]],[[1376,732],[-41,-34],[-26,-8],[3,-18],[-40,0],[-55,7],[-40,-10],[-5,27],[18,23],[-10,9],[-51,-5],[-45,-8],[-57,-20],[12,-7],[-5,-34],[40,-33],[-10,-10],[-37,-11],[-44,4],[-6,20],[-58,-2]],[[919,622],[-9,8],[-4,32],[12,9],[-57,80],[17,38],[-8,21],[-36,30],[0,15],[22,19],[23,6]],[[879,880],[80,12],[33,2],[38,21],[6,25]],[[1046,945],[40,-3],[46,-13],[30,1],[82,13],[34,20]],[[1279,963],[7,2]],[[1214,946],[-28,-5]],[[2715,489],[-35,3],[-32,13]],[[2648,505],[2,19],[-53,22],[-47,13],[-56,8],[-20,17],[8,9]],[[2482,593],[35,6],[56,32],[-59,65],[-19,54],[-15,62]],[[2595,994],[2,-10],[39,0],[51,-21],[-19,-8],[11,-36],[80,-16],[-26,-51],[30,-13],[36,-26],[20,-28],[35,-26],[1,-22],[11,-16],[-19,-75],[21,-40],[-57,-27],[-44,-58],[-52,-32]],[[484,1002],[8,-18],[38,6],[26,-13],[59,2],[9,-15],[25,-15],[8,-16],[29,-2],[48,-18],[17,11],[46,5]],[[799,928],[12,-28],[32,-15],[36,-5]],[[919,622],[-34,-1],[-11,20],[-35,12],[-40,-12],[-50,8],[-45,11],[-12,16],[-17,2],[-58,30],[-54,-18],[-2,-17],[-18,-32],[-25,2],[-64,-11],[-57,29],[-20,-4],[-43,33],[-34,13],[-18,-13],[-65,-5],[-48,24],[-30,31],[-46,21],[-18,12],[5,15],[115,47],[22,5],[59,-5],[47,11],[2,23],[31,19],[8,21],[-33,15],[-10,29],[38,29],[72,8],[28,-3],[22,17]],[[739,913],[0,-19],[-26,-16],[-21,-1],[-43,-14],[-39,-3],[-28,20],[-26,-5],[-45,-33],[28,-36],[-24,-5],[-5,-15],[59,4],[13,-19],[17,6],[61,-12],[34,-16],[3,-21],[38,-36],[40,-15],[48,13],[42,-5],[-9,53],[-37,10],[-13,21],[-90,4],[-25,26],[-44,23],[-15,17],[34,4],[51,16],[53,-11],[-27,41],[19,11],[32,1],[-2,23],[-41,-4],[-12,-7]],[[449,943],[-53,-22],[-29,-6],[-2,-13],[-14,-25],[-22,-9],[-5,-21],[33,-9],[84,13],[36,1],[34,-10],[45,33],[-24,4],[-13,34],[-20,11],[-32,6],[-18,13]],[[349,755],[19,15],[-38,32],[-33,13],[28,-39],[24,-21]],[[158,653],[52,-6],[17,-13],[56,-12],[46,-5],[36,-21],[66,0],[18,-12],[60,-2],[50,25],[42,7],[15,39],[42,-6],[37,-35],[33,-2],[29,-12],[22,11],[54,13],[15,-2],[29,-26],[-69,-55],[-108,-50],[-43,2],[-29,-11],[-27,-18],[-73,-16],[3,23],[-29,-12],[-35,-2],[-34,5],[4,42],[-39,13],[-62,7],[-36,14],[-17,-2],[-50,16],[-76,-17],[13,-41],[-78,-4],[-43,15],[-37,35],[7,10],[-19,13],[27,19],[-16,38],[61,19],[6,-3],[80,19]],[[2482,593],[-168,-32],[-46,-41],[-7,-45],[-53,-8]],[[2208,467],[-11,23],[3,18],[-42,33],[-31,5],[-20,-15],[-23,-3],[-25,-20],[-71,14],[-10,-13],[-40,-2],[-70,7],[16,37],[-42,18],[-37,-13],[-29,6],[-2,31],[-61,46],[31,36]],[[2519,278],[2,-14],[27,-16],[-9,-27],[58,13],[11,-8],[51,3],[1,-48],[64,-13],[-7,-29],[13,-21],[-11,-11],[-58,-15],[6,-32],[-21,-13],[-29,-3],[53,-24],[-7,-20],[-131,2],[-4,14],[-79,-14],[-30,27],[-82,-28],[-1,57],[-38,12],[-17,22],[5,25],[39,18],[15,21],[28,11],[30,37],[-36,4],[46,36],[10,24],[-18,12],[21,29],[20,-3]],[[2441,306],[25,7],[3,-19],[22,-2],[4,-17],[24,3]],[[2715,489],[-5,-22],[5,-38],[9,-11],[31,3],[52,19],[16,-8],[-42,-13],[36,-15],[-12,-9],[-37,-4],[-34,-10],[-16,-16],[-40,-22],[-26,-6],[-40,-30],[-1,-14],[-31,-12],[-25,32],[-26,-15],[-10,-20]],[[2441,306],[-4,30],[39,10],[-24,18],[30,13],[16,14],[-30,22]],[[2468,413],[48,24],[20,25],[32,-12],[25,-3],[51,33],[4,25]],[[2468,413],[-47,-8],[-12,25],[-27,3],[-32,-5],[-50,3],[-12,15],[-80,21]]],"transform":{"scale":[0.001,0.0009996429846483414],"translate":[3.358,50.754]},"objects":{"jeugdregio_2020":{"type":"GeometryCollection","geometries":[{"arcs":[[[0,1,2,3,4,5,6,7]],[[8]]],"type":"MultiPolygon","properties":{"id":1,"statcode":"JZ01","jrstatcode":"2020JZ01","statnaam":"Groningen","rubriek":"jeugdregio","FID":"jeugdregio_gegeneraliseerd_2020.0fb71bed-924a-486f-a787-01a5409f1fb4"},"id":"JZ01"},{"arcs":[[[9,-6,10,11,12,13,14,15]],[[16]],[[17]],[[18]],[[19]]],"type":"MultiPolygon","properties":{"id":2,"statcode":"JZ02","jrstatcode":"2020JZ02","statnaam":"Friesland (Fryslân)","rubriek":"jeugdregio","FID":"jeugdregio_gegeneraliseerd_2020.61cd9e52-f215-4adf-b242-dc876a6d81d4"},"id":"JZ02"},{"arcs":[[[20,21,22,-15,23]],[[24]]],"type":"MultiPolygon","properties":{"id":3,"statcode":"JZ03","jrstatcode":"2020JZ03","statnaam":"Kop van Noord-Holland","rubriek":"jeugdregio","FID":"jeugdregio_gegeneraliseerd_2020.7e4390b1-4658-44c4-b19d-12aa73b3a06b"},"id":"JZ03"},{"arcs":[[25,-3,26,-1,27,28,-11,-5]],"type":"Polygon","properties":{"id":4,"statcode":"JZ04","jrstatcode":"2020JZ04","statnaam":"Drenthe","rubriek":"jeugdregio","FID":"jeugdregio_gegeneraliseerd_2020.5345d5b0-118e-4c73-af3f-f31c86d1e367"},"id":"JZ04"},{"arcs":[[29,30,31,32,33,-21,34]],"type":"Polygon","properties":{"id":5,"statcode":"JZ05","jrstatcode":"2020JZ05","statnaam":"West Friesland","rubriek":"jeugdregio","FID":"jeugdregio_gegeneraliseerd_2020.f5a7a9fd-10ed-4c47-b569-ceeefc6b516d"},"id":"JZ05"},{"arcs":[[-34,35,-32,36,37,38,-22]],"type":"Polygon","properties":{"id":6,"statcode":"JZ06","jrstatcode":"2020JZ06","statnaam":"Alkmaar (Noord-Kennemerland)","rubriek":"jeugdregio","FID":"jeugdregio_gegeneraliseerd_2020.6c38aa0b-f68c-4ecf-a829-420363268701"},"id":"JZ06"},{"arcs":[[39,40,41,42,43,44,45,46,47,48,-12,-29]],"type":"Polygon","properties":{"id":7,"statcode":"JZ07","jrstatcode":"2020JZ07","statnaam":"IJsselland","rubriek":"jeugdregio","FID":"jeugdregio_gegeneraliseerd_2020.9c5e4ce4-0a8f-4b13-bc5b-d53cd84bc804"},"id":"JZ07"},{"arcs":[[-49,49,-45,50,51,52,53,54,55,56,57,58,59,60,-13]],"type":"Polygon","properties":{"id":8,"statcode":"JZ08","jrstatcode":"2020JZ08","statnaam":"Flevoland","rubriek":"jeugdregio","FID":"jeugdregio_gegeneraliseerd_2020.a2adef02-378d-4c38-a8bb-83bdaeef4900"},"id":"JZ08"},{"arcs":[[62,63,64,65,-37,-31]],"type":"Polygon","properties":{"id":9,"statcode":"JZ09","jrstatcode":"2020JZ09","statnaam":"Zaanstreek-Waterland","rubriek":"jeugdregio","FID":"jeugdregio_gegeneraliseerd_2020.f87b38b6-0887-463b-8fd9-9cb956dcd5ec"},"id":"JZ09"},{"arcs":[[-66,66,67,68,-38]],"type":"Polygon","properties":{"id":10,"statcode":"JZ10","jrstatcode":"2020JZ10","statnaam":"IJmond (Midden Kennemerland)","rubriek":"jeugdregio","FID":"jeugdregio_gegeneraliseerd_2020.7e7e1ac2-1f79-4194-b6bc-d274cbea4440"},"id":"JZ10"},{"arcs":[[69,70,71,-68]],"type":"Polygon","properties":{"id":11,"statcode":"JZ11","jrstatcode":"2020JZ11","statnaam":"Zuid Kennemerland","rubriek":"jeugdregio","FID":"jeugdregio_gegeneraliseerd_2020.d17c81d4-4c17-418c-9eda-b46b4fc31473"},"id":"JZ11"},{"arcs":[[72,73,74,-53,75,76,-43]],"type":"Polygon","properties":{"id":12,"statcode":"JZ12","jrstatcode":"2020JZ12","statnaam":"Noord-Veluwe","rubriek":"jeugdregio","FID":"jeugdregio_gegeneraliseerd_2020.a5b5eb4d-6a19-4063-805a-5243bbaaa937"},"id":"JZ12"},{"arcs":[[77,78,79,80,81,-64]],"type":"Polygon","properties":{"id":13,"statcode":"JZ13","jrstatcode":"2020JZ13","statnaam":"Amsterdam-Amstelland","rubriek":"jeugdregio","FID":"jeugdregio_gegeneraliseerd_2020.0880db96-2f7c-45ae-8b46-49f067b9daef"},"id":"JZ13"},{"arcs":[[82,83,84,-41]],"type":"Polygon","properties":{"id":14,"statcode":"JZ14","jrstatcode":"2020JZ14","statnaam":"Twente","rubriek":"jeugdregio","FID":"jeugdregio_gegeneraliseerd_2020.d8c33528-d606-4dcc-8a7e-6e9cdaade47f"},"id":"JZ14"},{"arcs":[[85,-70,-67,-65,-82]],"type":"Polygon","properties":{"id":15,"statcode":"JZ15","jrstatcode":"2020JZ15","statnaam":"Haarlemmermeer","rubriek":"jeugdregio","FID":"jeugdregio_gegeneraliseerd_2020.31c01d3d-ceb1-4c0c-a240-77e170c091f9"},"id":"JZ15"},{"arcs":[[-59,86,-57,87,88,89,90,91,92,-79,93]],"type":"Polygon","properties":{"id":16,"statcode":"JZ16","jrstatcode":"2020JZ16","statnaam":"Gooi en Vechtstreek","rubriek":"jeugdregio","FID":"jeugdregio_gegeneraliseerd_2020.05c4047d-8db8-434e-88e1-cc3645dc9682"},"id":"JZ16"},{"arcs":[[-85,94,95,96,-73,-42]],"type":"Polygon","properties":{"id":17,"statcode":"JZ17","jrstatcode":"2020JZ17","statnaam":"Midden IJssel / Oost Veluwe","rubriek":"jeugdregio","FID":"jeugdregio_gegeneraliseerd_2020.f2603820-9aef-43b2-a113-891fdbc1f9e4"},"id":"JZ17"},{"arcs":[[-86,-81,97,98,99,100,101,-71]],"type":"Polygon","properties":{"id":18,"statcode":"JZ18","jrstatcode":"2020JZ18","statnaam":"Holland Rijnland","rubriek":"jeugdregio","FID":"jeugdregio_gegeneraliseerd_2020.7f21c2df-16c7-43f4-a618-efb2ed2eceb7"},"id":"JZ18"},{"arcs":[[-93,102,-91,103,104,105,106,-98,-80]],"type":"Polygon","properties":{"id":19,"statcode":"JZ19","jrstatcode":"2020JZ19","statnaam":"Utrecht West","rubriek":"jeugdregio","FID":"jeugdregio_gegeneraliseerd_2020.4871152e-f00e-4da4-aa7d-b9084ac61a57"},"id":"JZ19"},{"arcs":[[107,108,109,-89]],"type":"Polygon","properties":{"id":20,"statcode":"JZ20","jrstatcode":"2020JZ20","statnaam":"Eemland","rubriek":"jeugdregio","FID":"jeugdregio_gegeneraliseerd_2020.077f2641-da42-45c5-8854-446fe87ca7e7"},"id":"JZ20"},{"arcs":[[-74,-97,110,111,112,-109,113,-55,114]],"type":"Polygon","properties":{"id":21,"statcode":"JZ21","jrstatcode":"2020JZ21","statnaam":"Food Valley","rubriek":"jeugdregio","FID":"jeugdregio_gegeneraliseerd_2020.9284936a-c1c6-4966-8265-cd8bb8b3611e"},"id":"JZ21"},{"arcs":[[115,116,-105]],"type":"Polygon","properties":{"id":22,"statcode":"JZ22","jrstatcode":"2020JZ22","statnaam":"Utrecht Stad","rubriek":"jeugdregio","FID":"jeugdregio_gegeneraliseerd_2020.2dacfbbb-5551-46cc-817b-93e299181318"},"id":"JZ22"},{"arcs":[[-113,117,118,119,120,-116,-104,-90,-110]],"type":"Polygon","properties":{"id":23,"statcode":"JZ23","jrstatcode":"2020JZ23","statnaam":"Zuidoost Utrecht","rubriek":"jeugdregio","FID":"jeugdregio_gegeneraliseerd_2020.7293e534-8e34-42d1-a1ec-766b04a93a90"},"id":"JZ23"},{"arcs":[[121,122,123,124,-101]],"type":"Polygon","properties":{"id":24,"statcode":"JZ24","jrstatcode":"2020JZ24","statnaam":"Haaglanden","rubriek":"jeugdregio","FID":"jeugdregio_gegeneraliseerd_2020.440f0b84-32e9-4637-91c1-9e1178fecbfb"},"id":"JZ24"},{"arcs":[[125,126,-95,-84]],"type":"Polygon","properties":{"id":25,"statcode":"JZ25","jrstatcode":"2020JZ25","statnaam":"Achterhoek","rubriek":"jeugdregio","FID":"jeugdregio_gegeneraliseerd_2020.fc2bad5c-a58b-4917-82f7-7e32e55668bb"},"id":"JZ25"},{"arcs":[[-121,127,-119,128,129,130,131,132,-106,-117]],"type":"Polygon","properties":{"id":26,"statcode":"JZ26","jrstatcode":"2020JZ26","statnaam":"Lekstroom","rubriek":"jeugdregio","FID":"jeugdregio_gegeneraliseerd_2020.0a02c1f2-4d26-4a2f-b1b6-00956a4b326a"},"id":"JZ26"},{"arcs":[[-107,-133,133,134,-99]],"type":"Polygon","properties":{"id":27,"statcode":"JZ27","jrstatcode":"2020JZ27","statnaam":"Midden Holland","rubriek":"jeugdregio","FID":"jeugdregio_gegeneraliseerd_2020.db043b35-bc9a-4812-b3ca-27bf78f99154"},"id":"JZ27"},{"arcs":[[-127,135,136,137,-111,-96]],"type":"Polygon","properties":{"id":28,"statcode":"JZ28","jrstatcode":"2020JZ28","statnaam":"Arnhem","rubriek":"jeugdregio","FID":"jeugdregio_gegeneraliseerd_2020.9f474c53-7079-4fca-8129-44d1974a4836"},"id":"JZ28"},{"arcs":[[-135,138,139,140,141,142,143,144,145,146,-124,147,-122,-100]],"type":"Polygon","properties":{"id":29,"statcode":"JZ29","jrstatcode":"2020JZ29","statnaam":"Rijnmond","rubriek":"jeugdregio","FID":"jeugdregio_gegeneraliseerd_2020.3a1891c7-9a6c-487f-aa39-49d2d238d45f"},"id":"JZ29"},{"arcs":[[-112,-138,148,149,150,151,152,-131,153,-129,-118]],"type":"Polygon","properties":{"id":30,"statcode":"JZ30","jrstatcode":"2020JZ30","statnaam":"Rivierenland","rubriek":"jeugdregio","FID":"jeugdregio_gegeneraliseerd_2020.ab224cbb-aee1-4c34-ab25-da20032e070a"},"id":"JZ30"},{"arcs":[[[-153,154,155,156,157,158,159,-139,-134,-132]],[[160]]],"type":"MultiPolygon","properties":{"id":31,"statcode":"JZ31","jrstatcode":"2020JZ31","statnaam":"Zuid-Holland Zuid","rubriek":"jeugdregio","FID":"jeugdregio_gegeneraliseerd_2020.62ec2470-b4ba-42f9-a105-766fc641d0c8"},"id":"JZ31"},{"arcs":[[-137,163,164,165,-149]],"type":"Polygon","properties":{"id":32,"statcode":"JZ32","jrstatcode":"2020JZ32","statnaam":"Nijmegen","rubriek":"jeugdregio","FID":"jeugdregio_gegeneraliseerd_2020.8824b6a8-e352-4397-814e-766a7bc075ab"},"id":"JZ32"},{"arcs":[[-166,166,167,168,-150]],"type":"Polygon","properties":{"id":33,"statcode":"JZ33","jrstatcode":"2020JZ33","statnaam":"Noordoost Brabant","rubriek":"jeugdregio","FID":"jeugdregio_gegeneraliseerd_2020.d205b16a-0a54-4521-a229-1184c92c06bd"},"id":"JZ33"},{"arcs":[[-152,169,170,171,-155]],"type":"Polygon","properties":{"id":34,"statcode":"JZ34","jrstatcode":"2020JZ34","statnaam":"West Brabant Oost","rubriek":"jeugdregio","FID":"jeugdregio_gegeneraliseerd_2020.04ca02f9-7a92-4428-aecf-8581915acf21"},"id":"JZ34"},{"arcs":[[-169,172,173,-170,-151]],"type":"Polygon","properties":{"id":35,"statcode":"JZ35","jrstatcode":"2020JZ35","statnaam":"Midden-Brabant","rubriek":"jeugdregio","FID":"jeugdregio_gegeneraliseerd_2020.4cd4b72f-c0c6-4c6f-b817-31f75dbb8865"},"id":"JZ35"},{"arcs":[[174,175,176,-142,177,-158,178,-156,-172]],"type":"Polygon","properties":{"id":36,"statcode":"JZ36","jrstatcode":"2020JZ36","statnaam":"West Brabant West","rubriek":"jeugdregio","FID":"jeugdregio_gegeneraliseerd_2020.4f2a87ab-0c2d-446c-beac-0e158f5c033e"},"id":"JZ36"},{"arcs":[[180,181,182,-167,-165,183]],"type":"Polygon","properties":{"id":37,"statcode":"JZ37","jrstatcode":"2020JZ37","statnaam":"Noord-Limburg","rubriek":"jeugdregio","FID":"jeugdregio_gegeneraliseerd_2020.e8926409-e8b6-4ef3-a8d8-aacbc94d66fd"},"id":"JZ37"},{"arcs":[[[184,-144,185,-176,186,-146],[187],[188],[189]],[[190]]],"type":"MultiPolygon","properties":{"id":38,"statcode":"JZ38","jrstatcode":"2020JZ38","statnaam":"Zeeland","rubriek":"jeugdregio","FID":"jeugdregio_gegeneraliseerd_2020.0dd4cbb3-27ee-4df5-9d86-084111ebb857"},"id":"JZ38"},{"arcs":[[-183,191,192,-173,-168]],"type":"Polygon","properties":{"id":39,"statcode":"JZ39","jrstatcode":"2020JZ39","statnaam":"Zuidoost-Brabant","rubriek":"jeugdregio","FID":"jeugdregio_gegeneraliseerd_2020.edfbd834-9e21-4a9f-8851-33ac11b737c3"},"id":"JZ39"},{"arcs":[[193,194]],"type":"Polygon","properties":{"id":40,"statcode":"JZ41","jrstatcode":"2020JZ41","statnaam":"Zuid-Limburg","rubriek":"jeugdregio","FID":"jeugdregio_gegeneraliseerd_2020.0ed03c25-25ec-48f2-a1c0-cac5e23ec3be"},"id":"JZ41"},{"arcs":[[195,-195,196,197,-181]],"type":"Polygon","properties":{"id":41,"statcode":"JZ42","jrstatcode":"2020JZ42","statnaam":"Midden-Limburg Oost","rubriek":"jeugdregio","FID":"jeugdregio_gegeneraliseerd_2020.a8fa419c-f9a4-4ca3-8682-43dbc7efec56"},"id":"JZ42"},{"arcs":[[-198,198,-192,-182]],"type":"Polygon","properties":{"id":42,"statcode":"JZ43","jrstatcode":"2020JZ43","statnaam":"Midden-Limburg West","rubriek":"jeugdregio","FID":"jeugdregio_gegeneraliseerd_2020.c1f9e36b-f61f-4d0d-a6a3-c2be40fb08f8"},"id":"JZ43"}]}}}