{"type":"Topology","arcs":[[[3735,2088],[-21,7],[-32,28],[-25,0],[31,43],[-30,9],[-79,68],[-200,126],[-42,2],[-60,-15],[-16,26],[-55,26],[-16,23],[-18,14],[-44,9],[-38,-8],[-5,-8],[-35,-10],[-25,-28],[-39,-63],[-29,7]],[[2957,2344],[-24,6],[-29,14],[-56,1],[-31,21],[2,31],[23,28],[30,23],[-12,24],[38,29],[-2,18],[25,14],[8,38]],[[2929,2591],[-37,8],[-18,18],[-14,-3],[-33,39],[6,8]],[[2833,2661],[8,-3],[62,6],[45,-21],[62,23],[47,6],[123,9],[61,7],[35,13],[62,11],[50,4],[52,-11],[16,8],[51,-13],[17,-10],[-8,-32],[14,-12],[9,-40],[37,-23],[34,-14],[59,-17],[57,-4],[-6,-31],[26,-15],[102,-16],[11,-21],[1,-17],[-27,-36],[-12,-23],[4,-17],[20,-9],[-4,-32],[14,-70],[-31,-69],[-78,-78],[-17,-14],[6,-12]],[[3147,2801],[1,-13],[-20,-11],[-25,12],[26,15],[18,-3]],[[1802,2546],[-27,-12],[-6,16],[33,-4]],[[1742,2551],[-37,-7],[-30,-13],[-61,-16],[7,-16],[-60,-33],[-39,-1],[-11,-11],[-24,4],[9,14],[79,33],[28,16],[75,31],[28,6],[36,-7]],[[2833,2661],[-29,-3],[-7,-16],[7,-23],[59,-27],[33,6],[33,-7]],[[2957,2344],[-10,-13],[63,-14],[-5,-33],[65,-62],[-35,-39],[-60,-27],[-30,19],[-46,3],[-25,-15],[-25,-22],[-87,-37]],[[2762,2104],[-89,-39],[-34,2],[-25,25],[-42,-7],[-6,-11],[-48,-23],[-32,4],[-24,12],[-25,-10]],[[2437,2057],[-46,33],[-36,-2]],[[2355,2088],[-28,8],[-27,-2],[-13,16],[-27,-9],[-33,-2],[-18,-15],[-22,-1],[-45,13],[-46,9],[-28,-7],[-28,9],[-32,17],[-9,10],[14,15],[36,11],[-6,29],[12,25],[-16,39],[11,17],[-32,35],[17,8],[-18,28],[-31,-17],[-47,-7],[-130,-68]],[[1809,2249],[-1,1]],[[1808,2250],[127,67],[56,11],[29,17],[1,13],[25,14],[16,60],[29,38],[34,21],[44,16],[60,43],[93,28],[76,25],[23,3],[81,28],[28,7],[45,-3],[83,15],[79,5],[44,-4],[38,11],[14,-4]],[[2185,2689],[-2,-6],[-65,-16],[-17,-12],[-75,-3],[-27,-14],[-64,-18],[-36,3],[-36,-9],[-30,-16],[-40,2],[14,20],[36,25],[50,9],[125,19],[119,21],[48,-5]],[[2373,2712],[40,-2],[160,8],[-40,-17],[-86,-13],[-75,5],[-50,-18],[-37,2],[-27,13],[0,13],[36,17],[43,-8],[36,0]],[[3021,2757],[-41,-1],[-8,-5],[-56,-12],[-22,-11],[-55,-6],[-36,0],[-46,-9],[4,20],[31,14],[79,8],[60,4],[56,7],[34,-9]],[[1324,2210],[-19,9],[4,14],[26,-3],[-11,-20]],[[1746,2024],[-34,-6],[-13,-11],[-31,-5],[-82,2],[-45,-47]],[[1541,1957],[-41,16],[-53,-9],[-26,17],[-8,-29],[-42,-11],[-13,19],[-26,23],[-44,24]],[[1288,2007],[34,53],[31,83],[6,54],[14,16],[32,2],[16,-10],[23,-2],[-11,-17],[18,-25],[65,-22],[33,5],[28,9],[33,27],[59,8],[11,-5],[128,67]],[[1809,2249],[-128,-68],[10,-7],[65,-78],[-10,-72]],[[1521,2407],[29,-22],[-8,-10],[-3,-46],[-24,-14],[0,-10],[-26,-21],[-28,-5],[-34,-27],[-48,-13],[-23,8],[-5,25],[15,46],[34,38],[83,77],[20,0],[18,-26]],[[3735,2088],[-21,-28],[-8,-87],[-9,-79],[-13,-11],[-67,13],[-36,-8],[-42,13],[-75,-3],[-45,4],[-35,-7],[-32,-17]],[[3352,1878],[-2,21],[-93,25],[-62,-8],[-39,-20],[5,-32],[-49,11],[-17,-11],[-19,12],[-50,-14],[-20,31],[-38,17],[1,9],[-57,-4],[-22,11],[-46,9],[-21,-10],[-24,17],[-37,58],[36,13],[46,31],[-65,45],[-17,15]],[[1929,1941],[0,-1]],[[1929,1940],[-41,-4],[-10,-29],[-37,-21],[-24,-3],[-16,-10],[-31,-3],[-39,23],[-21,-8],[-22,7],[-27,-12],[1,-18]],[[1662,1862],[-15,-14],[-55,-3],[4,18],[-27,-6]],[[1569,1857],[-5,4],[-38,2],[4,14],[-25,26],[13,33],[24,12],[-1,9]],[[1746,2024],[42,-32],[34,-1],[13,14],[65,-2],[25,-13],[5,-25],[11,-12],[-12,-12]],[[1569,1857],[-12,2],[-24,-14],[-22,-19],[-27,-33],[-18,0],[-34,-24],[-38,2],[1,-10],[-33,-16]],[[1362,1745],[-27,16],[3,16],[-36,5],[-62,-1]],[[1240,1781],[17,65],[12,69],[11,43],[-1,21],[9,28]],[[3352,1878],[17,-13],[-8,-26],[48,-25],[-40,-1],[-11,-14],[-35,4],[24,-32],[-7,-35]],[[3340,1736],[-29,9],[-27,-24],[-31,-4],[-10,12],[-47,9],[-49,3],[-1,-9],[-53,-13],[-13,-25],[-48,-16],[15,-12],[-16,-36],[-46,-10],[-9,-19],[22,-33],[-29,-16],[2,-21],[48,-22],[5,-13]],[[3024,1496],[-44,-10],[1,-9],[-122,-1],[-34,8],[-35,-6],[-24,23],[6,10],[-18,17],[-11,23],[-17,1],[-13,20],[11,50],[42,9],[6,18],[-19,9],[8,25],[-14,10],[-3,23],[-31,16],[-17,18],[-26,10],[-27,-10]],[[2643,1750],[-36,-24],[-14,8],[-25,-10],[-16,23],[-23,20],[-21,2]],[[2508,1769],[-2,1]],[[2506,1770],[-1,1]],[[2505,1771],[-6,23]],[[2499,1794],[1,2]],[[2500,1796],[-29,41],[14,24]],[[2485,1861],[53,7]],[[2538,1868],[35,-4],[31,10],[24,-1],[33,20],[-36,15]],[[2625,1908],[-49,18],[31,18],[-22,21],[-21,36],[-72,34],[-31,3],[-24,19]],[[2506,1770],[-1,1]],[[2485,1861],[53,7]],[[2625,1908],[-19,-19],[-132,-26],[-169,0],[-8,-16],[101,-15],[57,-5],[45,-31]],[[2499,1794],[0,-26],[-9,-25],[-31,-36]],[[2459,1707],[-20,-18],[-50,-24],[-27,1],[-59,-18],[-46,-27]],[[2257,1621],[8,38],[-45,1],[-41,-25],[-28,13],[-70,45],[-41,-23],[-97,-38],[78,-68],[-25,-5],[-20,5],[-17,-10]],[[1959,1554],[-3,-1]],[[1956,1553],[-1,0]],[[1955,1553],[-28,14],[-64,17],[-37,1],[-45,-10]],[[1781,1575],[-1,1]],[[1780,1576],[-9,57],[33,17],[96,35],[120,52],[17,4],[40,20],[-9,19],[1,8],[11,17],[8,6],[21,11],[-12,22],[-56,55],[-39,25],[-55,16],[-18,0]],[[1929,1941],[15,1],[52,-14],[7,-4],[39,-25],[56,-55],[13,-24],[-29,-14],[-12,-18],[20,-3],[8,15],[45,6],[58,36],[69,13],[24,12],[-36,34],[-23,12],[2,100],[65,65],[53,10]],[[1662,1862],[11,-45],[24,-22],[11,-22],[20,-19],[-27,-18],[9,-14],[-20,-17],[1,-16],[29,-2],[9,0],[6,3],[0,12],[10,15],[30,-7],[-38,-12],[-1,-7],[-2,-4],[-24,-20]],[[1710,1667],[-19,-2],[-49,10],[-52,-3],[-17,-10],[-32,12],[-33,7],[-10,-14],[-117,14]],[[1381,1681],[-17,2]],[[1364,1683],[-47,23],[23,15],[22,24]],[[1364,1683],[-40,-19]],[[1324,1664],[-31,15],[-27,-7],[-36,12],[-28,4]],[[1202,1688],[-6,23],[51,6],[-30,12],[23,52]],[[1324,1664],[-13,-13],[17,-17],[-15,-14],[5,-14],[-64,-31],[0,-11]],[[1254,1564],[-43,2],[-5,-7],[-70,19]],[[1136,1578],[61,95],[5,15]],[[2643,1750],[32,-22],[2,-16],[-17,-18],[-44,-34],[-23,-12],[-39,-11],[-47,-36],[16,-16],[-40,-31],[11,-24],[-9,-13],[-22,6],[-72,-5],[12,-20],[-35,-5]],[[2368,1493],[-42,-2],[-3,-16],[-48,-17],[-83,-6],[-34,32],[-32,5],[-5,19]],[[2121,1508],[27,7],[21,-1],[32,47],[17,16],[35,19],[1,18],[-48,4],[-26,-18],[15,-16],[0,-13],[-24,-46],[-58,-11]],[[2113,1514],[-1,-1]],[[2112,1513],[-68,-10],[-85,51]],[[2257,1621],[38,-6],[25,14],[22,2],[40,17],[71,38],[6,21]],[[2459,1707],[24,10],[25,52]],[[1710,1667],[-16,-4],[-38,-28],[-40,-13],[36,-19],[17,-15]],[[1669,1588],[2,-7],[63,-16],[10,-35],[-38,1]],[[1706,1531],[-21,1],[-30,22],[-52,-26],[-35,0],[3,-10],[-18,-15],[-41,0],[-27,-16],[-48,-10]],[[1437,1477],[-70,-14],[-1,19],[-38,-5],[-16,4]],[[1312,1481],[32,13],[24,19],[62,26],[29,23],[-1,15],[-60,29],[1,41],[-28,4],[10,30]],[[3340,1736],[55,-22],[22,-4],[79,0],[8,-9],[80,-16],[19,9],[17,22],[16,-1],[17,-36],[24,-25],[24,-5],[13,-26],[0,-21],[-16,-14],[-30,-46],[2,-14],[33,-43],[-42,-10],[-30,2],[-38,-46],[-35,-3],[-34,-22],[-9,-24],[-18,-13],[-94,-1]],[[3403,1368],[-45,-1],[-53,12],[11,13],[-3,24],[-26,8],[-33,-11],[-22,19],[-35,-5],[-37,4],[-26,-4]],[[3134,1427],[-13,6],[-50,40],[-13,19],[-34,4]],[[1312,1481],[-37,-15],[-30,-1],[-46,4],[11,50],[20,11],[24,34]],[[1781,1575],[9,-10],[26,-11],[23,5],[51,3],[43,-15],[22,6]],[[1956,1553],[-17,-10],[9,-15]],[[1948,1528],[-40,4],[-43,-57],[-7,-21]],[[1858,1454],[-23,-26],[-78,2]],[[1757,1430],[-69,-14],[-12,47],[8,18],[15,6],[-30,27],[6,11],[31,6]],[[1669,1588],[10,-4],[40,6],[61,-14]],[[3134,1427],[-11,-36],[11,-18],[-11,-14],[-26,-2],[-31,-11],[-55,27],[-11,12],[-30,2],[-50,-16],[-20,-12],[-22,4],[-25,-22],[-33,-1],[-10,-15],[-31,-17]],[[2779,1308],[-34,19],[-35,10],[-44,-21],[-34,12],[-34,-6],[-10,5]],[[2588,1327],[0,21],[-35,1],[-28,6],[-18,20],[-5,23],[-50,2],[-8,27],[10,8],[-20,12],[-41,-3],[-20,15],[11,11],[-16,23]],[[1437,1477],[19,-25],[30,-22],[48,-18],[-18,-6],[1,-18],[-42,6],[-20,-5],[-21,-18]],[[1434,1371],[-83,-28],[7,-13],[-50,-17],[-29,10],[-30,3],[0,-11],[-42,-7]],[[1207,1308],[-8,2]],[[1199,1310],[-26,20],[-41,17],[-26,29],[-36,-26],[-27,11],[43,34],[-4,11],[-28,8],[-38,23]],[[1016,1437],[73,80],[47,61]],[[1757,1430],[4,-8],[-24,-17],[26,-10],[-14,-13]],[[1749,1382],[-20,3],[-26,-13],[-28,-6],[-30,24],[-33,-19],[35,-34],[-6,-22],[18,-5]],[[1659,1310],[-27,-9],[-7,-24],[12,-6],[-85,-11],[-75,-25]],[[1477,1235],[-17,14],[39,6],[-10,12],[-44,-4],[26,36],[39,13],[-42,12],[-1,32],[-33,15]],[[1948,1528],[51,-8],[47,-23]],[[2046,1497],[-11,-26],[17,-2],[29,-17],[1,-31],[30,-5],[29,-20],[-13,-53],[-27,-14],[39,-23]],[[2140,1306],[-63,-9],[2,24],[-105,12],[-10,18],[-30,13],[-36,21],[-13,35],[-19,-5],[-12,11],[4,28]],[[2588,1327],[-36,-16],[-11,-12],[-49,2],[-37,-28],[-68,-4],[-9,-18],[-47,-7],[-56,0],[-19,-5],[12,-16],[1,-22],[-21,-9]],[[2248,1192],[-45,12],[-21,12],[-62,16]],[[2120,1232],[16,12],[35,45],[-13,14],[-18,3]],[[2046,1497],[50,7],[16,9]],[[2113,1514],[8,-6]],[[1749,1382],[42,-15],[12,-24],[25,-1],[7,-15],[-33,0],[-7,-21]],[[1795,1306],[-7,-4],[-73,9],[-22,-32],[-34,31]],[[2120,1232],[-36,3],[-59,-17],[-35,-1],[-15,-11],[-77,14]],[[1898,1220],[-2,15],[-23,24],[-29,7],[-1,15],[-48,25]],[[1199,1310],[-52,-29],[-28,0],[-20,-10],[2,-20],[-31,-26],[-34,-14],[-57,-15],[-44,-26],[-34,7],[-31,20],[-10,-6],[-26,13],[-5,12],[-40,14],[-22,21]],[[767,1251],[136,101],[42,26],[71,59]],[[3403,1368],[-10,-34],[-16,-10],[-39,-5],[-8,-30],[26,0],[39,-12],[58,-30],[16,-4],[2,-30],[-30,-5],[-5,-24],[-24,-19],[-48,-20],[-29,19],[-18,1],[-37,-12],[-52,-10],[-30,-12],[-55,-14],[-36,-13],[-14,10],[-22,0],[-38,8],[-3,-11],[20,-8],[-1,-26],[-44,7],[-18,16],[-39,-2],[-5,16],[-21,9],[-18,-6],[-47,0],[-31,15],[7,9],[-23,9]],[[2810,1150],[-77,38],[-1,29],[15,-1],[24,11],[31,3],[1,33],[16,5],[-1,20],[-24,3],[-30,-7],[-6,14],[21,10]],[[1898,1220],[-26,5],[-24,-17],[-26,8],[-48,-52],[-19,-27],[-25,0],[-7,-12],[-26,-3],[4,-15],[-32,1]],[[1669,1108],[-3,22],[-25,3],[-4,18],[-39,14],[-17,13],[-7,19],[-54,-10]],[[1520,1187],[-18,30],[-25,18]],[[1520,1187],[-46,1],[-21,-14],[-49,-11],[-46,-18],[-43,-6],[-53,0]],[[1262,1139],[-25,4],[6,13],[42,6],[-59,52],[15,23],[-20,2],[-7,-18],[-18,-3],[-8,23],[9,14],[10,53]],[[2810,1150],[-11,4],[-47,-10],[27,-9],[8,-16],[22,-8],[0,-21],[-60,7],[-44,17]],[[2705,1114],[-46,16],[-24,-6],[-12,-15],[-26,-3],[-31,18],[-42,-8],[-11,22],[-14,6],[-25,-23],[-106,15],[-19,6]],[[2349,1142],[-1,15],[-24,10],[-21,26],[-31,-8],[-24,7]],[[598,1027],[-51,-7],[29,19],[22,-12]],[[1262,1139],[27,-33],[-42,-9],[-5,-9],[-29,8],[-17,-17],[-55,5],[-77,-5],[-25,1],[-28,-14],[-15,2],[-48,-10],[-10,-7],[-32,1],[-17,-18]],[[889,1034],[-35,15],[-30,5],[-26,18],[-25,-3],[-37,9],[-20,14],[-29,-14],[-1,-10],[49,-15],[33,-15],[62,-13],[55,-31],[20,-17],[36,-11],[30,-14],[55,-1],[14,9]],[[1040,960],[6,-12]],[[1046,948],[-10,-5]],[[1036,943],[-26,-9],[-11,-14],[-18,-6],[-58,-10],[-49,6],[-12,13],[-31,9],[-32,-1]],[[799,931],[-2,1]],[[797,932],[0,14],[-44,11],[-52,4],[-37,31],[-2,36],[-31,23],[-40,1],[-52,-9],[-28,-13],[-14,-23],[-13,-2]],[[484,1005],[-3,2]],[[481,1007],[26,24],[-10,21],[5,11],[88,26],[52,9],[36,-25],[32,25],[-39,37],[24,32],[-13,6],[-41,-9],[-15,3],[-21,36],[2,13],[19,18],[20,4],[38,-3],[5,8],[50,-9],[28,17]],[[2349,1142],[-81,6],[-50,-6],[-8,-16],[17,-38],[13,-11]],[[2240,1077],[-40,0],[-17,-12],[-55,13],[-12,-14],[-35,-5],[-37,11],[-33,-31],[-15,-35],[-58,-18],[-13,3],[-38,-6],[-39,7]],[[1848,990],[-43,2],[-35,-5]],[[1770,987],[10,13],[0,22],[-42,15],[-29,-7],[-19,17],[-32,10],[-16,13]],[[1642,1070],[26,-2],[5,22],[-31,7],[27,11]],[[1186,944],[28,5]],[[1214,949],[-28,-5]],[[995,986],[-23,-11],[-31,5],[-31,15],[43,1],[42,-10]],[[1642,1070],[-64,7],[-47,-9],[-43,-20],[-49,1],[-42,-18],[-18,-26],[-62,-32],[-30,-5]],[[1287,968],[-1,0]],[[1286,968],[-7,-2]],[[1279,966],[-1,0]],[[1278,966],[-30,0],[-49,-13],[-28,-2],[-61,13],[-62,7],[-8,-11]],[[1040,960],[6,12],[-55,20],[-59,16],[-41,7],[-18,13],[16,6]],[[2705,1114],[-8,-13],[-19,-9],[-49,-12],[-24,6],[-18,-13],[34,-26],[12,-32],[-38,-18]],[[2595,997],[-19,-8],[-15,-22]],[[2561,967],[-34,10],[-5,22],[-28,9],[-72,-7],[-35,7],[-13,13],[-30,6],[-8,10],[-37,10],[-22,22],[-37,8]],[[2561,967],[36,-9],[17,-63],[48,-24],[6,-26],[14,-14],[-8,-30],[-28,18],[-69,-16],[-28,-2],[-16,8],[-53,6]],[[2480,815],[-37,13],[-14,19],[-88,-14],[-48,-2],[1,-12],[-30,-17],[-38,10],[-51,-5],[14,-20],[-22,-16],[-25,-1],[-13,21],[-64,-8],[-18,14],[-17,-4],[-44,0],[-11,7],[-25,-5],[-35,7]],[[1915,802],[-27,26],[2,11],[28,14],[-21,21],[-44,-9],[-19,23],[-32,1],[-6,15],[13,14],[56,5],[3,16],[22,5],[-18,16],[1,13],[-25,17]],[[1770,987],[-26,-7],[-48,-19],[-45,1],[-51,10],[-40,-3],[15,-43],[0,-26],[-23,-22],[4,-31],[-50,-19],[-1,-22],[-32,-7],[-61,-23],[-23,-12],[13,-13]],[[1402,751],[-26,-16]],[[1376,735],[8,20],[0,25],[-38,19],[-22,49],[-18,5],[-6,16],[7,14],[34,4],[-14,28],[25,7],[-13,15],[-30,-2],[-22,33]],[[1915,802],[-20,-13],[-9,-14],[7,-16],[-23,-11],[-8,-26],[-10,-7],[-19,-36],[-89,-1]],[[1744,678],[-23,42],[-33,0],[-24,11],[-11,-10],[-7,-27],[-41,-23],[-34,-26],[-43,21],[-97,-8],[-18,6],[-4,16],[20,2],[42,-10],[-6,26],[17,30],[-19,4],[-6,12],[-55,7]],[[1214,949],[-28,-5]],[[1376,735],[-41,-34],[-26,-8],[3,-18],[-40,0],[-55,7],[-40,-10],[-5,27],[18,23],[-10,9],[-51,-5],[-45,-8],[-57,-20],[12,-7],[-5,-34],[40,-33],[-10,-10],[-37,-11],[-44,4],[-6,20],[-58,-2]],[[919,625],[-9,8],[-4,32],[12,9],[-57,80],[17,38],[-8,21],[-36,30],[0,15],[22,19],[23,6]],[[879,883],[80,12],[33,2],[38,21],[6,25]],[[1046,948],[22,-2],[64,-14],[37,2],[75,12],[34,20]],[[1279,966],[7,2]],[[2715,492],[-22,10],[-13,-7],[-32,13]],[[2648,508],[2,19],[-53,22],[-47,13],[-56,8],[-20,17],[8,9]],[[2482,596],[34,6],[57,32],[-59,65],[-11,42],[-8,12],[-15,62]],[[2595,997],[2,-10],[39,0],[51,-21],[-19,-8],[11,-36],[51,-13],[29,-3],[-26,-51],[30,-13],[10,-12],[26,-14],[20,-28],[23,-12],[12,-14],[1,-22],[11,-16],[-19,-75],[21,-40],[-36,-21],[-21,-6],[-15,-26],[-25,-21],[-4,-11],[-52,-32]],[[161,656],[29,-2],[37,-17],[56,-12],[46,-5],[36,-21],[66,0],[18,-12],[60,-2],[50,25],[38,6],[13,19],[6,21],[44,-6],[35,-35],[60,-5],[26,0],[34,12],[33,1],[29,-26],[-69,-55],[-108,-50],[-52,-1],[-47,-26],[-73,-16],[3,23],[-29,-12],[-39,-2],[-30,5],[-2,32],[6,10],[-39,13],[-62,7],[-36,14],[-17,-2],[-50,16],[-76,-17],[13,-41],[-78,-4],[-43,15],[-37,35],[7,10],[-19,13],[27,19],[-11,15],[-4,23],[61,20],[9,-4],[79,19]],[[484,1005],[-16,-17],[24,-1],[38,6],[26,-13],[59,2],[9,-15],[25,-15],[8,-16],[29,-2],[48,-18],[17,11],[46,5]],[[799,931],[12,-28],[32,-15],[36,-5]],[[919,625],[-34,-1],[-11,20],[-35,12],[-40,-12],[-50,8],[-45,11],[-12,16],[-17,2],[-58,30],[-54,-17],[5,-11],[-25,-39],[-25,2],[-18,-6],[-46,-5],[-57,29],[-20,-4],[-14,15],[-29,18],[-34,13],[-18,-13],[-65,-5],[-48,24],[-31,31],[-36,16],[-27,18],[5,14],[114,48],[47,4],[35,-5],[47,11],[2,23],[15,16],[16,3],[8,21],[-33,15],[-10,29],[31,24],[54,12],[49,-2],[26,17]],[[449,946],[-53,-22],[-29,-6],[-11,-34],[-27,-13],[-5,-21],[33,-9],[59,5],[25,8],[36,1],[34,-10],[45,33],[-24,4],[-13,34],[-20,11],[-32,6],[-18,13]],[[739,916],[0,-19],[-26,-16],[-21,-1],[-43,-14],[-39,-3],[-28,20],[-26,-5],[-45,-33],[23,-24],[5,-12],[-24,-5],[-5,-15],[59,4],[13,-19],[17,6],[43,-10],[43,-18],[13,-21],[37,-36],[40,-15],[20,2],[28,11],[42,-5],[-1,25],[-8,28],[-37,10],[-13,21],[-87,2],[-28,28],[-44,23],[-21,5],[6,12],[34,4],[51,16],[51,0],[-27,20],[21,21],[32,1],[8,15],[-10,8],[-41,-4],[-12,-7]],[[349,766],[18,9],[-37,30],[-33,13],[-11,-9],[26,-10],[13,-20],[24,-13]],[[2482,596],[-168,-32],[-46,-41],[-7,-45],[-53,-8]],[[2208,470],[-11,23],[3,18],[-42,33],[-33,5],[-18,-15],[-23,-3],[-25,-20],[-71,14],[-10,-13],[-40,-2],[-33,6],[-25,-6],[-12,7],[16,37],[-42,18],[-37,-13],[-29,6],[-2,31],[-61,46],[31,36]],[[2519,281],[2,-14],[27,-16],[-9,-27],[58,13],[11,-8],[51,3],[1,-48],[64,-13],[-7,-29],[13,-21],[-11,-11],[-58,-15],[6,-32],[-21,-13],[-19,9],[-10,-12],[53,-24],[-7,-20],[-47,1],[-5,6],[-38,-4],[-10,-6],[-31,5],[-4,14],[-41,-5],[-38,-9],[-30,27],[-30,-13],[-52,-15],[-12,6],[14,14],[-3,37],[-38,12],[-17,22],[5,25],[39,18],[15,21],[27,1],[1,10],[30,37],[-36,4],[46,36],[10,24],[-18,12],[21,29],[20,-3]],[[2441,309],[25,7],[3,-19],[22,-2],[4,-17],[24,3]],[[2715,492],[13,-20],[-18,-2],[5,-38],[9,-11],[31,3],[52,19],[16,-8],[-42,-13],[36,-15],[-12,-9],[-37,-4],[-34,-10],[-16,-16],[-40,-22],[-26,-6],[-40,-30],[-2,-16],[-30,-10],[-25,32],[-46,-21],[10,-14]],[[2441,309],[5,17],[-9,13],[29,2],[10,8],[-24,18],[30,13],[16,14],[-30,22]],[[2468,416],[48,24],[10,22],[10,3],[32,-12],[25,-3],[29,22],[22,11],[4,25]],[[2468,416],[-47,-8],[-12,25],[-27,3],[-32,-5],[-50,3],[-12,15],[-80,21]]],"transform":{"scale":[0.001,0.0009996433666191172],"translate":[3.358,50.751]},"objects":{"jeugdregio_2025":{"type":"GeometryCollection","geometries":[{"arcs":[[[0,1,2,3]],[[4]]],"type":"MultiPolygon","properties":{"statcode":"JZ01","jrstatcode":"2025JZ01","statnaam":"Groningen","rubriek":"jeugdregio","id":1,"FID":"jeugdregio_gegeneraliseerd.ab343aae-024c-4763-92c9-2aa020ea98bf"},"id":"JZ01"},{"arcs":[[[5]],[[6]],[[7,-2,8,9,10,11,12,13]],[[14]],[[15]],[[16]]],"type":"MultiPolygon","properties":{"statcode":"JZ02","jrstatcode":"2025JZ02","statnaam":"Friesland (Fryslân)","rubriek":"jeugdregio","id":2,"FID":"jeugdregio_gegeneraliseerd.9f73eacb-144c-475b-b0d2-b4d5ced45883"},"id":"JZ02"},{"arcs":[[[17]],[[18,19,20,-13,21]],[[22]]],"type":"MultiPolygon","properties":{"statcode":"JZ03","jrstatcode":"2025JZ03","statnaam":"Kop van Noord-Holland","rubriek":"jeugdregio","id":3,"FID":"jeugdregio_gegeneraliseerd.b5063917-d6da-45ad-b20c-8509aba976a0"},"id":"JZ03"},{"arcs":[[23,24,-9,-1]],"type":"Polygon","properties":{"statcode":"JZ04","jrstatcode":"2025JZ04","statnaam":"Drenthe","rubriek":"jeugdregio","id":4,"FID":"jeugdregio_gegeneraliseerd.f3212937-5bfc-4c89-a7eb-a43b1d79c9a9"},"id":"JZ04"},{"arcs":[[25,26,27,28,-19,29]],"type":"Polygon","properties":{"statcode":"JZ05","jrstatcode":"2025JZ05","statnaam":"West Friesland","rubriek":"jeugdregio","id":5,"FID":"jeugdregio_gegeneraliseerd.60454b1b-8738-4b9b-9d20-a3dd9e29394a"},"id":"JZ05"},{"arcs":[[-29,30,31,32,-20]],"type":"Polygon","properties":{"statcode":"JZ06","jrstatcode":"2025JZ06","statnaam":"Alkmaar (Noord-Kennemerland)","rubriek":"jeugdregio","id":6,"FID":"jeugdregio_gegeneraliseerd.3d6775e4-0687-41b7-b3ab-ede4fa42cd00"},"id":"JZ06"},{"arcs":[[33,34,35,36,37,38,39,40,41,42,43,44,-10,-25]],"type":"Polygon","properties":{"statcode":"JZ07","jrstatcode":"2025JZ07","statnaam":"IJsselland","rubriek":"jeugdregio","id":7,"FID":"jeugdregio_gegeneraliseerd.0937b817-aabd-44c3-9b51-f495808160b8"},"id":"JZ07"},{"arcs":[[-45,47,-41,48,49,50,51,52,53,54,55,-26,56,-11]],"type":"Polygon","properties":{"statcode":"JZ08","jrstatcode":"2025JZ08","statnaam":"Flevoland","rubriek":"jeugdregio","id":8,"FID":"jeugdregio_gegeneraliseerd.db7a71a9-501a-4fd1-8b89-28d1d9a71705"},"id":"JZ08"},{"arcs":[[57,58,59,60,-31,-28]],"type":"Polygon","properties":{"statcode":"JZ09","jrstatcode":"2025JZ09","statnaam":"Zaanstreek-Waterland","rubriek":"jeugdregio","id":9,"FID":"jeugdregio_gegeneraliseerd.c8783340-aed1-4383-a8a3-678a56f14d6a"},"id":"JZ09"},{"arcs":[[-61,61,62,63,-32]],"type":"Polygon","properties":{"statcode":"JZ10","jrstatcode":"2025JZ10","statnaam":"IJmond (Midden Kennemerland)","rubriek":"jeugdregio","id":10,"FID":"jeugdregio_gegeneraliseerd.62de3a69-e3ee-425a-86fd-6fa27e3f4388"},"id":"JZ10"},{"arcs":[[64,65,66,-63]],"type":"Polygon","properties":{"statcode":"JZ11","jrstatcode":"2025JZ11","statnaam":"Zuid Kennemerland","rubriek":"jeugdregio","id":11,"FID":"jeugdregio_gegeneraliseerd.f1d77e69-ee8f-4bae-8cd0-edb4b618f737"},"id":"JZ11"},{"arcs":[[67,68,69,70,71,-51,72,73,-37]],"type":"Polygon","properties":{"statcode":"JZ12","jrstatcode":"2025JZ12","statnaam":"Noord-Veluwe","rubriek":"jeugdregio","id":12,"FID":"jeugdregio_gegeneraliseerd.152e8c28-7a1a-4d03-b844-66178fecfaa0"},"id":"JZ12"},{"arcs":[[74,75,76,77,78,-59]],"type":"Polygon","properties":{"statcode":"JZ13","jrstatcode":"2025JZ13","statnaam":"Amsterdam-Amstelland","rubriek":"jeugdregio","id":13,"FID":"jeugdregio_gegeneraliseerd.db690abf-225d-432d-82f5-da2775fc7d65"},"id":"JZ13"},{"arcs":[[79,80,81,-35]],"type":"Polygon","properties":{"statcode":"JZ14","jrstatcode":"2025JZ14","statnaam":"Twente","rubriek":"jeugdregio","id":14,"FID":"jeugdregio_gegeneraliseerd.d28c20d3-365e-4d08-b22f-1ba4715f89ff"},"id":"JZ14"},{"arcs":[[82,-65,-62,-60,-79]],"type":"Polygon","properties":{"statcode":"JZ15","jrstatcode":"2025JZ15","statnaam":"Haarlemmermeer","rubriek":"jeugdregio","id":15,"FID":"jeugdregio_gegeneraliseerd.1cfd3971-6ec4-49e8-aeae-b2a7d45794ba"},"id":"JZ15"},{"arcs":[[-55,83,-53,84,85,86,87,-76,88]],"type":"Polygon","properties":{"statcode":"JZ16","jrstatcode":"2025JZ16","statnaam":"Gooi en Vechtstreek","rubriek":"jeugdregio","id":16,"FID":"jeugdregio_gegeneraliseerd.d1d16826-9dbf-4954-b440-5cc9e472af41"},"id":"JZ16"},{"arcs":[[-82,89,90,91,-68,-36]],"type":"Polygon","properties":{"statcode":"JZ17","jrstatcode":"2025JZ17","statnaam":"Midden IJssel / Oost Veluwe","rubriek":"jeugdregio","id":17,"FID":"jeugdregio_gegeneraliseerd.b9cfc0d9-559c-4fa3-b609-9668fdc98864"},"id":"JZ17"},{"arcs":[[-83,-78,92,93,94,95,96,-66]],"type":"Polygon","properties":{"statcode":"JZ18","jrstatcode":"2025JZ18","statnaam":"Holland Rijnland","rubriek":"jeugdregio","id":18,"FID":"jeugdregio_gegeneraliseerd.bece20cf-f321-47b5-81c9-f8bc010f88db"},"id":"JZ18"},{"arcs":[[-88,97,98,99,100,-93,-77]],"type":"Polygon","properties":{"statcode":"JZ19","jrstatcode":"2025JZ19","statnaam":"Utrecht West","rubriek":"jeugdregio","id":19,"FID":"jeugdregio_gegeneraliseerd.91287547-fa7e-44b4-b54e-492fcb901701"},"id":"JZ19"},{"arcs":[[101,102,103,-86]],"type":"Polygon","properties":{"statcode":"JZ20","jrstatcode":"2025JZ20","statnaam":"Eemland","rubriek":"jeugdregio","id":20,"FID":"jeugdregio_gegeneraliseerd.d7314ee0-aba0-4aef-8568-9aaa4ca9111b"},"id":"JZ20"},{"arcs":[[-69,-92,104,105,106,-103,107,-71,108]],"type":"Polygon","properties":{"statcode":"JZ21","jrstatcode":"2025JZ21","statnaam":"Food Valley","rubriek":"jeugdregio","id":21,"FID":"jeugdregio_gegeneraliseerd.379a4c2b-a83e-4200-90db-000d29a83c4e"},"id":"JZ21"},{"arcs":[[109,110,-99]],"type":"Polygon","properties":{"statcode":"JZ22","jrstatcode":"2025JZ22","statnaam":"Utrecht Stad","rubriek":"jeugdregio","id":22,"FID":"jeugdregio_gegeneraliseerd.c3a4bb08-4f36-4787-a0dc-5f8e5a634e24"},"id":"JZ22"},{"arcs":[[-107,111,112,-110,-98,-87,-104]],"type":"Polygon","properties":{"statcode":"JZ23","jrstatcode":"2025JZ23","statnaam":"Zuidoost Utrecht","rubriek":"jeugdregio","id":23,"FID":"jeugdregio_gegeneraliseerd.356ac814-c66a-4ed8-b364-4abd261a6a6c"},"id":"JZ23"},{"arcs":[[113,114,-96]],"type":"Polygon","properties":{"statcode":"JZ24","jrstatcode":"2025JZ24","statnaam":"Haaglanden","rubriek":"jeugdregio","id":24,"FID":"jeugdregio_gegeneraliseerd.6c6711a4-060f-47ac-ae05-f1bcc519d73a"},"id":"JZ24"},{"arcs":[[115,116,-90,-81]],"type":"Polygon","properties":{"statcode":"JZ25","jrstatcode":"2025JZ25","statnaam":"Achterhoek","rubriek":"jeugdregio","id":25,"FID":"jeugdregio_gegeneraliseerd.d16fb91c-b7ba-456e-bb1c-4526597322ed"},"id":"JZ25"},{"arcs":[[-113,117,118,119,-100,-111]],"type":"Polygon","properties":{"statcode":"JZ26","jrstatcode":"2025JZ26","statnaam":"Lekstroom","rubriek":"jeugdregio","id":26,"FID":"jeugdregio_gegeneraliseerd.0ad14c4d-f66d-4462-b1ec-e903efa697b5"},"id":"JZ26"},{"arcs":[[-101,-120,120,121,-94]],"type":"Polygon","properties":{"statcode":"JZ27","jrstatcode":"2025JZ27","statnaam":"Midden Holland","rubriek":"jeugdregio","id":27,"FID":"jeugdregio_gegeneraliseerd.d0f706ab-63a3-41f0-a488-26236cbb5d5b"},"id":"JZ27"},{"arcs":[[-117,122,123,124,-105,-91]],"type":"Polygon","properties":{"statcode":"JZ28","jrstatcode":"2025JZ28","statnaam":"Centraal Gelderland","rubriek":"jeugdregio","id":28,"FID":"jeugdregio_gegeneraliseerd.47e47392-372c-4c4e-ad97-0167207a3d7d"},"id":"JZ28"},{"arcs":[[[125]],[[-122,126,127,128,129,130,131,132,133,134,-114,-95]]],"type":"MultiPolygon","properties":{"statcode":"JZ29","jrstatcode":"2025JZ29","statnaam":"Rijnmond","rubriek":"jeugdregio","id":29,"FID":"jeugdregio_gegeneraliseerd.9dfcb603-a5d3-400f-9a4c-fcd7302fd9a6"},"id":"JZ29"},{"arcs":[[-106,-125,135,136,137,138,139,-118,-112]],"type":"Polygon","properties":{"statcode":"JZ30","jrstatcode":"2025JZ30","statnaam":"Rivierenland","rubriek":"jeugdregio","id":30,"FID":"jeugdregio_gegeneraliseerd.029a2874-b643-41ab-8a40-c735d0ebcfe0"},"id":"JZ30"},{"arcs":[[[142]],[[-140,143,144,145,146,147,148,-127,-121,-119]]],"type":"MultiPolygon","properties":{"statcode":"JZ31","jrstatcode":"2025JZ31","statnaam":"Zuid-Holland Zuid","rubriek":"jeugdregio","id":31,"FID":"jeugdregio_gegeneraliseerd.8e3de1c5-3581-4f2b-8971-dbc4806d9eff"},"id":"JZ31"},{"arcs":[[-124,149,150,151,-136]],"type":"Polygon","properties":{"statcode":"JZ32","jrstatcode":"2025JZ32","statnaam":"Rijk van Nijmegen","rubriek":"jeugdregio","id":32,"FID":"jeugdregio_gegeneraliseerd.e8f6502a-23fc-4312-94e9-a8cbf49c35af"},"id":"JZ32"},{"arcs":[[-152,152,153,154,-137]],"type":"Polygon","properties":{"statcode":"JZ33","jrstatcode":"2025JZ33","statnaam":"Noordoost Brabant","rubriek":"jeugdregio","id":33,"FID":"jeugdregio_gegeneraliseerd.c9eea6bc-cf75-45ed-b425-c4878e10d556"},"id":"JZ33"},{"arcs":[[-139,155,156,157,-144]],"type":"Polygon","properties":{"statcode":"JZ34","jrstatcode":"2025JZ34","statnaam":"West Brabant Oost","rubriek":"jeugdregio","id":34,"FID":"jeugdregio_gegeneraliseerd.8e16c7d0-cde5-43e3-a6d3-67d7090cbbb6"},"id":"JZ34"},{"arcs":[[-155,158,159,-156,-138]],"type":"Polygon","properties":{"statcode":"JZ35","jrstatcode":"2025JZ35","statnaam":"Midden-Brabant (Hart van Brabant)","rubriek":"jeugdregio","id":35,"FID":"jeugdregio_gegeneraliseerd.53f462f2-7ac1-4ff6-9632-9c634e221b37"},"id":"JZ35"},{"arcs":[[-158,161,162,163,-130,164,-147,165,-145]],"type":"Polygon","properties":{"statcode":"JZ36","jrstatcode":"2025JZ36","statnaam":"West Brabant West","rubriek":"jeugdregio","id":36,"FID":"jeugdregio_gegeneraliseerd.6efd7556-7231-4ac9-86de-04244041f243"},"id":"JZ36"},{"arcs":[[166,167,168,-153,-151,169]],"type":"Polygon","properties":{"statcode":"JZ37","jrstatcode":"2025JZ37","statnaam":"Noord-Limburg","rubriek":"jeugdregio","id":37,"FID":"jeugdregio_gegeneraliseerd.bd966721-abbf-4d7f-abfd-aff7d78529a2"},"id":"JZ37"},{"arcs":[[[170]],[[171,-132,172,-163,173,-134],[174],[175],[176]]],"type":"MultiPolygon","properties":{"statcode":"JZ38","jrstatcode":"2025JZ38","statnaam":"Zeeland","rubriek":"jeugdregio","id":38,"FID":"jeugdregio_gegeneraliseerd.be2d0825-5a49-4706-9045-1400724b0fc7"},"id":"JZ38"},{"arcs":[[-169,177,178,-159,-154]],"type":"Polygon","properties":{"statcode":"JZ39","jrstatcode":"2025JZ39","statnaam":"Zuidoost-Brabant","rubriek":"jeugdregio","id":39,"FID":"jeugdregio_gegeneraliseerd.fee87c2f-1d1f-440a-a4b6-f03fc43d290c"},"id":"JZ39"},{"arcs":[[179,180]],"type":"Polygon","properties":{"statcode":"JZ41","jrstatcode":"2025JZ41","statnaam":"Zuid-Limburg","rubriek":"jeugdregio","id":40,"FID":"jeugdregio_gegeneraliseerd.2ded97a9-2945-47eb-8b32-ed733e5f1311"},"id":"JZ41"},{"arcs":[[181,-181,182,183,-167]],"type":"Polygon","properties":{"statcode":"JZ42","jrstatcode":"2025JZ42","statnaam":"Midden-Limburg Oost","rubriek":"jeugdregio","id":41,"FID":"jeugdregio_gegeneraliseerd.a5e49266-9760-42ff-aaed-32c8561b689d"},"id":"JZ42"},{"arcs":[[-184,184,-178,-168]],"type":"Polygon","properties":{"statcode":"JZ43","jrstatcode":"2025JZ43","statnaam":"Midden-Limburg West","rubriek":"jeugdregio","id":42,"FID":"jeugdregio_gegeneraliseerd.285d33b1-1fd1-4dc5-a96a-dbf75b310b06"},"id":"JZ43"}]}}}