{"type":"Topology","arcs":[[[3735,2088],[-21,7],[-32,28],[-25,0],[31,43],[-32,10],[-77,66],[-200,127],[-42,2],[-58,-8],[-23,23],[-50,22],[-34,38],[-44,8],[-38,-8],[-40,-18],[-25,-28],[-39,-63],[-29,7]],[[2957,2344],[-53,20],[-57,2],[-29,19],[1,32],[24,32],[29,23],[1,23],[22,43],[26,15],[8,38]],[[2929,2591],[-54,12],[0,14],[-54,29],[12,15]],[[2833,2661],[70,3],[49,-18],[80,24],[148,12],[60,9],[79,20],[68,5],[52,-11],[16,8],[70,-22],[-9,-33],[14,-12],[9,-40],[31,-27],[98,-27],[58,-4],[-5,-33],[12,-8],[83,-18],[31,-2],[13,-39],[-39,-60],[24,-25],[-4,-32],[14,-70],[-31,-69],[-78,-78],[-11,-26]],[[3143,2786],[-32,-15],[-8,24],[16,9],[24,-18]],[[3033,2765],[1,-1]],[[3034,2764],[-1,1]],[[2034,2305],[-13,37],[-36,-18],[-47,-7],[-129,-68]],[[1809,2249],[-1,1]],[[1808,2250],[127,66],[56,12],[28,16],[2,14],[25,14],[15,57],[19,31],[45,31],[44,16],[60,43],[67,20],[65,15],[52,19],[129,35],[34,-1],[85,15],[72,5],[48,-4],[38,11],[14,-4]],[[2833,2661],[-32,-3],[-4,-15],[26,-36],[106,-16]],[[2957,2344],[-10,-13],[63,-14],[-5,-33],[65,-62],[-35,-39],[-60,-27],[-30,19],[-46,3],[-51,-38],[-86,-36]],[[2762,2104],[-89,-39],[-45,7],[-13,20],[-43,-7],[-6,-11],[-45,-23],[-36,4],[-23,12],[-25,-10]],[[2437,2057],[-46,33],[-36,-2]],[[2355,2088],[-56,6],[-13,17],[-26,-10],[-33,-2],[-18,-15],[-23,-1],[-91,22],[-27,-7],[-60,25],[-12,13],[47,20],[0,33],[12,24],[-14,29],[9,29],[-16,34]],[[2182,2686],[-100,-32],[-63,-4],[-20,-12],[-64,-18],[-34,3],[-67,-24],[-38,8],[38,34],[33,8],[177,28],[107,19],[31,-10]],[[2330,2710],[97,1],[161,7],[-2,-12],[-53,-5],[-86,-13],[-75,5],[-61,-23],[-49,16],[-8,12],[19,17],[29,5],[28,-10]],[[3034,2764],[-115,-24],[-32,-13],[-109,-8],[-5,13],[27,19],[133,7],[100,7]],[[1729,2548],[-115,-33],[5,-12],[-44,-16],[-20,-21],[-62,5],[74,30],[58,31],[83,26],[21,-10]],[[1291,2006],[31,54],[29,74],[7,61],[15,18],[32,2],[39,-12],[-10,-20],[24,-24],[51,-19],[40,4],[32,11],[28,25],[36,6],[35,-3],[128,67]],[[1809,2249],[-128,-68],[10,-7],[65,-78],[-10,-71]],[[1746,2025],[-34,-7],[-24,-15],[-102,0],[-45,-46]],[[1541,1957],[-41,16],[-53,-9],[-32,5],[-5,-21],[-39,-7],[-39,42],[-41,23]],[[1461,2279],[-34,-27],[-30,2],[-34,-20],[-12,40],[13,40],[14,20],[105,99],[19,1],[41,-54],[-4,-51],[-50,-45],[-28,-5]],[[1312,2209],[-4,25],[36,-11],[-32,-14]],[[3735,2088],[-21,-28],[-17,-163],[-13,-14],[-66,13],[-37,-8],[-42,13],[-75,-3],[-45,4],[-35,-7],[-32,-17]],[[3352,1878],[-2,21],[-93,25],[-62,-8],[-39,-20],[5,-32],[-27,5],[-50,-3],[-11,12],[-45,-15],[-22,30],[-38,17],[-74,10],[-38,16],[-31,-11],[-20,5],[-43,70],[37,13],[45,31],[-82,60]],[[1662,1862],[-15,-14],[-55,-3],[-23,12]],[[1569,1857],[-5,4],[-38,2],[4,14],[-25,27],[13,32],[23,21]],[[1746,2025],[44,-36],[28,1],[17,15],[65,-2],[25,-11],[4,-51]],[[1929,1941],[0,-1]],[[1929,1940],[-41,-4],[-10,-29],[-38,-21],[-70,-16],[-7,13],[-32,10],[-43,-1],[-27,-12],[1,-18]],[[1569,1857],[-12,2],[-25,-15],[-21,-18],[-27,-32],[-18,-1],[-31,-23],[-30,-1],[-43,-24]],[[1362,1745],[-27,16],[3,16],[-36,5],[-61,-1]],[[1241,1781],[50,225]],[[2472,1827],[14,34]],[[2486,1861],[52,7]],[[2538,1868],[22,-5],[72,12],[21,12],[-5,15],[-24,6]],[[2624,1908],[-48,18],[31,18],[-22,21],[-21,36],[-72,34],[-31,0],[-24,22]],[[3352,1878],[17,-13],[-8,-26],[48,-25],[-40,-1],[-11,-14],[-35,4],[24,-32],[-7,-35]],[[3340,1736],[-29,9],[-28,-24],[-30,-4],[-10,12],[-96,12],[-1,-9],[-51,-13],[-23,-30],[-40,-11],[15,-12],[-17,-36],[-45,-10],[-9,-19],[22,-33],[-29,-16],[2,-21],[46,-25],[7,-10]],[[3024,1496],[-31,-4],[-12,-15],[-41,-1],[-115,8],[-36,-6],[-23,24],[6,9],[-31,39],[-28,22],[11,50],[42,9],[6,18],[-19,9],[9,25],[-18,13],[-3,24],[-28,12],[-17,18],[-26,10],[-27,-10]],[[2643,1750],[-36,-24],[-39,-2],[-16,23],[-31,25],[-13,-3]],[[2508,1769],[-5,8]],[[2503,1777],[0,1]],[[2503,1778],[-4,24],[-27,25]],[[2624,1908],[-18,-19],[-132,-26],[-169,0],[-8,-16],[101,-15],[57,-5],[39,-26],[9,-23]],[[2503,1777],[-11,-31],[-53,-56],[-50,-26],[-26,2],[-60,-18],[-33,-16],[-13,-19]],[[2257,1613],[-1,-1]],[[2256,1612],[-50,6],[-25,-18],[14,-29],[-24,-46],[-117,-22],[-10,0],[-88,50]],[[1956,1553],[-1,0]],[[1955,1553],[-44,19],[-64,13],[-66,-9]],[[1781,1576],[-1,0]],[[1780,1576],[-9,57],[32,17],[97,35],[177,76],[-1,15],[26,26],[41,4],[56,36],[71,13],[24,12],[-36,34],[-23,9],[2,103],[66,66],[52,9]],[[1929,1941],[0,-1]],[[2486,1861],[52,7]],[[1710,1667],[-68,8],[-52,-3],[-17,-10],[-32,12],[-36,6],[-7,-13],[-117,14]],[[1381,1681],[-17,2]],[[1364,1683],[-47,23],[45,39]],[[1662,1862],[11,-45],[12,-6],[23,-38],[20,-19],[-26,-18],[2,-18],[-13,-29],[33,-2],[-14,-20]],[[1364,1683],[-40,-19],[-31,15],[-26,-6],[-64,15]],[[1203,1688],[-6,22],[27,29],[17,42]],[[1254,1564],[-29,4],[-19,-9],[-70,19]],[[1136,1578],[59,91],[8,19]],[[1381,1681],[-10,-30],[28,-4],[0,-19]],[[1399,1628],[-27,8],[-52,-9],[-2,-21],[-64,-31],[0,-11]],[[2121,1508],[46,6],[12,9],[23,43],[51,30],[3,16]],[[2257,1613],[38,2],[26,14],[37,9],[94,47],[13,25],[17,6],[26,53]],[[2643,1750],[32,-22],[2,-16],[-61,-52],[-62,-23],[-47,-36],[16,-16],[-40,-31],[11,-24],[-9,-13],[-94,1],[12,-20],[-35,-5]],[[2368,1493],[-42,-2],[-3,-16],[-48,-17],[-83,-6],[-35,32],[-31,5],[-5,19]],[[1668,1587],[-8,-14]],[[1660,1573],[4,-21],[-93,-32],[-18,-17],[-42,-1],[-38,-21],[-36,-4]],[[1437,1477],[-70,-14],[-1,19],[-54,-1]],[[1312,1481],[32,13],[24,19],[54,20],[37,29],[0,15],[-61,29],[1,22]],[[1710,1667],[-16,-4],[-39,-29],[-1,-10],[-38,-5],[45,-21],[7,-11]],[[3403,1368],[-45,-1],[-54,12],[12,13],[-2,23],[-27,9],[-33,-11],[-21,19],[-36,-5],[-63,0]],[[3134,1427],[-63,46],[-13,19],[-34,4]],[[3340,1736],[77,-26],[79,0],[8,-9],[80,-16],[20,10],[15,21],[17,-1],[17,-36],[25,-26],[19,-2],[17,-28],[0,-21],[-15,-13],[-31,-47],[2,-14],[33,-43],[-43,-10],[-29,2],[-38,-46],[-40,-4],[-31,-21],[-7,-24],[-18,-13],[-94,-1]],[[1312,1481],[-37,-15],[-76,3],[11,50],[21,12],[23,33]],[[1858,1454],[-24,-26],[-68,3]],[[1766,1431],[22,19],[-10,60],[-33,18],[-10,36],[-53,15],[-22,-6]],[[1668,1587],[51,3],[61,-14]],[[1781,1576],[35,-22],[74,8],[40,-14],[25,5]],[[1956,1553],[-17,-10],[9,-15]],[[1948,1528],[-40,4],[-43,-57],[-7,-21]],[[3134,1427],[-11,-36],[11,-18],[-13,-23],[-24,7],[-31,-11],[-55,27],[-11,12],[-30,2],[-50,-16],[-20,-12],[-22,4],[-25,-22],[-33,-1],[-41,-32]],[[2779,1308],[-34,19],[-35,10],[-44,-21],[-34,12],[-44,-1]],[[2588,1327],[0,21],[-63,7],[-18,20],[-5,23],[-50,2],[-18,47],[-42,-3],[-19,15],[11,11],[-16,23]],[[1437,1477],[18,-25],[61,-46],[1,-18],[-42,6],[-41,-23]],[[1434,1371],[-83,-28],[6,-13],[-49,-17],[-29,10],[-72,-15]],[[1207,1308],[-8,2]],[[1199,1310],[-26,20],[-41,17],[-19,20],[-6,31],[-53,16],[-38,23]],[[1016,1437],[71,77],[49,64]],[[1659,1310],[-26,-8],[-8,-25],[-73,-17],[-75,-25]],[[1477,1235],[-17,14],[39,6],[-10,12],[-44,-4],[27,36],[38,13],[-42,12],[-1,32],[-33,15]],[[1766,1431],[-29,-26],[12,-23]],[[1749,1382],[-20,3],[-54,-19],[-31,25],[-28,-12],[4,-17],[27,-25],[-6,-22],[18,-5]],[[1948,1528],[57,-10],[41,-21]],[[2046,1497],[-11,-26],[46,-16],[1,-34],[33,-7],[8,-14],[31,-14],[-26,-43],[-27,-14],[39,-23]],[[2140,1306],[-52,-12],[-8,25],[-106,14],[-34,12],[-42,40],[-13,35],[-31,6],[4,28]],[[2046,1497],[75,11]],[[2588,1327],[-36,-16],[-11,-12],[-49,2],[-37,-28],[-68,-4],[-21,-19],[-49,-10],[-56,2],[7,-36],[-20,-14]],[[2248,1192],[-45,12],[-21,12],[-62,16]],[[2120,1232],[16,12],[35,45],[-31,17]],[[1795,1306],[-8,-4],[-74,9],[-8,-35],[-46,34]],[[1749,1382],[42,-13],[46,-42],[-35,0],[-7,-21]],[[2120,1232],[-36,3],[-59,-17],[-35,-1],[-15,-11],[-77,14]],[[1898,1220],[-2,15],[-23,24],[-29,7],[-1,15],[-48,25]],[[1199,1310],[-52,-29],[-48,-10],[2,-20],[-65,-39],[-70,-21],[-31,-21],[-34,7],[-31,20],[-36,7],[-5,12],[-40,14],[-22,21]],[[767,1251],[134,99],[44,27],[71,60]],[[2810,1150],[-77,38],[-1,29],[70,13],[1,33],[15,25],[-60,10],[21,10]],[[3403,1368],[-10,-34],[-16,-10],[-40,-5],[-7,-30],[26,0],[39,-12],[73,-34],[3,-30],[-30,-5],[-5,-24],[-24,-19],[-48,-20],[-38,22],[-46,-14],[-86,-18],[-80,-32],[-21,11],[-60,9],[18,-21],[-7,-26],[-39,9],[-18,15],[-39,-2],[-10,19],[-81,0],[-31,15],[-16,18]],[[1898,1220],[-37,-7],[-39,3],[-31,-33]],[[1791,1183],[-61,16],[-34,27],[-32,-7],[-24,8],[-30,-19],[-28,4],[-24,-20],[-38,-5]],[[1520,1187],[-18,30],[-25,18]],[[1520,1187],[-46,1],[-31,-17],[-39,-8],[-46,-18],[-48,-6],[-48,0]],[[1262,1139],[-19,17],[42,6],[-59,52],[15,23],[-51,-3],[17,74]],[[2810,1150],[-42,-3],[19,-28],[22,-9],[0,-20],[-60,7],[-44,17]],[[2705,1114],[-46,16],[-23,-5],[-13,-16],[-26,-3],[-30,17],[-45,-5],[-23,26],[-26,-23],[-106,15],[-18,6]],[[2349,1142],[-1,15],[-46,22],[-54,13]],[[771,1072],[-35,6],[-20,14],[-25,-22],[115,-42],[29,-5],[81,-52],[54,-19],[76,-4]],[[1046,948],[-10,-5]],[[1036,943],[-62,-31],[-51,-8],[-43,5],[-49,23],[-32,-1]],[[799,931],[-2,1]],[[797,932],[0,14],[-46,11],[-39,0],[-37,31],[-11,40],[-33,23],[-40,1],[-52,-9],[-26,-12],[-29,-26]],[[484,1005],[-3,2]],[[481,1007],[26,27],[-10,17],[13,17],[49,10],[43,15],[46,7],[30,-27],[32,25],[-40,40],[29,25],[-17,10],[-52,-3],[7,28],[18,34],[34,11],[48,-9],[30,17]],[[1262,1139],[20,-27],[-35,-15],[-34,-1],[-17,-17],[-55,5],[-102,-4],[-43,-12],[-90,-16],[-17,-18]],[[889,1034],[-65,20],[-26,18],[-27,0]],[[2349,1142],[-81,6],[-49,-7],[-9,-15],[17,-38],[13,-11]],[[2240,1077],[-40,0],[-17,-12],[-55,13],[-21,-18],[-26,-1],[-37,11],[-33,-31],[-15,-35],[-58,-18],[-51,-3],[-39,7]],[[1848,990],[-43,2],[-35,-5]],[[1770,987],[10,35],[-42,15],[-32,-5],[-16,15],[-48,23]],[[1642,1070],[26,-2],[18,40],[46,30],[23,-1],[36,46]],[[1642,1070],[-64,7],[-48,-10],[-34,-17],[-57,-1],[-42,-18],[-18,-26],[-62,-32],[-30,-5]],[[1287,968],[-1,0]],[[1286,968],[-7,-2]],[[1279,966],[-1,0]],[[1278,966],[-17,6],[-61,-19],[-29,-2],[-62,13],[-50,4],[-71,25],[-98,22],[-1,19]],[[946,998],[49,-12],[-16,-10],[-36,3],[3,19]],[[1214,949],[-28,-5]],[[1186,944],[28,5]],[[2561,967],[-33,9],[-6,23],[-28,9],[-72,-7],[-35,7],[-13,13],[-78,29],[-12,16],[-44,11]],[[2705,1114],[-8,-13],[-60,-21],[-32,6],[-18,-14],[34,-25],[11,-32],[-37,-21]],[[2595,994],[-19,-5],[-15,-22]],[[2561,967],[36,-9],[17,-63],[48,-24],[19,-38],[-6,-27],[-28,13],[-70,-16],[-97,12]],[[2480,815],[-37,13],[-14,19],[-131,-23],[-34,-22],[-38,10],[-51,-5],[14,-20],[-16,-13],[-31,-4],[-13,21],[-63,-8],[-19,14],[-59,-4],[-73,9]],[[1915,802],[-27,26],[-32,7],[-27,16],[-38,37],[18,30],[56,5],[3,16],[22,5],[-17,29],[-25,17]],[[1770,987],[-74,-26],[-44,1],[-64,10],[-28,-3],[15,-43],[0,-26],[-23,-21],[4,-32],[-50,-19],[2,-41],[45,-28],[67,12],[14,-9],[-4,-30],[29,-8]],[[1659,724],[-12,-31],[-77,-44],[-42,17],[-97,-8],[-20,10],[18,14],[39,-10],[-3,25],[19,33],[-26,14],[-42,10],[-40,-19]],[[1376,735],[8,45],[-38,19],[-22,49],[-18,5],[1,30],[34,4],[-14,28],[12,22],[-30,-1],[-22,32]],[[1744,678],[-23,43],[-62,3]],[[1915,802],[-29,-27],[7,-16],[-22,-11],[-38,-69],[-89,-1]],[[879,883],[16,-2],[120,25],[15,12],[6,25]],[[1046,948],[36,-2],[53,-15],[109,15],[34,20]],[[1279,966],[7,2]],[[1376,735],[-41,-34],[-26,-8],[3,-18],[-40,0],[-55,7],[-40,-10],[-5,27],[18,23],[-10,9],[-96,-13],[-56,-19],[-2,-29],[48,-46],[-47,-21],[-44,4],[-6,20],[-58,-2]],[[919,625],[-13,40],[12,9],[-57,80],[17,38],[-8,21],[-32,25],[2,29],[39,16]],[[1214,949],[-28,-5]],[[2715,492],[-22,9],[-23,-6],[-22,12]],[[2648,507],[2,20],[-53,22],[-47,13],[-56,8],[-12,26]],[[2482,596],[34,6],[57,32],[-59,65],[-19,54],[-15,62]],[[2595,994],[41,-7],[35,-12],[-3,-17],[11,-36],[81,-17],[-27,-50],[30,-13],[36,-26],[20,-28],[35,-26],[12,-38],[-19,-75],[21,-40],[-57,-27],[-15,-26],[-29,-32],[-52,-32]],[[743,892],[19,11],[49,0],[27,-16],[41,-4]],[[919,625],[-34,-1],[-11,20],[-34,12],[-44,-12],[-75,13],[-75,36],[-29,18],[-54,-17],[5,-11],[-25,-39],[-25,2],[-64,-11],[-57,29],[-34,11],[-61,33],[-20,-16],[-71,-2],[-44,22],[-29,30],[-45,20],[-19,15],[5,13],[48,23],[65,24],[32,7],[56,-5],[42,10],[3,24],[31,18],[5,7],[-4,5],[8,2],[-3,9],[-12,2],[-19,11],[-10,29],[38,29],[72,8],[27,-3],[23,17]],[[484,1005],[8,-18],[37,6],[27,-12],[59,1],[34,-30],[8,-16],[29,-2],[48,-18],[22,12],[41,4]],[[799,931],[-48,-8],[-12,-26],[-30,-17],[-57,-13],[-42,-4],[-40,15],[-38,3],[-13,35],[-52,17],[-11,14],[-88,-29],[-3,-12],[4,-7],[-7,-1],[-4,-11],[-28,-16],[-3,-24],[40,-6],[37,8],[73,6],[27,-6],[30,-28],[-24,-32],[59,4],[30,-13],[42,-10],[43,-18],[17,-27],[34,-30],[40,-15],[48,13],[42,-5],[-9,53],[-39,11],[-11,20],[-86,3],[-29,26],[-44,23],[-15,18],[34,4],[54,16],[59,-12],[-36,42]],[[507,790],[-28,15],[-33,-8],[-44,7],[-46,-20],[-21,18],[-38,16],[46,-55],[32,25],[22,9],[37,-7],[29,8],[44,-8]],[[335,615],[32,-17],[64,1],[53,-14],[25,0],[50,25],[41,4],[16,42],[42,-6],[35,-35],[35,-2],[42,-21],[34,3],[17,23],[32,2],[24,-23],[-68,-54],[-109,-51],[-43,2],[-56,-29],[-73,-16],[-26,11],[-35,-2],[-35,7],[5,40],[-39,13],[-62,7],[-36,14],[-17,-2],[-50,16],[-10,-6],[-66,-11],[13,-41],[-81,-4],[-39,15],[-38,35],[-12,23],[27,19],[-16,38],[55,18],[13,-1],[81,18],[28,-2],[43,-18],[104,-21]],[[2482,596],[-168,-32],[-46,-41],[-7,-45],[-53,-8]],[[2208,470],[-8,42],[-42,32],[-33,5],[-18,-15],[-23,-3],[-25,-20],[-71,14],[-9,-13],[-41,-2],[-70,7],[16,37],[-42,18],[-37,-13],[-29,6],[-2,31],[-61,46],[31,36]],[[2441,309],[50,-14],[28,-14]],[[2519,281],[2,-14],[27,-16],[-9,-27],[58,13],[11,-8],[52,4],[0,-49],[64,-13],[-6,-29],[12,-21],[-14,-25],[-32,4],[-23,-5],[6,-32],[-21,-13],[-29,-3],[52,-24],[-13,-19],[-38,-1],[-17,8],[-58,-11],[-15,19],[-79,-14],[-30,27],[-33,-15],[-49,-13],[-12,8],[19,20],[-2,23],[-44,18],[-17,24],[12,27],[45,24],[2,11],[28,11],[32,35],[-38,6],[46,36],[10,24],[-18,12],[21,29],[20,-3]],[[2441,309],[-4,30],[39,10],[-24,18],[46,27],[-30,22]],[[2468,416],[48,24],[20,25],[57,-15],[51,33],[4,24]],[[2715,492],[-5,-22],[5,-38],[28,-12],[38,2],[36,-15],[-16,-9],[-67,-14],[-56,-38],[-38,-13],[-27,-25],[-3,-14],[-30,-10],[-25,32],[-26,-15],[-10,-20]],[[2468,416],[-47,-8],[-12,25],[-58,-4],[-51,5],[-12,15],[-80,21]]],"transform":{"scale":[0.001,0.0009996433666191172],"translate":[3.358,50.751]},"objects":{"jeugdregio_2016":{"type":"GeometryCollection","geometries":[{"arcs":[[[0,1,2,3]],[[4]]],"type":"MultiPolygon","properties":{"id":1,"statcode":"JZ01","jrstatcode":"2016JZ01","statnaam":"Groningen","rubriek":"jeugdregio","FID":"jeugdregio_gegeneraliseerd_2016.85afec1c-c802-4e6b-a1cf-e06fa8a2fac4"},"id":"JZ01"},{"arcs":[[[7,8,9,10,-2,11,12,13,14]],[[15]],[[16]],[[-7,17]],[[18]]],"type":"MultiPolygon","properties":{"id":2,"statcode":"JZ02","jrstatcode":"2016JZ02","statnaam":"Friesland (Fryslân)","rubriek":"jeugdregio","FID":"jeugdregio_gegeneraliseerd_2016.f982937e-e6b5-4c45-9706-0d95b3eefcbc"},"id":"JZ02"},{"arcs":[[[19,-9,20,21,22]],[[23]],[[24]]],"type":"MultiPolygon","properties":{"id":3,"statcode":"JZ03","jrstatcode":"2016JZ03","statnaam":"Kop van Noord-Holland","rubriek":"jeugdregio","FID":"jeugdregio_gegeneraliseerd_2016.9adbd556-2f4e-4131-ba65-dd15a17f1a96"},"id":"JZ03"},{"arcs":[[-12,-1,25,26]],"type":"Polygon","properties":{"id":4,"statcode":"JZ04","jrstatcode":"2016JZ04","statnaam":"Drenthe","rubriek":"jeugdregio","FID":"jeugdregio_gegeneraliseerd_2016.8b1ba941-9d59-4f88-bce1-b5f188abc0f4"},"id":"JZ04"},{"arcs":[[27,28,-22,29,30,31]],"type":"Polygon","properties":{"id":5,"statcode":"JZ05","jrstatcode":"2016JZ05","statnaam":"West Friesland","rubriek":"jeugdregio","FID":"jeugdregio_gegeneraliseerd_2016.acc26571-ab61-4b7b-840f-280a18633d22"},"id":"JZ05"},{"arcs":[[-23,-29,32,33,34]],"type":"Polygon","properties":{"id":6,"statcode":"JZ06","jrstatcode":"2016JZ06","statnaam":"Alkmaar (Noord-Kennemerland)","rubriek":"jeugdregio","FID":"jeugdregio_gegeneraliseerd_2016.a9e86518-e88f-4b61-b223-d8eee6e68e54"},"id":"JZ06"},{"arcs":[[35,36,37,38,-13,-27,39,40,41,42,43,44,45]],"type":"Polygon","properties":{"id":7,"statcode":"JZ07","jrstatcode":"2016JZ07","statnaam":"IJsselland","rubriek":"jeugdregio","FID":"jeugdregio_gegeneraliseerd_2016.e428714c-0e6e-4d15-bfc0-652d4edad0b9"},"id":"JZ07"},{"arcs":[[-14,-39,46,-45,47,48,49,50,51,52,53]],"type":"Polygon","properties":{"id":8,"statcode":"JZ08","jrstatcode":"2016JZ08","statnaam":"Flevoland","rubriek":"jeugdregio","FID":"jeugdregio_gegeneraliseerd_2016.9b6618ba-12ff-4221-9dee-13af25c98380"},"id":"JZ08"},{"arcs":[[56,57,58,-33,-28,59]],"type":"Polygon","properties":{"id":9,"statcode":"JZ09","jrstatcode":"2016JZ09","statnaam":"Zaanstreek-Waterland","rubriek":"jeugdregio","FID":"jeugdregio_gegeneraliseerd_2016.a922f0e6-2642-4d9d-8d2b-9b31a7a7762e"},"id":"JZ09"},{"arcs":[[-59,60,61,-34]],"type":"Polygon","properties":{"id":10,"statcode":"JZ10","jrstatcode":"2016JZ10","statnaam":"IJmond (Midden Kennemerland)","rubriek":"jeugdregio","FID":"jeugdregio_gegeneraliseerd_2016.15f73419-739d-4a8c-9605-604d5cadabd1"},"id":"JZ10"},{"arcs":[[62,63,-61,-58,64,65]],"type":"Polygon","properties":{"id":11,"statcode":"JZ11","jrstatcode":"2016JZ11","statnaam":"Zuid Kennemerland","rubriek":"jeugdregio","FID":"jeugdregio_gegeneraliseerd_2016.16f4c72f-c6d8-4d89-8513-f93df992719d"},"id":"JZ11"},{"arcs":[[66,-49,67,-43,68,69]],"type":"Polygon","properties":{"id":12,"statcode":"JZ12","jrstatcode":"2016JZ12","statnaam":"Noord-Veluwe","rubriek":"jeugdregio","FID":"jeugdregio_gegeneraliseerd_2016.f9090790-6379-4b2c-a4d8-bde429e9efd8"},"id":"JZ12"},{"arcs":[[70,71,72,73,-65,-57,74]],"type":"Polygon","properties":{"id":13,"statcode":"JZ13","jrstatcode":"2016JZ13","statnaam":"Amsterdam-Amstelland","rubriek":"jeugdregio","FID":"jeugdregio_gegeneraliseerd_2016.30c7cc97-a834-442c-99c8-baeb5c26755b"},"id":"JZ13"},{"arcs":[[75,76,-41,77]],"type":"Polygon","properties":{"id":14,"statcode":"JZ14","jrstatcode":"2016JZ14","statnaam":"Twente","rubriek":"jeugdregio","FID":"jeugdregio_gegeneraliseerd_2016.1595aea7-900e-4c57-8b6b-66e9f3597a8a"},"id":"JZ14"},{"arcs":[[78,-66,-74]],"type":"Polygon","properties":{"id":15,"statcode":"JZ15","jrstatcode":"2016JZ15","statnaam":"Haarlemmermeer","rubriek":"jeugdregio","FID":"jeugdregio_gegeneraliseerd_2016.9969dc65-ef8a-4ee9-b177-293acaaa6bc7"},"id":"JZ15"},{"arcs":[[79,80,-71,81,-53,82,-51,83,84]],"type":"Polygon","properties":{"id":16,"statcode":"JZ16","jrstatcode":"2016JZ16","statnaam":"Gooi en Vechtstreek","rubriek":"jeugdregio","FID":"jeugdregio_gegeneraliseerd_2016.b96f1ddd-a735-4bd8-97c3-9791656ac0f7"},"id":"JZ16"},{"arcs":[[-69,-42,-77,85,86,87]],"type":"Polygon","properties":{"id":17,"statcode":"JZ17","jrstatcode":"2016JZ17","statnaam":"Midden IJssel / Oost Veluwe","rubriek":"jeugdregio","FID":"jeugdregio_gegeneraliseerd_2016.990bae8d-6d88-48ab-b46a-cb347bb5f6d0"},"id":"JZ17"},{"arcs":[[-79,-73,88,89,90,91,92,-63]],"type":"Polygon","properties":{"id":18,"statcode":"JZ18","jrstatcode":"2016JZ18","statnaam":"Holland Rijnland","rubriek":"jeugdregio","FID":"jeugdregio_gegeneraliseerd_2016.92442445-ac16-478b-82f4-6d2dca7e04e3"},"id":"JZ18"},{"arcs":[[93,94,-89,-72,-81,95,96]],"type":"Polygon","properties":{"id":19,"statcode":"JZ19","jrstatcode":"2016JZ19","statnaam":"Utrecht West","rubriek":"jeugdregio","FID":"jeugdregio_gegeneraliseerd_2016.6eccec55-46f7-41ee-9275-d2ae5dc1c199"},"id":"JZ19"},{"arcs":[[97,98,99,-85]],"type":"Polygon","properties":{"id":20,"statcode":"JZ20","jrstatcode":"2016JZ20","statnaam":"Eemland","rubriek":"jeugdregio","FID":"jeugdregio_gegeneraliseerd_2016.76ef89c7-f121-439c-a358-5fa10ba6cf39"},"id":"JZ20"},{"arcs":[[-99,100,-70,-88,101,102,103]],"type":"Polygon","properties":{"id":21,"statcode":"JZ21","jrstatcode":"2016JZ21","statnaam":"Food Valley","rubriek":"jeugdregio","FID":"jeugdregio_gegeneraliseerd_2016.6c1edfe8-5c9e-415d-9b60-f217b0f44293"},"id":"JZ21"},{"arcs":[[104,-97,105]],"type":"Polygon","properties":{"id":22,"statcode":"JZ22","jrstatcode":"2016JZ22","statnaam":"Utrecht Stad","rubriek":"jeugdregio","FID":"jeugdregio_gegeneraliseerd_2016.9ab7c634-7efa-4855-8273-647a1cdefd3c"},"id":"JZ22"},{"arcs":[[106,107,-106,-96,-80,-100,-104]],"type":"Polygon","properties":{"id":23,"statcode":"JZ23","jrstatcode":"2016JZ23","statnaam":"Zuidoost Utrecht","rubriek":"jeugdregio","FID":"jeugdregio_gegeneraliseerd_2016.67fa898f-1bfa-471c-a8ec-daa3038de39b"},"id":"JZ23"},{"arcs":[[-92,108,109]],"type":"Polygon","properties":{"id":24,"statcode":"JZ24","jrstatcode":"2016JZ24","statnaam":"Haaglanden","rubriek":"jeugdregio","FID":"jeugdregio_gegeneraliseerd_2016.bc977d59-d804-4d35-a15b-e61a889d550d"},"id":"JZ24"},{"arcs":[[110,-86,-76,111]],"type":"Polygon","properties":{"id":25,"statcode":"JZ25","jrstatcode":"2016JZ25","statnaam":"Achterhoek","rubriek":"jeugdregio","FID":"jeugdregio_gegeneraliseerd_2016.08b0c390-7893-450e-8df5-4015218ef557"},"id":"JZ25"},{"arcs":[[-105,-108,112,113,114,-94]],"type":"Polygon","properties":{"id":26,"statcode":"JZ26","jrstatcode":"2016JZ26","statnaam":"Lekstroom","rubriek":"jeugdregio","FID":"jeugdregio_gegeneraliseerd_2016.a004e085-ddd9-4b0e-b57e-d60faf45c2a6"},"id":"JZ26"},{"arcs":[[-115,115,116,-90,-95]],"type":"Polygon","properties":{"id":27,"statcode":"JZ27","jrstatcode":"2016JZ27","statnaam":"Midden Holland","rubriek":"jeugdregio","FID":"jeugdregio_gegeneraliseerd_2016.44813689-ada5-4490-947d-19b5849aedf8"},"id":"JZ27"},{"arcs":[[-87,-111,117,118,119,-102]],"type":"Polygon","properties":{"id":28,"statcode":"JZ28","jrstatcode":"2016JZ28","statnaam":"Arnhem","rubriek":"jeugdregio","FID":"jeugdregio_gegeneraliseerd_2016.efdef01a-c959-4da9-97c1-9cc652910946"},"id":"JZ28"},{"arcs":[[120,121,122,123,124,125,126,-109,-91,-117,127,128]],"type":"Polygon","properties":{"id":29,"statcode":"JZ29","jrstatcode":"2016JZ29","statnaam":"Rijnmond","rubriek":"jeugdregio","FID":"jeugdregio_gegeneraliseerd_2016.32591634-6b63-422e-a159-59386048f67c"},"id":"JZ29"},{"arcs":[[-113,-107,-103,-120,129,130,131,132,133]],"type":"Polygon","properties":{"id":30,"statcode":"JZ30","jrstatcode":"2016JZ30","statnaam":"Rivierenland","rubriek":"jeugdregio","FID":"jeugdregio_gegeneraliseerd_2016.c0d7e0fb-ddec-4803-8dcc-19137fed3537"},"id":"JZ30"},{"arcs":[[[-116,-114,-134,134,135,136,137,138,-128]],[[139]]],"type":"MultiPolygon","properties":{"id":31,"statcode":"JZ31","jrstatcode":"2016JZ31","statnaam":"Zuid-Holland Zuid","rubriek":"jeugdregio","FID":"jeugdregio_gegeneraliseerd_2016.c113e91b-c08c-4185-a408-096c05c9b164"},"id":"JZ31"},{"arcs":[[142,-130,-119,143,144]],"type":"Polygon","properties":{"id":32,"statcode":"JZ32","jrstatcode":"2016JZ32","statnaam":"Nijmegen","rubriek":"jeugdregio","FID":"jeugdregio_gegeneraliseerd_2016.4e85773e-bec5-4bd0-90b1-ee96a6c506ae"},"id":"JZ32"},{"arcs":[[-143,145,146,147,-131]],"type":"Polygon","properties":{"id":33,"statcode":"JZ33","jrstatcode":"2016JZ33","statnaam":"Noordoost Brabant","rubriek":"jeugdregio","FID":"jeugdregio_gegeneraliseerd_2016.273b4997-eb3c-4806-9673-a432e5a3aae2"},"id":"JZ33"},{"arcs":[[-133,148,149,150,-135]],"type":"Polygon","properties":{"id":34,"statcode":"JZ34","jrstatcode":"2016JZ34","statnaam":"West Brabant Oost","rubriek":"jeugdregio","FID":"jeugdregio_gegeneraliseerd_2016.512889b5-a04c-4bf7-8950-e936171e8ca0"},"id":"JZ34"},{"arcs":[[151,-149,-132,-148,152]],"type":"Polygon","properties":{"id":35,"statcode":"JZ35","jrstatcode":"2016JZ35","statnaam":"Midden-Brabant","rubriek":"jeugdregio","FID":"jeugdregio_gegeneraliseerd_2016.ac04f218-1509-4255-9537-3943f04d86aa"},"id":"JZ35"},{"arcs":[[153,-122,154,-138,155,-136,-151,156,157]],"type":"Polygon","properties":{"id":36,"statcode":"JZ36","jrstatcode":"2016JZ36","statnaam":"West Brabant West","rubriek":"jeugdregio","FID":"jeugdregio_gegeneraliseerd_2016.596a9fa6-1646-439c-9119-9279cd89bf07"},"id":"JZ36"},{"arcs":[[159,160,161,-146,-145,162]],"type":"Polygon","properties":{"id":37,"statcode":"JZ37","jrstatcode":"2016JZ37","statnaam":"Noord-Limburg","rubriek":"jeugdregio","FID":"jeugdregio_gegeneraliseerd_2016.bfdc8641-a752-4406-9095-3a9b281fc50a"},"id":"JZ37"},{"arcs":[[[163,-158,164,-126,165,-124,166],[167]],[[168]]],"type":"MultiPolygon","properties":{"id":38,"statcode":"JZ38","jrstatcode":"2016JZ38","statnaam":"Zeeland","rubriek":"jeugdregio","FID":"jeugdregio_gegeneraliseerd_2016.bb3156dc-df34-4b73-8b56-67bf4495652f"},"id":"JZ38"},{"arcs":[[-153,-147,-162,169,170]],"type":"Polygon","properties":{"id":39,"statcode":"JZ39","jrstatcode":"2016JZ39","statnaam":"Zuidoost-Brabant","rubriek":"jeugdregio","FID":"jeugdregio_gegeneraliseerd_2016.f97c4bd5-9d3a-4f91-8185-50a6dd132932"},"id":"JZ39"},{"arcs":[[171,172]],"type":"Polygon","properties":{"id":40,"statcode":"JZ41","jrstatcode":"2016JZ41","statnaam":"Zuid-Limburg","rubriek":"jeugdregio","FID":"jeugdregio_gegeneraliseerd_2016.2952d167-656c-47d5-930d-8e14a6fbb1ff"},"id":"JZ41"},{"arcs":[[-172,173,174,-160,175]],"type":"Polygon","properties":{"id":41,"statcode":"JZ42","jrstatcode":"2016JZ42","statnaam":"Midden-Limburg Oost","rubriek":"jeugdregio","FID":"jeugdregio_gegeneraliseerd_2016.8acddac5-736c-4454-abd3-01e0ab2dc6f3"},"id":"JZ42"},{"arcs":[[-175,176,-170,-161]],"type":"Polygon","properties":{"id":42,"statcode":"JZ43","jrstatcode":"2016JZ43","statnaam":"Midden-Limburg West","rubriek":"jeugdregio","FID":"jeugdregio_gegeneraliseerd_2016.b2aed6ed-3ebc-4ef9-81a4-5dd4ced950ca"},"id":"JZ43"}]}}}