{"type":"Topology","arcs":[[[2934,2587],[-5,4],[-27,7],[-40,16],[-23,25],[-6,21]],[[2833,2660],[65,4],[50,-22],[27,13],[49,11],[164,15]],[[3188,2681],[2,-6]],[[3190,2675],[-32,0],[-9,-26],[-37,-17],[15,-39],[-38,-19],[-93,-11],[-37,5],[-25,19]],[[2929,2590],[5,-3]],[[3190,2675],[-4,-20],[-21,-21],[34,-15],[19,-23],[29,-10],[15,-23],[70,-16],[19,12],[36,-3],[28,-24]],[[3415,2532],[-129,-48],[23,-33]],[[3309,2451],[-10,-21],[33,-31],[5,-29]],[[3337,2370],[-60,-15],[-21,30],[-49,22],[-17,23],[-33,17]],[[3157,2447],[-52,2]],[[3105,2449],[-34,24],[-85,28],[-66,-7],[-46,11]],[[2874,2505],[0,1]],[[2874,2506],[22,32],[25,14],[8,38]],[[3516,2657],[14,-12],[9,-40],[33,-29],[97,-25],[57,-4],[-5,-33],[23,-12],[104,-16],[11,-41],[-38,-58],[24,-25],[1,-57]],[[3846,2305],[-74,-17],[-27,22],[-69,4],[-19,7],[28,30],[-15,14],[-40,0],[-102,13],[-83,-5],[14,26],[4,32],[-56,-3],[-20,-11],[-27,5],[-35,28],[-16,1]],[[3415,2532],[41,15],[-10,18],[35,15],[-14,27],[-24,8],[-24,32],[67,24],[30,-14]],[[3846,2305],[9,-45],[-31,-69],[-78,-78],[-11,-26]],[[3735,2087],[-21,7],[-32,28],[-25,0],[31,43],[-31,9],[-79,68],[-159,102]],[[3419,2344],[-39,24],[-43,2]],[[3105,2449],[-55,-22],[-27,-30],[-37,-61],[-29,7]],[[2957,2343],[-53,20],[-57,2],[-29,19],[1,32],[23,31],[30,20],[-12,24],[14,14]],[[3188,2681],[109,25],[90,9],[52,-11],[17,8],[48,-12],[22,-15],[-10,-28]],[[2833,2660],[-30,-4],[1,-42],[74,-24],[17,7],[34,-7]],[[2874,2506],[-38,13],[-17,-9],[-36,3],[-97,-20],[10,47],[19,1],[3,32],[-54,0],[-1,-15],[-45,-2],[-12,16],[-67,-21],[10,-14],[-24,-11],[-22,11],[-28,-20],[-1,-25]],[[2474,2492],[-17,-17],[-40,0],[-10,14],[-35,-5],[15,-37],[-7,-25],[-45,7],[-40,-14],[-63,12],[-11,-15],[26,-19],[-39,-14],[-38,16],[-25,-8],[-68,15],[-23,-1]],[[2054,2401],[10,33],[26,35],[35,20],[44,17],[60,44],[95,23],[186,57],[12,7],[49,-1],[95,17],[70,4],[45,-5],[38,12],[14,-4]],[[2701,2722],[1,-2]],[[2702,2720],[-1,2]],[[2474,2492],[49,-18],[17,-16],[-40,-5],[4,-33],[64,-2],[-17,-24],[35,-23],[-10,-13],[-52,-2],[14,-28],[37,-1],[14,-15],[-4,-22],[-55,-26],[-1,-40],[47,-60],[-48,-21],[-29,-23],[-37,-54]],[[2462,2066],[-25,-10]],[[2437,2056],[-46,33],[-36,-2]],[[2355,2087],[-56,7],[-12,15],[-60,-11],[-40,-16],[-92,22],[-38,-5],[-61,36],[52,24],[-5,29],[11,25],[-15,39],[12,19],[-10,33],[-20,37],[-36,-18],[-47,-7],[-129,-68]],[[1809,2248],[-1,1]],[[1808,2249],[127,67],[56,11],[28,16],[27,28],[8,30]],[[2957,2343],[-10,-13],[63,-14],[-5,-33],[50,-48]],[[3055,2235],[15,-14],[-34,-39],[-25,-11]],[[3011,2171],[-36,-16],[-30,19],[-46,3],[-50,-37],[-87,-37]],[[2762,2103],[-89,-39],[-45,7],[-14,20],[-41,-7],[-7,-11],[-45,-23],[-40,5],[-19,11]],[[1885,2615],[-22,-2],[-31,-18],[-39,10],[43,38],[171,27],[148,27],[-4,-20],[-54,-24],[-58,0],[-73,-27],[-67,-4],[-14,-7]],[[2373,2708],[153,8],[22,-10],[-101,-19],[-75,5],[-27,-13],[-53,-6],[-38,24],[44,23],[32,-11],[43,-1]],[[2967,2752],[-70,-25],[-97,-7],[-22,18],[45,14],[108,4],[36,-4]],[[1704,2542],[-90,-28],[-62,-50],[-36,-1],[-20,9],[71,28],[35,20],[66,27],[36,-5]],[[2701,2722],[1,-2]],[[3157,2447],[21,-30],[3,-35],[-59,-12],[33,-49],[-17,-41],[10,-21],[-93,-24]],[[3357,2117],[13,-14],[-53,-57],[-14,4],[-74,-65],[-29,9],[8,21],[-53,-4],[-22,9],[1,22],[-37,8]],[[3097,2050],[25,36],[-19,16],[-30,-3],[-11,32],[-60,13],[9,27]],[[3419,2344],[-78,-30],[-27,0],[-30,-19],[7,-20],[-33,-18],[-20,-35],[-31,-28],[21,-26],[81,-10],[19,-34],[29,-7]],[[3097,2050],[-8,-24],[-37,-12],[13,-22],[-16,-36],[44,0],[35,-13],[14,-20],[31,-2],[-2,-17]],[[3171,1904],[-15,-8],[5,-33],[-55,10],[-10,-9],[-48,6],[-23,-9],[-19,31],[-36,16]],[[2970,1908],[-39,4],[-45,16],[-42,6],[-38,-5],[-43,70],[36,13],[45,31],[-82,60]],[[3357,2117],[21,11],[30,-29],[84,-45],[-18,-25],[8,-19],[-14,-30],[24,-34],[12,-47]],[[3504,1899],[-85,2],[-35,-7],[-32,-17]],[[3352,1877],[-1,21],[-94,25],[-62,-8],[-24,-11]],[[3735,2087],[-21,-28],[-17,-163],[-13,-14],[-66,13],[-38,-8],[-41,13],[-35,-1]],[[2970,1908],[-25,-62],[17,2],[41,-75],[-29,-12],[12,-30],[-1,-25],[28,-7],[10,-20]],[[3023,1679],[-47,-6],[-42,12],[-14,21],[-41,9],[-93,2],[-4,-26],[-30,-1]],[[2752,1690],[-10,29],[-72,40],[-21,-6],[-42,-28],[-40,-2],[-42,45],[-17,0]],[[2508,1768],[-3,5]],[[2505,1773],[-8,20]],[[2497,1793],[0,1]],[[2497,1794],[-21,31],[10,35]],[[2486,1860],[52,7]],[[2538,1867],[22,-5],[72,12],[31,16],[-39,17]],[[2624,1907],[-48,17],[31,19],[-22,21],[-21,36],[-72,34],[-31,0],[-24,22]],[[3352,1877],[17,-13],[-8,-26],[48,-25],[-41,-2],[-10,-14],[-35,5],[24,-32],[-7,-35]],[[3340,1735],[-29,9],[-27,-24],[-41,8],[-95,12],[-2,-9],[-53,-14],[-13,-24],[-47,-16]],[[3033,1677],[-10,2]],[[3340,1735],[77,-26],[79,0],[8,-9],[80,-16],[52,30],[17,-36],[25,-26],[19,-2],[17,-28],[-15,-35],[-31,-46],[2,-14],[33,-43],[-42,-10],[-30,2],[-38,-46],[-40,-4],[-29,-21],[-9,-26],[-18,-10],[-94,-1]],[[3403,1368],[-45,-1],[-54,12],[10,35],[-27,9],[-33,-11],[-21,19],[-36,-5],[-76,6],[-50,40],[-12,19]],[[3059,1491],[68,33],[67,19],[-34,31],[-96,1],[-66,-8],[-22,33],[9,19],[45,10],[17,36],[-14,12]],[[3059,1491],[-66,0],[-12,-15],[-41,-1],[-132,5]],[[2808,1480],[-42,21],[6,9],[-28,40],[-18,1],[-10,29]],[[2716,1580],[10,41],[31,5],[12,23],[-16,8],[-1,33]],[[2624,1907],[-18,-19],[-131,-26],[-170,0],[-47,38],[-23,10],[2,102],[65,65],[53,10]],[[2486,1860],[52,7]],[[2497,1793],[-7,-50],[-51,-54],[-51,-26],[-24,3],[-61,-19],[-36,-18],[-15,-16],[-46,4],[-27,-21],[15,-26],[-25,-47],[-115,-21],[-27,11],[-68,40],[-48,18],[-74,14],[-46,-7],[-14,9],[-6,45],[33,17],[96,35],[177,76],[0,19],[22,24],[44,2],[56,36],[83,16],[16,-11],[100,-15],[55,-4],[44,-33]],[[2399,1656],[53,28],[30,31],[26,53]],[[2716,1580],[-21,-5],[-18,-31],[8,-16],[-14,-30],[18,-29],[17,-63],[15,-18],[-27,-14],[-43,-51]],[[2651,1323],[-63,4]],[[2588,1327],[5,22],[-67,6],[-19,20],[-5,23],[-50,2],[-17,46],[-42,-3],[-25,49],[35,5],[-11,20],[93,-1],[9,13],[-11,24],[40,31],[-16,25],[-53,43],[-41,-8],[-14,12]],[[2802,1249],[-67,-7],[-16,17],[-70,-19],[-17,-17]],[[2632,1223],[-29,15],[35,37],[-18,28],[26,3],[5,17]],[[2808,1480],[19,-26],[-29,-11],[35,-16],[-18,-33],[13,-27],[28,-8],[1,-15],[-36,-4],[-9,-13],[-58,-32],[64,-7],[-16,-39]],[[2598,1197],[11,24],[23,2]],[[2802,1249],[1,-19],[-71,-13],[2,-29],[76,-38]],[[2810,1150],[-42,-3],[19,-28],[22,-8],[0,-21],[-77,11],[-35,1],[-60,-22],[-32,6],[-18,-14],[34,-25],[11,-32],[-37,-18]],[[2595,997],[-38,5],[-21,25],[-26,-2],[-3,-19]],[[2507,1006],[-96,-5],[-24,7],[-60,32],[-22,4],[-26,24],[-49,11],[-48,-14],[-50,14],[-25,-19],[-26,-1],[-24,11]],[[2057,1070],[-14,17]],[[2043,1087],[44,46],[63,6],[61,12],[127,-7],[122,-25]],[[2460,1119],[-1,-20],[-30,-9],[-16,-18],[39,-32],[27,15],[48,3],[18,18],[-18,21],[2,17],[38,9],[33,-19],[23,4],[41,37],[-34,17],[-32,35]],[[2460,1119],[12,24],[45,3],[16,10],[11,26],[30,26],[24,-11]],[[2043,1087],[-41,-33],[-19,1],[-45,18],[-96,-13],[-29,6],[-44,-2],[-30,10],[-70,-6]],[[1669,1068],[4,22],[22,30],[60,17],[36,45]],[[1791,1182],[31,35]],[[1822,1217],[33,-7],[32,17],[25,-12],[48,-11],[30,13],[35,1],[47,14],[48,0]],[[2120,1232],[63,-16],[17,-12],[48,-12],[21,14],[-1,17],[-20,20]],[[2248,1243],[31,-2],[96,9],[12,19],[68,4],[37,28],[49,-2],[47,28]],[[1643,1070],[26,-2]],[[2057,1070],[-46,-31],[-15,-34]],[[1996,1005],[-59,-19],[-50,-3],[-24,10],[-93,-6],[9,35],[-36,14],[-33,-7],[-20,18],[-47,23]],[[2260,1610],[35,4],[104,42]],[[2248,1243],[-20,18],[1,19],[-29,18],[5,29],[-24,20],[-16,-20],[-39,-8],[14,60],[-16,21]],[[2124,1400],[-9,13],[-33,7],[-1,31],[-46,19],[11,26]],[[2046,1496],[60,12],[64,5],[32,53],[51,29],[7,15]],[[3403,1368],[-10,-34],[-16,-10],[-40,-5],[-7,-30],[26,0],[39,-12],[74,-34],[2,-30],[-30,-5],[-5,-24],[-24,-19],[-48,-20],[-29,19],[-141,-29],[-79,-32],[-22,11],[-61,9],[19,-22],[-7,-25],[-39,9],[-18,15],[-39,-2],[-6,15],[-85,4],[-31,15],[-16,18]],[[1822,1217],[-32,7],[-28,25],[7,55]],[[1769,1304],[31,3],[2,20],[33,8]],[[1835,1335],[38,31],[-6,49]],[[1867,1415],[18,4],[21,-45],[47,-16]],[[1953,1358],[-12,-12],[33,-13],[106,-14],[11,-27],[36,13],[31,-2],[13,-14],[-35,-45],[-16,-12]],[[1520,1187],[-18,30],[-57,46],[27,36],[37,13],[-41,12],[-1,32],[-33,15]],[[1434,1371],[40,22],[43,-5],[-1,17],[-61,46],[-18,25]],[[1437,1476],[48,8],[27,18]],[[1512,1502],[41,0],[18,17],[26,8]],[[1597,1527],[67,24]],[[1664,1551],[21,-19],[-15,-16],[18,-23],[-12,-34],[12,-44]],[[1688,1415],[-76,-44],[35,-34],[13,-26],[33,-32],[20,32],[56,-7]],[[1791,1182],[-61,17],[-34,27],[-33,-7],[-28,6],[-22,-16],[-27,4],[-32,-22],[-34,-4]],[[1858,1453],[-4,-28],[13,-10]],[[1835,1335],[-32,9],[-13,25],[-41,13],[-12,22],[20,25]],[[1757,1429],[77,-2],[24,26]],[[1688,1415],[69,14]],[[1858,1453],[7,21],[43,57],[40,-5]],[[1948,1526],[61,-10],[37,-20]],[[2124,1400],[-39,10],[-19,-3],[-26,-24],[-42,3],[-45,-28]],[[1746,2023],[-34,-6],[-36,-16],[-88,2],[-36,50]],[[1552,2053],[-18,44],[18,24],[-35,16]],[[1517,2137],[64,17],[29,25],[61,11],[20,-17],[65,-78],[-10,-72]],[[1809,2248],[-1,1]],[[1200,1468],[10,50],[20,11],[24,34]],[[1254,1563],[18,23],[43,14],[5,26]],[[1320,1626],[54,9],[23,-6],[1,-23],[63,-32]],[[1461,1574],[-2,-14],[-34,-26],[-57,-22],[-56,-32]],[[1312,1480],[-37,-15],[-75,3]],[[1551,1568],[-30,-40],[-9,-26]],[[1437,1476],[-72,-10],[1,15],[-54,-1]],[[1461,1574],[90,-6]],[[1552,2053],[-5,-6],[-71,10],[-44,0],[-39,-20],[-47,-55],[17,-36],[21,-16]],[[1384,1930],[10,-10],[-39,-25],[-23,-22],[-17,-33],[-63,-18]],[[1252,1822],[24,111],[6,44],[13,37],[23,36],[33,83],[5,48],[17,31],[32,2],[39,-12],[-11,-17],[25,-27],[59,-21]],[[1389,2344],[94,88],[18,0],[20,-26],[29,-21],[-11,-58],[-50,-44],[-28,-5],[-34,-27],[-62,-18],[-15,39],[14,41],[25,31]],[[1662,1861],[-15,-14],[-55,-3],[-2,18],[-64,0],[-3,21],[-42,12],[-9,-13],[-38,6]],[[1434,1888],[-18,9],[5,28],[-37,5]],[[1746,2023],[42,-33],[30,-1],[17,15],[65,-2],[25,-11],[5,-27],[16,-10],[-34,-17],[-24,-2],[-10,-29],[-38,-20],[-70,-17],[-47,22],[-62,-12],[1,-18]],[[1320,1626],[-1,33],[31,28],[-33,17],[40,38],[-23,18],[2,34],[25,7],[59,-18],[4,23],[-37,10],[21,41],[26,31]],[[1662,1861],[11,-44],[55,-64],[-47,-39],[10,-26],[33,-2],[-57,-48],[-67,-21],[57,-20]],[[1657,1597],[-16,-6],[-34,11],[-15,-14],[-37,-8],[-4,-12]],[[1597,1527],[-25,29],[48,24],[44,-29]],[[1657,1597],[22,-14],[40,6],[61,-14],[36,-22],[70,8],[44,-14],[18,-21]],[[1254,1563],[-48,-5],[-70,19]],[[1136,1577],[58,90],[10,26],[-7,16],[36,47],[19,66]],[[639,1166],[67,15],[44,4],[54,-9],[53,-28],[24,-26],[28,-8],[69,-1],[18,-15],[60,-6],[36,-11],[49,3],[50,-3],[18,-19],[54,-12],[51,20]],[[1314,1070],[79,1],[37,-7],[53,4],[44,-2]],[[1527,1066],[-49,-19],[-54,-2],[-27,-14],[-18,-26],[-61,-31]],[[1318,974],[-31,-6]],[[1287,968],[-1,0]],[[1286,968],[-25,4],[-88,-22],[-62,14],[-52,4],[-68,24],[-100,23],[-8,19],[-85,38],[-28,-3],[-54,23],[-42,41],[26,31],[-18,9],[-43,-7]],[[946,997],[49,-11],[-17,-11],[-34,4],[2,18]],[[1192,1156],[69,-17]],[[1261,1139],[52,-49],[1,-20]],[[639,1166],[19,35],[-2,29],[33,13],[50,-10],[31,17]],[[770,1250],[19,-20],[81,-33],[30,-19],[35,-8],[71,40],[30,2],[34,13],[19,-13],[22,17],[44,-18],[44,22],[37,10],[-4,-25],[-28,-12],[4,-31],[-16,-19]],[[484,1005],[-3,2]],[[481,1007],[19,10],[7,18],[-8,14],[8,18],[104,25],[39,0],[55,-29],[108,-36],[22,-4],[80,-52],[56,-19],[75,-4]],[[1046,948],[-10,-5]],[[1036,943],[-21,-1],[-17,-22],[-75,-17],[-40,5],[-20,14],[-53,10],[-13,14],[-44,11],[-60,4],[-29,31],[-3,37],[-31,22],[-38,1],[-53,-9],[-28,-13],[-10,-16],[-17,-9]],[[1261,1408],[-46,-7],[-37,-33],[-2,-46],[23,-12]],[[1199,1310],[-52,-29],[-28,0],[-26,17],[-29,3],[-18,26],[-49,-10],[18,27]],[[1015,1344],[70,50],[11,26],[44,13],[40,-4],[20,39]],[[1434,1371],[-30,-8],[-20,49],[-36,-11],[-26,11],[-61,-4]],[[1261,1408],[3,-26],[19,-35],[64,-3],[10,-14],[-55,-17]],[[1302,1313],[-23,10],[-80,-13]],[[1520,1187],[-46,1],[-26,-16],[-42,-8],[-40,-17],[-55,-8],[-50,0]],[[1192,1156],[83,30],[17,42],[-33,20],[60,45],[-17,20]],[[1643,1070],[-31,3]],[[1612,1073],[-34,4],[-51,-11]],[[1015,1344],[-30,3],[-39,30]],[[946,1377],[71,59],[70,77],[49,64]],[[770,1250],[36,29],[140,98]],[[364,899],[-3,0]],[[361,899],[-37,38],[-3,18],[38,30],[55,8],[43,-3],[24,17]],[[484,1005],[-16,-17],[61,5],[20,-11],[63,1],[37,-31],[8,-16],[29,-2],[45,-14],[16,-13],[-38,-27],[-57,-13],[-42,-4],[-40,15],[-38,4],[-13,34],[-52,17],[-11,14],[-89,-29],[-3,-19]],[[879,883],[-39,-16],[-7,-21],[45,-47]],[[878,799],[-17,-37],[11,-24]],[[872,738],[-12,-2]],[[860,736],[-41,15],[-13,21],[-86,3],[-54,41],[-40,14],[92,32],[44,41],[37,7],[44,-22],[36,-5]],[[509,791],[-2,-1]],[[507,790],[-28,15],[-32,-8],[-45,7],[-45,-20],[-80,52]],[[277,836],[-1,2]],[[276,838],[48,13]],[[324,851],[46,-10],[34,8],[73,6],[27,-6],[35,-36],[-30,-22]],[[414,800],[6,-2]],[[420,798],[-6,2]],[[277,836],[-7,-12],[45,-28],[30,-35],[50,35],[39,-6],[29,9],[44,-9]],[[509,791],[60,2],[30,-13],[61,-13],[34,-15],[7,-27],[34,-30],[40,-15],[47,13],[43,-5],[-5,48]],[[872,738],[46,-64],[-12,-9],[4,-32],[12,-8]],[[922,625],[-36,-1],[-12,20],[-33,12],[-42,-12],[-95,19],[-15,12],[-72,36],[-54,-17],[-20,-50],[-89,-9],[-57,29],[-35,11],[-60,33],[-28,-17],[-63,-1],[-37,18],[-35,35],[-64,33],[3,14],[120,48],[25,6],[53,-6]],[[364,899],[-34,-28],[-6,-20]],[[324,851],[0,21],[37,27]],[[420,798],[-6,2]],[[335,613],[31,-15],[65,1],[53,-14],[25,0],[50,25],[37,7],[19,38],[43,-5],[35,-35],[35,-2],[43,-22],[43,9],[14,24],[21,-1],[28,-26],[-68,-54],[-109,-51],[-43,2],[-56,-29],[-73,-16],[-26,11],[-70,5],[5,40],[-39,13],[-62,7],[-103,28],[-76,-17],[13,-41],[-81,-4],[-40,15],[-37,35],[-12,23],[27,19],[-17,36],[56,20],[62,8],[17,9],[45,-2],[37,-17],[108,-24]],[[879,883],[16,-2],[124,27],[15,21],[33,17],[78,-15],[104,17],[37,20]],[[1287,968],[40,-53],[14,-28]],[[1341,887],[-34,-4]],[[1307,883],[-31,-9],[-74,4],[-41,-21],[-39,12],[-53,-8],[14,-53],[-63,-15],[-82,10],[-44,17],[-16,-21]],[[1046,948],[-10,-5]],[[1631,966],[51,-6],[42,11],[25,-11],[-6,-34]],[[1743,926],[-52,-15],[-57,14],[-5,-21],[-29,-4],[-48,-21],[4,-32],[-50,-19]],[[1506,828],[-21,7],[0,31],[-24,14],[-50,-2],[-37,14],[-33,-5]],[[1318,974],[22,-3],[36,15],[30,23],[87,-4],[-4,-30],[56,-7],[43,4],[43,-6]],[[1612,1073],[-14,-27],[-23,-7],[0,-35],[58,-3],[9,-15],[-11,-20]],[[1996,1005],[58,6]],[[2054,1011],[-6,-24],[24,-37]],[[2072,950],[-74,-4],[-2,-26],[-50,-5],[16,-30],[-42,-17],[-31,14],[-4,16],[-38,21],[-38,-1],[-7,-30],[-54,-3],[-5,41]],[[1307,883],[-1,-30],[18,-5],[12,-54],[-42,-23],[-27,-1],[-35,-24],[-34,-11],[-8,-13]],[[1190,722],[-10,9],[-96,-13],[-57,-20],[-1,-28],[48,-46],[-47,-21],[-44,4],[-6,20],[-55,-2]],[[1506,828],[-1,-22]],[[1505,806],[-32,-7],[-84,-35],[13,-13]],[[1402,751],[-31,-18],[-36,-32],[-27,-8],[4,-18],[-40,0],[-55,7],[-40,-10],[-5,27],[18,23]],[[2059,511],[-71,14],[-10,-13],[-40,-1],[-70,7],[15,37],[-41,17],[-37,-13],[-29,5],[-2,32],[-61,46],[34,38],[-26,40],[-68,1],[-6,-27],[-42,-23],[-32,-24],[-45,19],[-97,-8],[-3,23],[43,-8],[-6,25],[19,32],[-27,14],[-55,7]],[[1505,806],[4,-19],[44,-28],[45,9],[18,21],[49,-2],[52,-8],[52,2],[44,-21],[53,6],[4,-18],[-18,-33],[-3,-31],[23,-9],[49,24],[55,19],[22,-7],[5,-19],[-37,-37],[30,3],[35,-33],[24,8],[21,-60],[-37,-12],[-9,-27],[29,-23]],[[2072,950],[27,-13],[-12,-24],[-49,-19],[-13,-13],[12,-26],[-14,-18],[18,-16],[6,-24],[42,-36],[-6,-16],[70,1],[-3,-26],[22,-12],[17,-25],[-22,-6],[1,-23],[32,1],[41,12],[40,4],[0,-33],[16,-35],[-24,-26],[-26,4],[-37,-11],[-52,-26]],[[2158,544],[-31,5],[-43,-18],[-25,-20]],[[2507,1006],[20,-29],[70,-19],[10,-56],[59,-37],[15,-32],[-7,-32],[-29,18],[-68,-16],[-97,12]],[[2480,815],[-37,12],[-14,20],[-28,-4],[-28,80],[-52,-9],[-79,43],[-19,23],[-82,14],[-26,18],[-61,-1]],[[2208,470],[-10,46],[-40,28]],[[2480,815],[15,-62],[19,-54],[59,-65],[-57,-32],[-202,-38],[-46,-42],[-7,-44],[-53,-8]],[[2595,997],[41,-10],[51,-21],[-19,-8],[11,-36],[72,-26],[-18,-41],[30,-13],[36,-27],[20,-27],[35,-26],[12,-38],[-19,-75],[21,-40],[-57,-27],[-44,-58],[-52,-32],[-5,-22],[14,-49],[57,1],[36,-15],[-83,-23],[-55,-38],[-39,-13],[-28,-23],[-3,-17],[-29,-9],[-25,32],[-26,-15],[-10,-20]],[[2519,281],[-28,14],[-51,14]],[[2440,309],[6,18],[29,26],[-25,10],[48,31],[-31,23],[-47,-17],[-1,28],[-31,11],[-35,-8],[-47,4],[-19,14],[-79,21]],[[2519,281],[2,-14],[27,-16],[-9,-27],[58,13],[11,-8],[53,4],[-1,-49],[64,-13],[-7,-32],[13,-18],[-14,-25],[-55,-1],[6,-32],[-21,-13],[24,-27],[-14,-19],[-56,7],[-57,-11],[-15,19],[-34,-13],[-45,-1],[-30,26],[-38,-25],[-56,5],[18,21],[-9,29],[-36,12],[-17,24],[3,16],[54,35],[26,10],[36,46],[-37,8],[45,35],[10,24],[-16,9],[13,31],[25,-2]]],"transform":{"scale":[0.0009999999999999998,0.0009999999999999998],"translate":[3.358,50.751]},"objects":{"landbouwgebied_2008":{"type":"GeometryCollection","geometries":[{"arcs":[[0,1,2,3]],"type":"Polygon","properties":{"id":83170,"statcode":"LB2001","statnaam":"De Marne","jrstatcode":"2008LB2001","rubriek":"landbouwgebied","FID":"landbouwgebied_gegeneraliseerd_2008.25f0544d-f417-4057-820d-823aec46355f"},"id":"LB2001"},{"arcs":[[4,-4,5,6,7,8,9,10,11,12]],"type":"Polygon","properties":{"id":83171,"statcode":"LB2002","statnaam":"Centraal Weidegebied in Groningen","jrstatcode":"2008LB2002","rubriek":"landbouwgebied","FID":"landbouwgebied_gegeneraliseerd_2008.a2175369-fa4e-401f-a5a9-67e9ea16c6fc"},"id":"LB2002"},{"arcs":[[13,14,-7,15]],"type":"Polygon","properties":{"id":83172,"statcode":"LB2003","statnaam":"Oostelijke Bouwstreek in Groningen","jrstatcode":"2008LB2003","rubriek":"landbouwgebied","FID":"landbouwgebied_gegeneraliseerd_2008.e1e24f93-b024-42ec-9fb4-df0870239e9b"},"id":"LB2003"},{"arcs":[[16,17,18,-8,-15]],"type":"Polygon","properties":{"id":83173,"statcode":"LB2004","statnaam":"Westerwolde en Groninger Veenkoloniën","jrstatcode":"2008LB2004","rubriek":"landbouwgebied","FID":"landbouwgebied_gegeneraliseerd_2008.cce57404-178b-42a4-a594-e4faf474a089"},"id":"LB2004"},{"arcs":[[19,20,-11]],"type":"Polygon","properties":{"id":83174,"statcode":"LB2005","statnaam":"Groninger zuidelijk Westerkwartier","jrstatcode":"2008LB2005","rubriek":"landbouwgebied","FID":"landbouwgebied_gegeneraliseerd_2008.361ff2cf-4e21-4cf9-8283-8b5740737476"},"id":"LB2005"},{"arcs":[[-3,21,-16,-6]],"type":"Polygon","properties":{"id":83175,"statcode":"LB2006","statnaam":"Oostelijk Hogeland","jrstatcode":"2008LB2006","rubriek":"landbouwgebied","FID":"landbouwgebied_gegeneraliseerd_2008.eee3449b-b086-402e-b49d-c5f15d3a8048"},"id":"LB2006"},{"arcs":[[22,-13,23,24,25]],"type":"Polygon","properties":{"id":83176,"statcode":"LB2101","statnaam":"Noordelijk Friesland","jrstatcode":"2008LB2101","rubriek":"landbouwgebied","FID":"landbouwgebied_gegeneraliseerd_2008.8c25aa08-2a7d-42f0-a1ca-242136833938"},"id":"LB2101"},{"arcs":[[28,29,30,31,32,33,-25]],"type":"Polygon","properties":{"id":83177,"statcode":"LB2102","statnaam":"Weidestreek in Friesland","jrstatcode":"2008LB2102","rubriek":"landbouwgebied","FID":"landbouwgebied_gegeneraliseerd_2008.9f870777-46e2-4963-972e-325d02aa70b5"},"id":"LB2102"},{"arcs":[[-12,-21,34,35,36,37,-29,-24]],"type":"Polygon","properties":{"id":83178,"statcode":"LB2103","statnaam":"De Wouden","jrstatcode":"2008LB2103","rubriek":"landbouwgebied","FID":"landbouwgebied_gegeneraliseerd_2008.207934ae-5ac9-4fbb-a232-7ce6822a1d3d"},"id":"LB2103"},{"arcs":[[[38]],[[39]],[[40]],[[41]]],"type":"MultiPolygon","properties":{"id":83179,"statcode":"LB2104","statnaam":"Eilanden","jrstatcode":"2008LB2104","rubriek":"landbouwgebied","FID":"landbouwgebied_gegeneraliseerd_2008.55e5f5c0-9918-47a2-ba26-f7be4a40796e"},"id":"LB2104"},{"arcs":[[-10,43,-35,-20]],"type":"Polygon","properties":{"id":83180,"statcode":"LB2201","statnaam":"Weidegebied van het Noorderveld","jrstatcode":"2008LB2201","rubriek":"landbouwgebied","FID":"landbouwgebied_gegeneraliseerd_2008.0677660b-9ad9-435c-a90d-71eb63e982a7"},"id":"LB2201"},{"arcs":[[44,45,-36,-44,-9,-19,46]],"type":"Polygon","properties":{"id":83181,"statcode":"LB2202","statnaam":"Smilde en Centraal Zandgebied in Drent","jrstatcode":"2008LB2202","rubriek":"landbouwgebied","FID":"landbouwgebied_gegeneraliseerd_2008.f343e338-b4dc-4f95-a2b8-2cff94129f3e"},"id":"LB2202"},{"arcs":[[-37,-46,47,48,49]],"type":"Polygon","properties":{"id":83182,"statcode":"LB2203","statnaam":"Zuidwestelijk Weidegebied in Drenthe","jrstatcode":"2008LB2203","rubriek":"landbouwgebied","FID":"landbouwgebied_gegeneraliseerd_2008.2d531cb5-f3b9-403f-acbc-94fc5b67c8fb"},"id":"LB2203"},{"arcs":[[50,51,52,-48,-45]],"type":"Polygon","properties":{"id":83183,"statcode":"LB2204","statnaam":"Zuidelijk Zandgebied in Drenthe","jrstatcode":"2008LB2204","rubriek":"landbouwgebied","FID":"landbouwgebied_gegeneraliseerd_2008.47c337d1-d89b-4348-bbdd-9e54d8e2e8f1"},"id":"LB2204"},{"arcs":[[53,-51,-47,-18]],"type":"Polygon","properties":{"id":83184,"statcode":"LB2205","statnaam":"Drentse Veenkoloniën en Hondsrug","jrstatcode":"2008LB2205","rubriek":"landbouwgebied","FID":"landbouwgebied_gegeneraliseerd_2008.9c351726-4f3a-4ed1-a89a-c0a42be59ae9"},"id":"LB2205"},{"arcs":[[54,55,56,57,58,59,60,61,62,63,-30,-38,-50]],"type":"Polygon","properties":{"id":83185,"statcode":"LB2301","statnaam":"Weidegebied in Overijssel","jrstatcode":"2008LB2301","rubriek":"landbouwgebied","FID":"landbouwgebied_gegeneraliseerd_2008.8da13a9a-f461-471f-9a4b-480c56192e67"},"id":"LB2301"},{"arcs":[[-49,-53,64,65,66,-55]],"type":"Polygon","properties":{"id":83186,"statcode":"LB2302","statnaam":"Noordoost-Overijssel","jrstatcode":"2008LB2302","rubriek":"landbouwgebied","FID":"landbouwgebied_gegeneraliseerd_2008.1faefcac-5f6e-4288-9f0a-a155a95342c4"},"id":"LB2302"},{"arcs":[[-66,67,68,69]],"type":"Polygon","properties":{"id":83187,"statcode":"LB2303","statnaam":"Twente","jrstatcode":"2008LB2303","rubriek":"landbouwgebied","FID":"landbouwgebied_gegeneraliseerd_2008.48567577-6217-4859-9e85-c085092b7365"},"id":"LB2303"},{"arcs":[[70,71,72,-56,-67,-70]],"type":"Polygon","properties":{"id":83188,"statcode":"LB2304","statnaam":"Salland","jrstatcode":"2008LB2304","rubriek":"landbouwgebied","FID":"landbouwgebied_gegeneraliseerd_2008.7621afc5-acf5-4639-bab8-59780a04541d"},"id":"LB2304"},{"arcs":[[-31,-64,73]],"type":"Polygon","properties":{"id":83189,"statcode":"LB2401","statnaam":"Noordoostelijke Polder","jrstatcode":"2008LB2401","rubriek":"landbouwgebied","FID":"landbouwgebied_gegeneraliseerd_2008.2b6ac297-c32d-409d-ad7d-906ab6ddb867"},"id":"LB2401"},{"arcs":[[-60,75]],"type":"Polygon","properties":{"id":83190,"statcode":"LB2402","statnaam":"Zuidelijke IJsselmeerpolders","jrstatcode":"2008LB2402","rubriek":"landbouwgebied","FID":"landbouwgebied_gegeneraliseerd_2008.2d0d0bbb-3399-4919-b762-20cc16fad5e5"},"id":"LB2402"},{"arcs":[[76,-57,-73,77,78,79]],"type":"Polygon","properties":{"id":83191,"statcode":"LB2501","statnaam":"Oostelijke Veluwe","jrstatcode":"2008LB2501","rubriek":"landbouwgebied","FID":"landbouwgebied_gegeneraliseerd_2008.aeb281cf-ed2f-42c1-8911-95bae567034a"},"id":"LB2501"},{"arcs":[[80,81,-78,-72,82]],"type":"Polygon","properties":{"id":83192,"statcode":"LB2502","statnaam":"IJsselstreek","jrstatcode":"2008LB2502","rubriek":"landbouwgebied","FID":"landbouwgebied_gegeneraliseerd_2008.657c47be-0e00-4d3d-8373-23eec18b6146"},"id":"LB2502"},{"arcs":[[83,-81,84,85,86,87,88,89,90]],"type":"Polygon","properties":{"id":83193,"statcode":"LB2503","statnaam":"Zuidelijk Gelderland","jrstatcode":"2008LB2503","rubriek":"landbouwgebied","FID":"landbouwgebied_gegeneraliseerd_2008.a5553c99-63fa-4e80-8974-e3356ed1b172"},"id":"LB2503"},{"arcs":[[91,-91]],"type":"Polygon","properties":{"id":83194,"statcode":"LB2504","statnaam":"Oostelijke Betuwe en Nijmegen","jrstatcode":"2008LB2504","rubriek":"landbouwgebied","FID":"landbouwgebied_gegeneraliseerd_2008.80e88a9c-9f89-454d-85c5-f62b67c274e5"},"id":"LB2504"},{"arcs":[[92,93,94,95,96,97,-79,-82,-84,-92,-90]],"type":"Polygon","properties":{"id":83195,"statcode":"LB2505","statnaam":"Veluwezoom en Betuwe","jrstatcode":"2008LB2505","rubriek":"landbouwgebied","FID":"landbouwgebied_gegeneraliseerd_2008.96ca0ea9-d01e-40b1-a5cd-27ae850559b1"},"id":"LB2505"},{"arcs":[[98,-93,-89,99,100]],"type":"Polygon","properties":{"id":83196,"statcode":"LB2506","statnaam":"Bommelerwaard","jrstatcode":"2008LB2506","rubriek":"landbouwgebied","FID":"landbouwgebied_gegeneraliseerd_2008.e92d0934-7940-470b-8731-1c7e1d53ea56"},"id":"LB2506"},{"arcs":[[101,-80,-98,102,103,104]],"type":"Polygon","properties":{"id":83197,"statcode":"LB2507","statnaam":"Westelijke Veluwe","jrstatcode":"2008LB2507","rubriek":"landbouwgebied","FID":"landbouwgebied_gegeneraliseerd_2008.0b23c941-9b2b-4df9-8b0c-7e0e92f1d524"},"id":"LB2507"},{"arcs":[[-85,-83,-71,-69,105]],"type":"Polygon","properties":{"id":83198,"statcode":"LB2508","statnaam":"Achterhoek","jrstatcode":"2008LB2508","rubriek":"landbouwgebied","FID":"landbouwgebied_gegeneraliseerd_2008.ab97fc4b-8992-4c51-adf4-77bd25dbbb09"},"id":"LB2508"},{"arcs":[[-96,106,107,108,109,110]],"type":"Polygon","properties":{"id":83199,"statcode":"LB2601","statnaam":"Kromme Rijn-streek en Heuvelrug","jrstatcode":"2008LB2601","rubriek":"landbouwgebied","FID":"landbouwgebied_gegeneraliseerd_2008.a7c61f09-0ab4-4705-83a6-61800aa67103"},"id":"LB2601"},{"arcs":[[[111,112,113,114,115,116,117,-107,-95,118]],[[119,-109,120,121]]],"type":"MultiPolygon","properties":{"id":83200,"statcode":"LB2602","statnaam":"Westelijk Weidegebied in Utrecht","jrstatcode":"2008LB2602","rubriek":"landbouwgebied","FID":"landbouwgebied_gegeneraliseerd_2008.023e8598-340e-444f-9d6b-ac72e93b1aa6"},"id":"LB2602"},{"arcs":[[122,-121,-108,-118]],"type":"Polygon","properties":{"id":83201,"statcode":"LB2603","statnaam":"Centraal Tuinbouwgebied in Utrecht","jrstatcode":"2008LB2603","rubriek":"landbouwgebied","FID":"landbouwgebied_gegeneraliseerd_2008.cfdd2573-3575-42a3-bb76-c3a6071d9e03"},"id":"LB2603"},{"arcs":[[-120,123,124,-104,125,-110]],"type":"Polygon","properties":{"id":83202,"statcode":"LB2604","statnaam":"Eemland","jrstatcode":"2008LB2604","rubriek":"landbouwgebied","FID":"landbouwgebied_gegeneraliseerd_2008.5895fbd9-0c9e-4771-b568-404c2815242f"},"id":"LB2604"},{"arcs":[[-111,-126,-103,-97]],"type":"Polygon","properties":{"id":83203,"statcode":"LB2605","statnaam":"Zandgebied in Utrecht","jrstatcode":"2008LB2605","rubriek":"landbouwgebied","FID":"landbouwgebied_gegeneraliseerd_2008.2f28762f-6857-46d6-b66b-250a759ee9b9"},"id":"LB2605"},{"arcs":[[126,127,128]],"type":"Polygon","properties":{"id":83204,"statcode":"LB2701","statnaam":"Wieringen en Wieringermeer","jrstatcode":"2008LB2701","rubriek":"landbouwgebied","FID":"landbouwgebied_gegeneraliseerd_2008.52a18d9c-ef98-4f99-a695-8e309fe29c02"},"id":"LB2701"},{"arcs":[[130,131,132,133,134]],"type":"Polygon","properties":{"id":83205,"statcode":"LB2702","statnaam":"Haarlemmermeer","jrstatcode":"2008LB2702","rubriek":"landbouwgebied","FID":"landbouwgebied_gegeneraliseerd_2008.abd6313c-960b-41a2-98ab-6dacd8ba2b9e"},"id":"LB2702"},{"arcs":[[135,-114,136,-134,137]],"type":"Polygon","properties":{"id":83206,"statcode":"LB2703","statnaam":"Amstelland en Aalsmeer","jrstatcode":"2008LB2703","rubriek":"landbouwgebied","FID":"landbouwgebied_gegeneraliseerd_2008.57b7a471-62eb-4cdc-8459-9578d182ede5"},"id":"LB2703"},{"arcs":[[[-128,138,139,140]],[[141]]],"type":"MultiPolygon","properties":{"id":83207,"statcode":"LB2704","statnaam":"Texel en Land van Zijpe","jrstatcode":"2008LB2704","rubriek":"landbouwgebied","FID":"landbouwgebied_gegeneraliseerd_2008.9c7d243f-ad54-4a50-8181-f704256d42f8"},"id":"LB2704"},{"arcs":[[142,143,-139,-127,144]],"type":"Polygon","properties":{"id":83208,"statcode":"LB2705","statnaam":"West-Friesland en omgeving","jrstatcode":"2008LB2705","rubriek":"landbouwgebied","FID":"landbouwgebied_gegeneraliseerd_2008.89238255-edb6-4032-af83-7f8dfcfc1754"},"id":"LB2705"},{"arcs":[[[145,-143,146,147,-138,-133]],[[148,-116]]],"type":"MultiPolygon","properties":{"id":83209,"statcode":"LB2706","statnaam":"Waterland en N.-Hollandse Droogmakerij","jrstatcode":"2008LB2706","rubriek":"landbouwgebied","FID":"landbouwgebied_gegeneraliseerd_2008.770449bd-92b5-4064-ae22-b12f74a9a3a5"},"id":"LB2706"},{"arcs":[[149,-124,-122,-123,-117,-149,-115,-136,-148]],"type":"Polygon","properties":{"id":83210,"statcode":"LB2707","statnaam":"'t Gein en Gooiland","jrstatcode":"2008LB2707","rubriek":"landbouwgebied","FID":"landbouwgebied_gegeneraliseerd_2008.e039d95d-3b95-42a0-9d82-4c008057e16c"},"id":"LB2707"},{"arcs":[[-132,150,151,-140,-144,-146]],"type":"Polygon","properties":{"id":83211,"statcode":"LB2708","statnaam":"Kennemerland","jrstatcode":"2008LB2708","rubriek":"landbouwgebied","FID":"landbouwgebied_gegeneraliseerd_2008.99328480-67f3-4ecb-aa0e-3d93790fc21c"},"id":"LB2708"},{"arcs":[[[152,153,154,155,156,157]],[[158]]],"type":"MultiPolygon","properties":{"id":83212,"statcode":"LB2801","statnaam":"Voorne-Putten en Hoeksche Waard","jrstatcode":"2008LB2801","rubriek":"landbouwgebied","FID":"landbouwgebied_gegeneraliseerd_2008.06043bf1-bace-4dd2-a693-b049837f0012"},"id":"LB2801"},{"arcs":[[159,160,-153,161,162]],"type":"Polygon","properties":{"id":83213,"statcode":"LB2802","statnaam":"Rotterdam en omgeving","jrstatcode":"2008LB2802","rubriek":"landbouwgebied","FID":"landbouwgebied_gegeneraliseerd_2008.2cb3cd3e-d1a4-4901-808a-120fa5daa84a"},"id":"LB2802"},{"arcs":[[163,164,165,166]],"type":"Polygon","properties":{"id":83214,"statcode":"LB2803","statnaam":"Goeree-Overflakkee","jrstatcode":"2008LB2803","rubriek":"landbouwgebied","FID":"landbouwgebied_gegeneraliseerd_2008.fc8027d4-c2d1-4361-b7c7-9c43ef2a92e2"},"id":"LB2803"},{"arcs":[[167,168,169,-135,-137,-113,170]],"type":"Polygon","properties":{"id":83215,"statcode":"LB2804","statnaam":"Westelijk Rijnland","jrstatcode":"2008LB2804","rubriek":"landbouwgebied","FID":"landbouwgebied_gegeneraliseerd_2008.dccb4e39-e3e9-4a3e-bd59-37dc8e22d139"},"id":"LB2804"},{"arcs":[[171,172,-168]],"type":"Polygon","properties":{"id":83216,"statcode":"LB2805","statnaam":"Boskoop en Rijneveld","jrstatcode":"2008LB2805","rubriek":"landbouwgebied","FID":"landbouwgebied_gegeneraliseerd_2008.9aaa1c82-2f52-4bda-8ec0-86bc4e834954"},"id":"LB2805"},{"arcs":[[-172,-171,-112,173,-160,174]],"type":"Polygon","properties":{"id":83217,"statcode":"LB2806","statnaam":"Krimpenerwaard en Oostelijk Rijnland","jrstatcode":"2008LB2806","rubriek":"landbouwgebied","FID":"landbouwgebied_gegeneraliseerd_2008.034a730c-30d5-4e53-8c94-3947c63060f2"},"id":"LB2806"},{"arcs":[[-174,-119,-94,-99,175,176,-154,-161]],"type":"Polygon","properties":{"id":83218,"statcode":"LB2807","statnaam":"Alblasserwaard en Vijfherenlanden","jrstatcode":"2008LB2807","rubriek":"landbouwgebied","FID":"landbouwgebied_gegeneraliseerd_2008.9d6a9ff7-ff7a-4be2-8c99-8e31f1ebb3a6"},"id":"LB2807"},{"arcs":[[177,178,-151,-131,-170]],"type":"Polygon","properties":{"id":83219,"statcode":"LB2808","statnaam":"Bollenstreek","jrstatcode":"2008LB2808","rubriek":"landbouwgebied","FID":"landbouwgebied_gegeneraliseerd_2008.a2e79d7a-14eb-4ae5-abea-8b17d6ff79ce"},"id":"LB2808"},{"arcs":[[-163,179,-178,-169,-173,-175]],"type":"Polygon","properties":{"id":83220,"statcode":"LB2809","statnaam":"Westland en Zuidhollandse Droogmakerij","jrstatcode":"2008LB2809","rubriek":"landbouwgebied","FID":"landbouwgebied_gegeneraliseerd_2008.fc991fdb-1f6d-4b53-aaed-aceeca71356b"},"id":"LB2809"},{"arcs":[[[180,181,-164,182]],[[183,184,185,186]],[[187,188,189,190,191]]],"type":"MultiPolygon","properties":{"id":83221,"statcode":"LB2901","statnaam":"Noordelijk Zeeland","jrstatcode":"2008LB2901","rubriek":"landbouwgebied","FID":"landbouwgebied_gegeneraliseerd_2008.457c4cd1-9afe-4c67-a798-5f8e3829e996"},"id":"LB2901"},{"arcs":[[[-190,194,-188,195,-186,196,197]],[[198,199,-181]]],"type":"MultiPolygon","properties":{"id":83222,"statcode":"LB2902","statnaam":"Walcheren en Zuid-Beveland","jrstatcode":"2008LB2902","rubriek":"landbouwgebied","FID":"landbouwgebied_gegeneraliseerd_2008.3c6517b1-daea-4341-834a-77870e9d5a1c"},"id":"LB2902"},{"arcs":[[201]],"type":"Polygon","properties":{"id":83223,"statcode":"LB2903","statnaam":"Zeeuwsch-Vlaanderen","jrstatcode":"2008LB2903","rubriek":"landbouwgebied","FID":"landbouwgebied_gegeneraliseerd_2008.4604f57b-56d6-4827-81a6-5509e39d10b7"},"id":"LB2903"},{"arcs":[[-184,202,-157,203,204,205]],"type":"Polygon","properties":{"id":83224,"statcode":"LB3001","statnaam":"Noordwesthoek","jrstatcode":"2008LB3001","rubriek":"landbouwgebied","FID":"landbouwgebied_gegeneraliseerd_2008.a5612de0-8e70-41e2-9b29-010a56c08e5c"},"id":"LB3001"},{"arcs":[[207,208,209,-204,-156,210]],"type":"Polygon","properties":{"id":83225,"statcode":"LB3002","statnaam":"Westelijke Langstraat","jrstatcode":"2008LB3002","rubriek":"landbouwgebied","FID":"landbouwgebied_gegeneraliseerd_2008.f8523350-1980-4ba2-bc64-729049ea8706"},"id":"LB3002"},{"arcs":[[-211,-155,-177,211]],"type":"Polygon","properties":{"id":83226,"statcode":"LB3003","statnaam":"Biesbosch","jrstatcode":"2008LB3003","rubriek":"landbouwgebied","FID":"landbouwgebied_gegeneraliseerd_2008.d987db4b-124b-45e5-95e5-3ed1ed9c1e6f"},"id":"LB3003"},{"arcs":[[-176,-101,212,213,214,-208,-212]],"type":"Polygon","properties":{"id":83227,"statcode":"LB3004","statnaam":"Oostelijke Langstraat","jrstatcode":"2008LB3004","rubriek":"landbouwgebied","FID":"landbouwgebied_gegeneraliseerd_2008.9c592798-c900-4b6d-ad29-37a8f331bea0"},"id":"LB3004"},{"arcs":[[-185,-206,215,216,-197]],"type":"Polygon","properties":{"id":83228,"statcode":"LB3005","statnaam":"Westelijke Zandgronden","jrstatcode":"2008LB3005","rubriek":"landbouwgebied","FID":"landbouwgebied_gegeneraliseerd_2008.2071b488-8a1a-442e-b649-c594e8a669f7"},"id":"LB3005"},{"arcs":[[-216,-205,-210,217,218,219]],"type":"Polygon","properties":{"id":83229,"statcode":"LB3006","statnaam":"Land van Breda","jrstatcode":"2008LB3006","rubriek":"landbouwgebied","FID":"landbouwgebied_gegeneraliseerd_2008.6230fe78-f759-406f-acfa-0575febe5c27"},"id":"LB3006"},{"arcs":[[220,-219,221]],"type":"Polygon","properties":{"id":83230,"statcode":"LB3007","statnaam":"De Kempen","jrstatcode":"2008LB3007","rubriek":"landbouwgebied","FID":"landbouwgebied_gegeneraliseerd_2008.287a7a66-1566-4ef3-8bf2-49e2bfda6ecc"},"id":"LB3007"},{"arcs":[[-215,222,223,-222,-218,-209]],"type":"Polygon","properties":{"id":83231,"statcode":"LB3008","statnaam":"Midden-Noord-Brabant","jrstatcode":"2008LB3008","rubriek":"landbouwgebied","FID":"landbouwgebied_gegeneraliseerd_2008.9d8dda7b-e93d-4334-9826-70c8472512b7"},"id":"LB3008"},{"arcs":[[-88,224,225,-213,-100]],"type":"Polygon","properties":{"id":83232,"statcode":"LB3009","statnaam":"Maaskant en Land van Cuijk","jrstatcode":"2008LB3009","rubriek":"landbouwgebied","FID":"landbouwgebied_gegeneraliseerd_2008.8106ff8a-9c6a-4ddc-9c5d-c505e3931b2c"},"id":"LB3009"},{"arcs":[[226,-223,-214,-226,227]],"type":"Polygon","properties":{"id":83233,"statcode":"LB3010","statnaam":"Westelijk Peelgebied","jrstatcode":"2008LB3010","rubriek":"landbouwgebied","FID":"landbouwgebied_gegeneraliseerd_2008.ffe98645-975c-4c69-88bb-77e6d4e79124"},"id":"LB3010"},{"arcs":[[-225,-87,228,229,230,-228]],"type":"Polygon","properties":{"id":83234,"statcode":"LB3101","statnaam":"Noord-Limburg","jrstatcode":"2008LB3101","rubriek":"landbouwgebied","FID":"landbouwgebied_gegeneraliseerd_2008.f55f779d-b142-4a6f-b1f7-b2614d137afb"},"id":"LB3101"},{"arcs":[[-230,231]],"type":"Polygon","properties":{"id":83235,"statcode":"LB3102","statnaam":"Zuid-Limburg","jrstatcode":"2008LB3102","rubriek":"landbouwgebied","FID":"landbouwgebied_gegeneraliseerd_2008.91837040-db11-4f4c-868b-e72a83f60a74"},"id":"LB3102"}]}}}