{"type":"Topology","arcs":[[[3188,2682],[2,-6]],[[3190,2676],[-33,0],[-15,-27],[-30,-16],[15,-39],[-37,-16],[-94,-14],[-38,6],[-24,18]],[[2934,2588],[-5,4],[-13,4],[-42,6],[-52,42],[6,9],[58,12],[62,-19],[82,24],[106,10],[52,2]],[[3190,2676],[-4,-20],[-21,-21],[23,-6],[30,-32],[29,-9],[15,-24],[70,-16],[19,12],[63,-18],[1,-9]],[[3415,2533],[-129,-48],[23,-33]],[[3309,2452],[-10,-21],[33,-30],[5,-30]],[[3337,2371],[-58,-8],[-23,23],[-50,22],[-16,23],[-33,17]],[[3157,2448],[-52,2]],[[3105,2450],[-36,23],[-83,29],[-65,-7],[-3,11],[-44,0]],[[2874,2506],[0,1]],[[2874,2507],[21,31],[26,15],[15,5],[-13,5],[6,28]],[[2929,2591],[5,-3]],[[3846,2306],[-74,-17],[-27,22],[-69,4],[-19,7],[28,30],[-15,14],[-40,0],[-88,12],[-97,-4],[-9,13],[23,13],[4,32],[-56,-3],[-20,-11],[-27,6],[-36,27],[-15,1]],[[3415,2533],[41,15],[-7,28],[32,5],[-17,29],[-21,6],[-24,32],[67,24],[30,-14]],[[3516,2658],[14,-12],[9,-40],[32,-27],[98,-27],[57,-4],[-5,-33],[13,-9],[114,-20],[12,-38],[-39,-60],[24,-25],[1,-57]],[[3846,2306],[9,-45],[-31,-69],[-78,-78],[-11,-26]],[[3735,2088],[-21,7],[-32,28],[-25,0],[31,43],[-31,9],[-78,67],[-160,103]],[[3419,2345],[-40,24],[-42,2]],[[3105,2450],[-55,-22],[-25,-28],[-39,-63],[-29,7]],[[2957,2344],[-53,20],[-57,2],[-29,19],[1,32],[23,31],[30,20],[-12,24],[14,14]],[[3188,2682],[51,9],[70,18],[78,7],[52,-11],[16,8],[68,-22],[-7,-33]],[[3143,2786],[-32,-15],[-8,24],[27,10],[13,-19]],[[3033,2765],[1,-1]],[[3034,2764],[-1,1]],[[2474,2493],[-24,-19],[-33,2],[-14,14],[-31,-5],[15,-37],[-7,-25],[-59,6],[-26,-13],[-64,11],[-10,-15],[26,-18],[-42,-14],[-32,18],[-33,-7],[-63,12],[-23,-1]],[[2054,2402],[17,45],[19,23],[35,21],[45,17],[59,42],[67,20],[65,15],[90,27],[71,26],[53,0],[83,15],[75,5],[48,-4],[42,-47],[37,-3],[3,-12],[32,6],[34,-7]],[[2874,2507],[-38,13],[-13,-9],[-40,3],[-97,-20],[10,47],[19,1],[3,32],[-54,0],[-1,-15],[-45,-2],[-12,16],[-67,-21],[10,-14],[-25,-11],[-21,12],[-28,-20],[-1,-26]],[[2700,2725],[2,-3]],[[2702,2722],[-2,3]],[[2034,2305],[-13,53],[25,14],[8,30]],[[2474,2493],[48,-10],[18,-24],[-40,-5],[4,-32],[64,-4],[-17,-23],[34,-23],[-14,-13],[-47,-2],[-5,-22],[-59,-10],[-18,-27],[58,-31],[29,-35],[46,-67],[-22,-17],[-25,-4],[-29,-23],[-37,-54]],[[2462,2067],[-25,-10]],[[2437,2057],[-46,33],[-36,-2]],[[2355,2088],[-56,6],[-13,17],[-59,-12],[-40,-16],[-91,22],[-28,-7],[-60,25],[-12,13],[53,24],[-6,29],[12,25],[-14,28],[9,28],[-16,35]],[[1809,2249],[-1,1]],[[1808,2250],[1,-1]],[[2957,2344],[-10,-13],[63,-14],[-5,-33],[50,-48]],[[3055,2236],[15,-14],[-35,-39],[-24,-11]],[[3011,2172],[-36,-16],[-30,19],[-46,3],[-51,-38],[-86,-36]],[[2762,2104],[-89,-39],[-45,7],[-13,20],[-43,-7],[-6,-11],[-45,-23],[-36,4],[-23,12]],[[1942,2626],[-78,-11],[-30,-16],[-38,8],[38,34],[33,8],[177,28],[107,19],[5,-17],[-60,-25],[-55,0],[-75,-26],[-24,-2]],[[2427,2711],[164,7],[-59,-17],[-86,-13],[-74,5],[-61,-22],[-43,11],[-14,16],[19,17],[29,5],[28,-10],[97,1]],[[3034,2764],[-115,-24],[-22,-11],[-60,-7],[-65,4],[31,25],[230,14]],[[1735,2546],[-30,-2],[-31,-13],[-60,-16],[5,-12],[-44,-16],[-23,-22],[-57,-5],[-2,11],[73,30],[40,22],[68,27],[32,8],[29,-12]],[[2700,2725],[2,-3]],[[3157,2448],[23,-40],[1,-25],[-59,-12],[33,-49],[-17,-41],[9,-21],[-92,-24]],[[3357,2118],[-25,-42],[2,-16],[-31,-9],[-74,-65],[-29,9],[8,21],[-53,-4],[-22,9],[1,22],[-37,8]],[[3097,2051],[25,36],[-49,13],[-11,32],[-60,13],[9,27]],[[3419,2345],[-78,-30],[-30,-2],[-27,-17],[7,-20],[-36,-21],[-17,-32],[-34,-26],[24,-28],[81,-10],[19,-34],[29,-7]],[[3097,2051],[-9,-25],[-36,-11],[13,-22],[-16,-36],[44,0],[35,-13],[14,-20],[31,-2],[-2,-17]],[[3171,1905],[-15,-9],[5,-32],[-27,5],[-50,-3],[-11,12],[-45,-15],[-23,31],[-35,15]],[[2970,1909],[-39,4],[-45,16],[-42,6],[-19,-10],[-27,18],[-36,57],[37,13],[45,31],[-82,60]],[[3504,1900],[-84,2],[-36,-7],[-32,-17]],[[3352,1878],[-2,21],[-93,25],[-62,-8],[-24,-11]],[[3357,2118],[21,11],[30,-29],[84,-45],[-18,-25],[6,-29],[-12,-20],[23,-32],[13,-49]],[[3735,2088],[-21,-28],[-17,-163],[-13,-14],[-66,13],[-37,-8],[-42,13],[-35,-1]],[[2472,1827],[14,34]],[[2486,1861],[52,7]],[[2538,1868],[22,-5],[72,12],[21,12],[-29,21]],[[2624,1908],[-48,18],[31,18],[-22,21],[-21,36],[-72,34],[-31,0],[-24,22]],[[2970,1909],[-25,-62],[17,2],[41,-72],[-28,-13],[11,-31],[-1,-26],[28,-7],[10,-20]],[[3023,1680],[-37,-5],[-52,11],[-14,21],[-42,9],[-92,2],[11,-15],[-18,-12],[-27,0]],[[2752,1691],[-11,29],[-45,30],[-46,4],[-43,-28],[-39,-2],[-39,43],[-21,2]],[[2508,1769],[-4,3]],[[2504,1772],[0,3]],[[2504,1775],[-6,27],[-26,25]],[[3032,1678],[-9,2]],[[3352,1878],[17,-13],[-8,-26],[48,-25],[-40,-1],[-11,-14],[-35,4],[24,-32],[-7,-35]],[[3340,1736],[-29,9],[-28,-24],[-30,-4],[-10,12],[-95,12],[-2,-9],[-53,-14],[-13,-24],[-48,-16]],[[3403,1368],[-45,-1],[-54,12],[10,36],[-27,9],[-33,-11],[-21,19],[-36,-5],[-59,0],[-23,11],[-44,35],[-13,19]],[[3058,1492],[70,33],[56,7],[7,31],[-24,13],[-103,0],[-66,-8],[-22,33],[9,19],[45,10],[17,36],[-15,12]],[[3340,1736],[77,-26],[79,0],[8,-9],[80,-16],[52,30],[17,-36],[25,-26],[19,-2],[17,-28],[0,-21],[-15,-13],[-31,-47],[2,-14],[33,-43],[-43,-10],[-29,2],[-38,-46],[-40,-4],[-31,-21],[-7,-24],[-18,-13],[-94,-1]],[[3058,1492],[-65,0],[-12,-15],[-41,-1],[-132,5]],[[2808,1481],[-19,-3],[-23,24],[6,9],[-31,39],[-15,2],[-10,29]],[[2716,1581],[8,41],[42,9],[6,18],[-19,9],[-1,33]],[[2624,1908],[-18,-19],[-131,-26],[-182,2]],[[2293,1865],[-1,1]],[[2292,1866],[-34,35],[-23,9],[2,103],[66,66],[52,9]],[[2486,1861],[52,7]],[[2293,1865],[4,-18],[101,-15],[55,-4],[39,-26],[7,-32],[-7,-23],[-52,-57],[-51,-26],[-26,2],[-60,-18],[-53,-33],[-44,3],[-27,-21],[15,-25],[-23,-46],[-96,-20],[-31,-3],[-85,51],[-48,18],[-64,13],[-56,-6],[-14,10],[-6,44],[33,17],[96,35],[177,76],[0,15],[25,26],[41,4],[56,36],[71,13],[22,11]],[[2504,1772],[0,3]],[[1929,1940],[0,1]],[[1929,1941],[0,-1]],[[2716,1581],[-21,0],[-18,-36],[8,-19],[-16,-30],[20,-26],[17,-63],[14,-19],[-26,-15],[-43,-50]],[[2651,1323],[-63,4]],[[2588,1327],[0,21],[-63,7],[-18,20],[-5,23],[-50,2],[-18,47],[-42,-3],[-24,49],[35,5],[-12,20],[94,-1],[9,13],[-11,24],[40,31],[-16,25],[-54,43],[-42,-5],[-12,9]],[[2399,1657],[53,28],[13,24],[17,7],[26,53]],[[2808,1481],[23,-14],[-32,-19],[35,-20],[-19,-34],[38,-53],[-33,-1],[-7,-12],[-55,-30],[60,-10],[1,-19],[-18,-20]],[[2801,1249],[-65,-7],[-30,22],[-74,-41]],[[2632,1223],[-26,13],[16,31],[16,8],[-18,28],[26,3],[5,17]],[[2596,1199],[-2,15],[38,9]],[[2801,1249],[1,-19],[-69,-13],[0,-29],[77,-38]],[[2810,1150],[-42,-3],[19,-28],[22,-9],[0,-20],[-60,7],[-44,17],[-8,-13],[-60,-21],[-32,6],[-18,-14],[34,-25],[11,-32],[-38,-21]],[[2594,994],[-37,8],[-21,25],[-25,-2],[-5,-18]],[[2506,1007],[-84,-6],[-35,7],[-13,13],[-78,29],[-12,16],[-53,13],[-48,-14],[-55,13],[-21,-18],[-26,-1],[-24,11]],[[2057,1070],[-14,17]],[[2043,1087],[33,39],[19,10],[44,2],[75,13],[125,-7],[120,-25]],[[2459,1119],[9,-8],[-39,-21],[-16,-18],[39,-32],[32,16],[43,3],[18,17],[-18,21],[2,17],[38,9],[42,-20],[27,22],[35,6],[-7,14],[-34,17],[-34,37]],[[2459,1119],[74,37],[11,26],[30,26],[22,-9]],[[2043,1087],[-35,-30],[-27,-1],[-34,17],[-102,-14],[-33,7],[-35,-3],[-61,12],[-48,-7]],[[1668,1068],[18,40],[46,30],[23,-1],[36,46]],[[1791,1183],[31,33]],[[1822,1216],[39,-3],[28,13],[23,-12],[63,-8],[15,11],[35,1],[59,17],[36,-3]],[[2120,1232],[62,-16],[21,-12],[45,-12],[20,14],[0,17],[-20,20]],[[2248,1243],[69,-3],[49,10],[21,19],[68,4],[37,28],[49,-2],[47,28]],[[2057,1070],[-13,0],[-33,-31],[-15,-35]],[[1996,1004],[-58,-18],[-51,-3],[-23,9],[-94,-5],[10,35],[-42,15],[-32,-5],[-16,15],[-48,23]],[[1642,1070],[26,-2]],[[2123,1400],[-8,14],[-33,7],[-1,30],[-46,20],[11,26]],[[2046,1497],[124,17],[48,63],[35,19],[8,15],[34,4],[104,42]],[[2248,1243],[-20,18],[1,19],[-29,18],[5,29],[-9,22],[-31,-22],[-39,-8],[-25,10],[27,14],[26,43],[-31,14]],[[3403,1368],[-10,-34],[-16,-10],[-40,-5],[-7,-30],[26,0],[39,-12],[73,-34],[3,-30],[-30,-5],[-5,-24],[-24,-19],[-48,-20],[-38,22],[-132,-32],[-80,-32],[-21,11],[-60,9],[18,-21],[-7,-26],[-39,9],[-18,15],[-39,-2],[-10,19],[-81,0],[-31,15],[-16,18]],[[1835,1335],[38,31],[-6,50]],[[1867,1416],[18,4],[13,-35],[26,-24],[29,-4]],[[1953,1357],[-13,-12],[34,-12],[106,-14],[8,-25],[46,12],[37,-17],[-35,-45],[-16,-12]],[[1822,1216],[-33,9],[-27,24],[8,25],[-1,30]],[[1769,1304],[31,3],[2,20],[33,8]],[[1835,1335],[-37,12],[-7,22],[-62,16],[-54,-19],[-30,25],[-29,-12],[4,-17],[27,-25],[-6,-22],[19,-4],[33,-32],[20,32],[56,-7]],[[1791,1183],[-61,16],[-34,27],[-32,-7],[-24,8],[-30,-19],[-28,4],[-24,-20],[-38,-5]],[[1520,1187],[-18,30],[-57,46],[27,36],[38,13],[-42,12],[-1,32],[-33,15]],[[1434,1371],[41,23],[42,-6],[-1,18],[-61,46],[-18,25]],[[1437,1477],[36,4],[39,22]],[[1512,1503],[41,0],[18,17],[26,8]],[[1597,1528],[43,11],[24,13]],[[1664,1552],[21,-20],[-16,-18],[31,-29],[-24,-22],[12,-47],[74,15],[72,-3],[24,26]],[[1858,1454],[-4,-28],[13,-10]],[[1858,1454],[7,21],[43,57],[40,-4]],[[1948,1528],[57,-10],[41,-21]],[[2123,1400],[-39,11],[-18,-3],[-26,-25],[-42,3],[-45,-29]],[[1746,2024],[-34,-6],[-24,-15],[-102,0],[-45,-46],[-51,13]],[[1490,1970],[2,5],[-43,45],[22,5],[6,33],[-25,29],[-27,14],[-12,28],[24,34],[17,0]],[[1454,2163],[56,-23],[39,4],[32,11],[29,25],[65,7],[16,-13],[65,-78],[-10,-72]],[[1809,2249],[-1,1]],[[1254,1564],[18,23],[44,14],[3,26]],[[1319,1627],[53,9],[29,-13],[-3,-17],[63,-30]],[[1461,1576],[-9,-20],[-30,-23],[-54,-20],[-56,-32]],[[1312,1481],[-37,-15],[-75,3]],[[1200,1469],[10,50],[20,11],[24,34]],[[1551,1568],[-30,-39],[-9,-26]],[[1437,1477],[-70,-14],[-1,19],[-54,-1]],[[1461,1576],[90,-8]],[[1490,1970],[-42,-6],[-33,5],[-6,-21],[-25,-17]],[[1384,1931],[10,-10],[-39,-25],[-23,-22],[-17,-33],[-63,-17]],[[1252,1824],[24,110],[6,44],[13,37],[23,36],[33,83],[5,48],[17,31],[32,2],[16,-10],[33,-42]],[[1519,2412],[31,-29],[-8,-8],[-3,-47],[-50,-44],[-28,-5],[-37,-28],[-27,9],[-14,-22],[-20,-4],[-12,40],[13,40],[15,20],[104,99],[19,1],[17,-22]],[[1662,1862],[-15,-14],[-55,-3],[-2,18],[-64,0],[4,14],[-50,19],[-8,-13],[-38,5]],[[1434,1888],[-18,10],[5,28],[-37,5]],[[1746,2024],[44,-35],[35,4],[10,12],[65,-2],[25,-11],[16,-39],[-26,-15],[-27,-2],[-10,-29],[-38,-21],[-70,-16],[-39,22],[-43,0],[-27,-12],[1,-18]],[[1929,1940],[0,1]],[[1662,1862],[11,-44],[55,-64],[-35,-35],[-2,-30],[33,-2],[-57,-48],[-45,-15],[35,-26]],[[1657,1598],[-16,-6],[-33,12],[-13,-14],[-40,-9],[-4,-13]],[[1319,1627],[0,33],[34,26],[-36,20],[39,37],[-21,18],[2,33],[24,8],[59,-18],[4,23],[-37,10],[21,41],[26,30]],[[1597,1528],[-25,28],[48,25],[44,-29]],[[1657,1598],[15,-14],[47,6],[57,-13],[34,-23],[66,8],[66,-17],[6,-17]],[[1254,1564],[-29,4],[-19,-9],[-70,19]],[[1136,1578],[60,93],[8,25],[-8,16],[28,27],[28,85]],[[771,1072],[-35,6],[-20,14],[-25,-11]],[[691,1081],[17,20],[-34,32],[20,29],[-10,10],[-46,-7]],[[638,1165],[68,16],[44,4],[55,-9],[57,-31],[19,-23],[28,-8],[69,-1],[37,-21],[41,0],[36,-11],[49,3],[57,-7],[11,-15],[54,-12],[51,20]],[[1314,1070],[79,1],[15,-6],[75,3],[44,-3]],[[1527,1065],[-31,-15],[-57,-1],[-42,-18],[-18,-26],[-61,-31]],[[1318,974],[-31,-6]],[[1287,968],[-1,0]],[[1286,968],[-25,4],[-61,-19],[-28,-3],[-61,14],[-52,4],[-71,25],[-97,22],[-9,19],[-85,38],[-26,0]],[[1214,949],[-27,-5]],[[1187,944],[27,5]],[[1192,1156],[70,-17]],[[1262,1139],[50,-48],[2,-21]],[[638,1165],[-23,29],[32,41],[43,8],[47,-9],[33,16]],[[770,1250],[19,-20],[40,-14],[5,-12],[36,-7],[31,-20],[34,-7],[31,21],[104,34],[19,-13],[22,18],[52,-18],[27,10],[14,-16],[4,-31],[-16,-19]],[[1046,948],[-10,-5]],[[1036,943],[-38,-23],[-75,-17],[-40,4],[-52,25],[-32,-1]],[[799,931],[-2,1]],[[797,932],[0,14],[-44,11],[-61,4],[-19,33],[-9,34],[-34,23],[-39,1],[-52,-9],[-28,-13],[-27,-25]],[[484,1005],[-3,2]],[[481,1007],[26,28],[-8,26],[112,31],[38,0],[42,-11]],[[691,1081],[14,-19],[101,-33],[29,-6],[81,-52],[56,-19],[74,-4]],[[1434,1371],[-53,-15]],[[1381,1356],[20,27],[-17,30],[-36,-12],[-26,12],[-39,-1],[-68,-11],[-38,-32],[-1,-47],[23,-12]],[[1199,1310],[-52,-29],[-28,0],[-26,17],[-29,3],[-18,26],[-48,-10],[-20,7],[37,20]],[[1015,1344],[70,50],[11,27],[49,14],[35,-5],[20,39]],[[1381,1356],[-30,-13],[6,-13],[-55,-17]],[[1302,1313],[-23,10],[-80,-13]],[[1520,1187],[-46,1],[-31,-17],[-39,-8],[-46,-18],[-48,-6],[-48,0]],[[1192,1156],[63,19],[33,28],[-12,17],[34,8],[12,18],[-21,8],[26,25],[-25,34]],[[1642,1070],[-30,3]],[[1612,1073],[-34,4],[-51,-12]],[[1015,1344],[-29,3],[-40,30]],[[946,1377],[71,60],[70,77],[49,64]],[[770,1250],[34,27],[142,100]],[[369,899],[-8,0]],[[361,899],[1,15],[-30,13],[-11,28],[38,30],[55,8],[44,-4],[23,18]],[[484,1005],[8,-18],[37,6],[24,-12],[59,2],[37,-31],[8,-16],[29,-2],[48,-18],[22,12],[41,4]],[[799,931],[-48,-8],[-12,-26],[-30,-17],[-57,-13],[-42,-4],[-40,15],[-38,4],[-13,34],[-52,17],[-11,13],[-88,-28],[1,-19]],[[879,883],[-39,-16],[-7,-21],[45,-47]],[[878,799],[-17,-45],[11,-16]],[[872,738],[-12,-1]],[[860,737],[-43,15],[-11,20],[-91,5],[-24,24],[-65,29],[6,12],[34,4],[52,16],[40,39],[42,9],[38,-23],[41,-4]],[[281,837],[0,2]],[[281,839],[41,10]],[[322,849],[1,0]],[[323,849],[47,-8],[85,13],[49,-5],[30,-28],[-25,-30]],[[509,791],[-2,-1]],[[507,790],[-28,15],[-34,-8],[-43,7],[-45,-19],[-76,52]],[[414,800],[6,-2]],[[420,798],[-6,2]],[[872,738],[46,-64],[-12,-9],[13,-40]],[[919,625],[-34,-1],[-11,20],[-33,12],[-44,-12],[-77,13],[-27,22],[-37,10],[-39,22],[-54,-17],[5,-11],[-26,-39],[-88,-9],[-57,29],[-35,11],[-60,33],[-28,-17],[-63,-1],[-37,18],[-36,36],[-34,13],[-29,22],[4,11],[119,48],[25,6],[58,-5]],[[281,837],[-9,-16],[39,-22],[32,-36],[54,34],[37,-7],[37,7],[36,-7]],[[509,791],[60,2],[72,-23],[44,-19],[16,-27],[34,-29],[40,-15],[51,13],[39,-5],[-5,49]],[[369,899],[-39,-28],[-7,-22]],[[322,849],[1,21],[38,29]],[[420,798],[-6,2]],[[335,613],[31,-15],[65,1],[54,-14],[24,1],[50,24],[37,7],[19,38],[45,-5],[33,-35],[35,-2],[48,-22],[41,12],[11,21],[25,-4],[24,-23],[-68,-54],[-109,-51],[-43,2],[-56,-29],[-73,-16],[-26,11],[-35,-2],[-35,7],[5,40],[-39,13],[-62,7],[-36,14],[-17,-2],[-50,16],[-76,-17],[13,-41],[-81,-4],[-39,15],[-20,16],[-11,29],[-19,13],[27,19],[-17,36],[62,23],[50,4],[25,10],[41,-2],[43,-18],[104,-23]],[[1287,968],[40,-53],[14,-28]],[[1341,887],[-34,-4]],[[1307,883],[-31,-9],[-74,4],[-41,-21],[-38,12],[-54,-8],[11,-56],[-60,-12],[-81,10],[-45,17],[-16,-21]],[[879,883],[113,14],[27,11],[17,21],[42,18],[51,-14],[33,0],[82,13],[42,22]],[[1214,949],[-27,-5]],[[1046,948],[-10,-5]],[[1506,828],[-21,7],[0,31],[-25,15],[-49,-3],[-37,14],[-33,-5]],[[1318,974],[23,-3],[35,15],[30,23],[58,-6],[30,2],[-10,-43],[29,7],[75,3],[43,-6]],[[1631,966],[65,-5],[28,10],[27,-13],[-7,-32]],[[1744,926],[-41,-6],[-12,-9],[-57,14],[-5,-21],[-29,-3],[-48,-22],[4,-32],[-50,-19]],[[1612,1073],[-14,-27],[-24,-8],[1,-34],[58,-3],[9,-15],[-11,-20]],[[1996,1004],[58,7]],[[2054,1011],[-6,-24],[24,-37]],[[2072,950],[-70,-4],[-6,-26],[-50,-5],[16,-30],[-42,-17],[-32,14],[-3,16],[-38,21],[-38,-1],[-7,-29],[-54,-4],[-4,41]],[[1307,883],[-1,-30],[18,-5],[12,-54],[-56,-28],[-82,-31],[-8,-13]],[[1190,722],[-10,9],[-96,-13],[-56,-19],[-2,-29],[48,-46],[-47,-21],[-44,4],[-6,20],[-58,-2]],[[1506,828],[-1,-22]],[[1505,806],[-32,-7],[-84,-35],[13,-13]],[[1402,751],[-31,-18],[-36,-32],[-26,-8],[3,-18],[-40,0],[-55,7],[-40,-10],[-5,27],[18,23]],[[2059,511],[-71,14],[-9,-13],[-41,-2],[-70,7],[16,37],[-42,18],[-37,-13],[-29,6],[-2,31],[-61,46],[34,38],[-26,41],[-71,-5],[-3,-23],[-77,-44],[-42,17],[-97,-8],[-2,24],[39,-10],[-3,25],[19,33],[-26,14],[-56,7]],[[1505,806],[3,-19],[45,-28],[45,9],[18,21],[49,-2],[52,-8],[52,2],[63,-25],[34,10],[4,-18],[-18,-33],[-3,-31],[23,-9],[49,24],[55,19],[22,-7],[0,-28],[-40,-15],[8,-13],[30,3],[35,-33],[24,8],[11,-53],[-30,-22],[-6,-24],[29,-23]],[[2072,950],[27,-13],[-8,-18],[-53,-25],[-13,-13],[12,-26],[-13,-10],[23,-48],[43,-36],[-7,-16],[70,1],[-3,-26],[31,-22],[-14,-21],[1,-23],[32,1],[41,12],[40,4],[0,-33],[16,-35],[-24,-26],[-26,4],[-37,-11],[-52,-26]],[[2158,544],[-33,5],[-41,-18],[-25,-20]],[[2506,1007],[22,-31],[69,-18],[17,-63],[49,-25],[18,-37],[-6,-27],[-28,13],[-70,-16],[-97,12]],[[2480,815],[-37,13],[-14,19],[-28,-4],[-28,80],[-52,-9],[-79,43],[-19,23],[-82,14],[-45,20],[-42,-3]],[[2480,815],[15,-62],[19,-54],[59,-65],[-57,-32],[-202,-38],[-46,-41],[-7,-45],[-53,-8]],[[2208,470],[-8,42],[-42,32]],[[2594,994],[42,-7],[35,-12],[-3,-17],[11,-36],[81,-17],[-27,-50],[30,-13],[36,-27],[20,-27],[35,-26],[12,-38],[-19,-75],[21,-40],[-57,-27],[-44,-58],[-52,-32],[-5,-22],[5,-38],[28,-12],[38,2],[36,-15],[-12,-9],[-71,-14],[-56,-38],[-38,-13],[-27,-25],[-3,-14],[-30,-10],[-25,32],[-26,-15],[-10,-20]],[[2519,281],[-28,14],[-50,14]],[[2441,309],[-4,30],[39,10],[-24,18],[46,27],[-32,23],[-45,-9],[-12,25],[-58,-4],[-51,5],[-12,15],[-80,21]],[[2519,281],[2,-14],[27,-16],[-9,-27],[58,13],[11,-8],[52,4],[0,-49],[64,-13],[-6,-29],[12,-21],[-14,-25],[-55,-1],[6,-32],[-21,-13],[23,-27],[-13,-19],[-38,-1],[-17,8],[-58,-11],[-15,19],[-79,-14],[-30,27],[-33,-15],[-49,-13],[5,51],[-44,18],[-17,24],[12,27],[45,24],[30,22],[32,35],[-38,6],[46,36],[10,24],[-18,12],[21,29],[20,-3]]],"transform":{"scale":[0.001,0.0009996434937611415],"translate":[3.358,50.751]},"objects":{"landbouwgebied_2014":{"type":"GeometryCollection","geometries":[{"arcs":[[0,1,2]],"type":"Polygon","properties":{"id":175359,"statcode":"LB2001","statnaam":"De Marne","jrstatcode":"2014LB2001","rubriek":"landbouwgebied","FID":"landbouwgebied_gegeneraliseerd_2014.bbf64651-9192-4af8-a429-12a8741de2b9"},"id":"LB2001"},{"arcs":[[3,4,5,6,7,8,9,10,11,-2]],"type":"Polygon","properties":{"id":175360,"statcode":"LB2002","statnaam":"Centraal Weidegebied in Groningen","jrstatcode":"2014LB2002","rubriek":"landbouwgebied","FID":"landbouwgebied_gegeneraliseerd_2014.227c2e3e-aeba-4df3-a922-fbb148d12b39"},"id":"LB2002"},{"arcs":[[12,-5,13,14]],"type":"Polygon","properties":{"id":175361,"statcode":"LB2003","statnaam":"Oostelijke Bouwstreek in Groningen","jrstatcode":"2014LB2003","rubriek":"landbouwgebied","FID":"landbouwgebied_gegeneraliseerd_2014.94ae5c0e-fcb3-4b6d-80fd-3a60e00d6774"},"id":"LB2003"},{"arcs":[[15,16,17,-6,-13]],"type":"Polygon","properties":{"id":175362,"statcode":"LB2004","statnaam":"Westerwolde en Groninger Veenkoloni?n","jrstatcode":"2014LB2004","rubriek":"landbouwgebied","FID":"landbouwgebied_gegeneraliseerd_2014.c0cc3cf8-cae4-412a-b8b9-4edb15e574c2"},"id":"LB2004"},{"arcs":[[-9,18,19]],"type":"Polygon","properties":{"id":175363,"statcode":"LB2005","statnaam":"Groninger zuidelijk Westerkwartier","jrstatcode":"2014LB2005","rubriek":"landbouwgebied","FID":"landbouwgebied_gegeneraliseerd_2014.61499705-e1e6-4948-80fc-d84d6151c0db"},"id":"LB2005"},{"arcs":[[[-4,-1,20,-14]],[[21]]],"type":"MultiPolygon","properties":{"id":175364,"statcode":"LB2006","statnaam":"Oostelijk Hogeland","jrstatcode":"2014LB2006","rubriek":"landbouwgebied","FID":"landbouwgebied_gegeneraliseerd_2014.aabc7356-2bcc-4748-9d13-9e52ebde482f"},"id":"LB2006"},{"arcs":[[24,25,-11,26]],"type":"Polygon","properties":{"id":175365,"statcode":"LB2101","statnaam":"Noordelijk Friesland","jrstatcode":"2014LB2101","rubriek":"landbouwgebied","FID":"landbouwgebied_gegeneraliseerd_2014.299be4c4-aaa7-4d68-850c-cd9ca49a3f3d"},"id":"LB2101"},{"arcs":[[29,-25,30,31,32,33]],"type":"Polygon","properties":{"id":175366,"statcode":"LB2102","statnaam":"Weidestreek in Friesland","jrstatcode":"2014LB2102","rubriek":"landbouwgebied","FID":"landbouwgebied_gegeneraliseerd_2014.7e116212-db7a-49eb-b79f-e13754d17c40"},"id":"LB2102"},{"arcs":[[-10,-20,36,37,38,39,-31,-27]],"type":"Polygon","properties":{"id":175367,"statcode":"LB2103","statnaam":"De Wouden","jrstatcode":"2014LB2103","rubriek":"landbouwgebied","FID":"landbouwgebied_gegeneraliseerd_2014.92e376d9-6322-417c-b20d-b1edab94905d"},"id":"LB2103"},{"arcs":[[[40]],[[41]],[[-24,42]],[[43]]],"type":"MultiPolygon","properties":{"id":175368,"statcode":"LB2104","statnaam":"Eilanden","jrstatcode":"2014LB2104","rubriek":"landbouwgebied","FID":"landbouwgebied_gegeneraliseerd_2014.380ab077-0416-4e00-91de-5fd27f722ff3"},"id":"LB2104"},{"arcs":[[-8,45,-37,-19]],"type":"Polygon","properties":{"id":175369,"statcode":"LB2201","statnaam":"Weidegebied van het Noorderveld","jrstatcode":"2014LB2201","rubriek":"landbouwgebied","FID":"landbouwgebied_gegeneraliseerd_2014.6065cd5e-636e-40ee-9f48-9f68ca519a4d"},"id":"LB2201"},{"arcs":[[46,47,-38,-46,-7,-18,48]],"type":"Polygon","properties":{"id":175370,"statcode":"LB2202","statnaam":"Smilde en Centraal Zandgebied in Drenthe","jrstatcode":"2014LB2202","rubriek":"landbouwgebied","FID":"landbouwgebied_gegeneraliseerd_2014.20c3cc78-f715-47a5-8330-3c2c92fc2a12"},"id":"LB2202"},{"arcs":[[-39,-48,49,50,51]],"type":"Polygon","properties":{"id":175371,"statcode":"LB2203","statnaam":"Zuidwestelijk Weidegebied in Drenthe","jrstatcode":"2014LB2203","rubriek":"landbouwgebied","FID":"landbouwgebied_gegeneraliseerd_2014.c54cf841-8eca-4f7e-b0b4-137bf5784214"},"id":"LB2203"},{"arcs":[[52,53,-50,-47,54]],"type":"Polygon","properties":{"id":175372,"statcode":"LB2204","statnaam":"Zuidelijk Zandgebied in Drenthe","jrstatcode":"2014LB2204","rubriek":"landbouwgebied","FID":"landbouwgebied_gegeneraliseerd_2014.d4bd7c6e-ef35-49c2-80ff-2dfc7e619a9e"},"id":"LB2204"},{"arcs":[[-49,-17,55,-55]],"type":"Polygon","properties":{"id":175373,"statcode":"LB2205","statnaam":"Drentse Veenkoloni?n en Hondsrug","jrstatcode":"2014LB2205","rubriek":"landbouwgebied","FID":"landbouwgebied_gegeneraliseerd_2014.7207278c-b1ad-4e8d-9226-dbfaa961aac8"},"id":"LB2205"},{"arcs":[[56,57,58,59,-32,-40,-52,60,61,62,63,64,65]],"type":"Polygon","properties":{"id":175374,"statcode":"LB2301","statnaam":"Weidegebied in Overijssel","jrstatcode":"2014LB2301","rubriek":"landbouwgebied","FID":"landbouwgebied_gegeneraliseerd_2014.8c85aa00-daac-47ff-9498-3ec10caa4962"},"id":"LB2301"},{"arcs":[[66,-61,-51,-54,67,68]],"type":"Polygon","properties":{"id":175375,"statcode":"LB2302","statnaam":"Noordoost-Overijssel","jrstatcode":"2014LB2302","rubriek":"landbouwgebied","FID":"landbouwgebied_gegeneraliseerd_2014.e0499614-6633-4852-82cb-157d538ee598"},"id":"LB2302"},{"arcs":[[69,70,-69,71]],"type":"Polygon","properties":{"id":175376,"statcode":"LB2303","statnaam":"Twente","jrstatcode":"2014LB2303","rubriek":"landbouwgebied","FID":"landbouwgebied_gegeneraliseerd_2014.02eff907-ac53-45ca-8397-791c694ebb57"},"id":"LB2303"},{"arcs":[[-67,-71,72,73,74,-62]],"type":"Polygon","properties":{"id":175377,"statcode":"LB2304","statnaam":"Salland","jrstatcode":"2014LB2304","rubriek":"landbouwgebied","FID":"landbouwgebied_gegeneraliseerd_2014.5348cbf8-5be1-43bd-a192-6fed2e188dc1"},"id":"LB2304"},{"arcs":[[-33,-60,75,76,77]],"type":"Polygon","properties":{"id":175378,"statcode":"LB2401","statnaam":"Noordoostelijke Polder","jrstatcode":"2014LB2401","rubriek":"landbouwgebied","FID":"landbouwgebied_gegeneraliseerd_2014.3181a7e4-9a32-44e8-acb5-4223af6125d9"},"id":"LB2401"},{"arcs":[[-77,79]],"type":"Polygon","properties":{"id":175379,"statcode":"LB2402","statnaam":"Zuidelijke IJsselmeerpolders","jrstatcode":"2014LB2402","rubriek":"landbouwgebied","FID":"landbouwgebied_gegeneraliseerd_2014.09319a0a-6c8e-4572-9b75-6e6647afc2d8"},"id":"LB2402"},{"arcs":[[-63,-75,83,84,85,86]],"type":"Polygon","properties":{"id":175380,"statcode":"LB2501","statnaam":"Oostelijke Veluwe","jrstatcode":"2014LB2501","rubriek":"landbouwgebied","FID":"landbouwgebied_gegeneraliseerd_2014.045e7b69-102a-4d31-bfc0-297692e975d3"},"id":"LB2501"},{"arcs":[[-84,-74,87,88,89]],"type":"Polygon","properties":{"id":175381,"statcode":"LB2502","statnaam":"IJsselstreek","jrstatcode":"2014LB2502","rubriek":"landbouwgebied","FID":"landbouwgebied_gegeneraliseerd_2014.a707ff36-a6ca-4991-9eb0-3e9ad4109921"},"id":"LB2502"},{"arcs":[[90,-89,91,92,93,94,95,96,97]],"type":"Polygon","properties":{"id":175382,"statcode":"LB2503","statnaam":"Zuidelijk Gelderland","jrstatcode":"2014LB2503","rubriek":"landbouwgebied","FID":"landbouwgebied_gegeneraliseerd_2014.acf001bf-3fbd-48ec-a357-4443081a1bf2"},"id":"LB2503"},{"arcs":[[98,-98]],"type":"Polygon","properties":{"id":175383,"statcode":"LB2504","statnaam":"Oostelijke Betuwe en Nijmegen","jrstatcode":"2014LB2504","rubriek":"landbouwgebied","FID":"landbouwgebied_gegeneraliseerd_2014.6ada301b-ddcc-42c5-94e1-1bcc08f6ea25"},"id":"LB2504"},{"arcs":[[-91,-99,-97,99,100,101,102,103,104,-85,-90]],"type":"Polygon","properties":{"id":175384,"statcode":"LB2505","statnaam":"Veluwezoom en Betuwe","jrstatcode":"2014LB2505","rubriek":"landbouwgebied","FID":"landbouwgebied_gegeneraliseerd_2014.ee4c2569-89c0-4bbf-9d76-dc452a67bb11"},"id":"LB2505"},{"arcs":[[-96,105,106,107,-100]],"type":"Polygon","properties":{"id":175385,"statcode":"LB2506","statnaam":"Bommelerwaard","jrstatcode":"2014LB2506","rubriek":"landbouwgebied","FID":"landbouwgebied_gegeneraliseerd_2014.fc3643aa-c9a6-45c3-9442-e4cc181ee1d7"},"id":"LB2506"},{"arcs":[[108,109,-86,-105,110]],"type":"Polygon","properties":{"id":175386,"statcode":"LB2507","statnaam":"Westelijke Veluwe","jrstatcode":"2014LB2507","rubriek":"landbouwgebied","FID":"landbouwgebied_gegeneraliseerd_2014.478abc12-cd06-4a72-8b5e-078ab444b4fe"},"id":"LB2507"},{"arcs":[[-92,-88,-73,-70,111]],"type":"Polygon","properties":{"id":175387,"statcode":"LB2508","statnaam":"Achterhoek","jrstatcode":"2014LB2508","rubriek":"landbouwgebied","FID":"landbouwgebied_gegeneraliseerd_2014.250db2c3-f39f-4e42-9774-528cc1006a4c"},"id":"LB2508"},{"arcs":[[112,113,114,-103,115,116]],"type":"Polygon","properties":{"id":175388,"statcode":"LB2601","statnaam":"Kromme Rijn-streek en Heuvelrug","jrstatcode":"2014LB2601","rubriek":"landbouwgebied","FID":"landbouwgebied_gegeneraliseerd_2014.2326e7a2-dc10-451a-830b-e9c0a0ac2481"},"id":"LB2601"},{"arcs":[[117,-116,-102,118,119,120,121,122,123,124,125,-113]],"type":"Polygon","properties":{"id":175389,"statcode":"LB2602","statnaam":"Westelijk Weidegebied in Utrecht","jrstatcode":"2014LB2602","rubriek":"landbouwgebied","FID":"landbouwgebied_gegeneraliseerd_2014.e43de121-4c46-4961-91cb-4f68802fd550"},"id":"LB2602"},{"arcs":[[-117,-118]],"type":"Polygon","properties":{"id":175390,"statcode":"LB2603","statnaam":"Centraal Tuinbouwgebied in Utrecht","jrstatcode":"2014LB2603","rubriek":"landbouwgebied","FID":"landbouwgebied_gegeneraliseerd_2014.b3a4a8f3-715c-4b2c-ae80-6c314cd068f9"},"id":"LB2603"},{"arcs":[[-126,126,127,-109,128,-114]],"type":"Polygon","properties":{"id":175391,"statcode":"LB2604","statnaam":"Eemland","jrstatcode":"2014LB2604","rubriek":"landbouwgebied","FID":"landbouwgebied_gegeneraliseerd_2014.fb6b958f-3c0d-484f-b4a1-3fe277448238"},"id":"LB2604"},{"arcs":[[-104,-115,-129,-111]],"type":"Polygon","properties":{"id":175392,"statcode":"LB2605","statnaam":"Zandgebied in Utrecht","jrstatcode":"2014LB2605","rubriek":"landbouwgebied","FID":"landbouwgebied_gegeneraliseerd_2014.053d4890-7253-4ff7-8674-a1248082eaa1"},"id":"LB2605"},{"arcs":[[129,130,131]],"type":"Polygon","properties":{"id":175393,"statcode":"LB2701","statnaam":"Wieringen en Wieringermeer","jrstatcode":"2014LB2701","rubriek":"landbouwgebied","FID":"landbouwgebied_gegeneraliseerd_2014.c0f58fee-7cc1-40df-969c-c351575ce372"},"id":"LB2701"},{"arcs":[[133,134,135,136,137]],"type":"Polygon","properties":{"id":175394,"statcode":"LB2702","statnaam":"Haarlemmermeer","jrstatcode":"2014LB2702","rubriek":"landbouwgebied","FID":"landbouwgebied_gegeneraliseerd_2014.263604f7-5277-479d-9971-967da9162778"},"id":"LB2702"},{"arcs":[[138,-122,139,-136,140]],"type":"Polygon","properties":{"id":175395,"statcode":"LB2703","statnaam":"Amstelland en Aalsmeer","jrstatcode":"2014LB2703","rubriek":"landbouwgebied","FID":"landbouwgebied_gegeneraliseerd_2014.6ef0e90e-477d-4503-bd85-bb017ceccb95"},"id":"LB2703"},{"arcs":[[[-131,141,142,143]],[[144]]],"type":"MultiPolygon","properties":{"id":175396,"statcode":"LB2704","statnaam":"Texel en Land van Zijpe","jrstatcode":"2014LB2704","rubriek":"landbouwgebied","FID":"landbouwgebied_gegeneraliseerd_2014.e3271e3b-ba70-4b60-b655-d7228cda6483"},"id":"LB2704"},{"arcs":[[145,146,-142,-130,147]],"type":"Polygon","properties":{"id":175397,"statcode":"LB2705","statnaam":"West-Friesland en omgeving","jrstatcode":"2014LB2705","rubriek":"landbouwgebied","FID":"landbouwgebied_gegeneraliseerd_2014.c9af3efb-640a-4fbc-8912-99aef92e5e40"},"id":"LB2705"},{"arcs":[[[-146,149,150,-141,-135,151]],[[152,-124]]],"type":"MultiPolygon","properties":{"id":175398,"statcode":"LB2706","statnaam":"Waterland en N.-Hollandse Droogmakerijen","jrstatcode":"2014LB2706","rubriek":"landbouwgebied","FID":"landbouwgebied_gegeneraliseerd_2014.82fb9968-84be-4273-9948-941bab96f1ba"},"id":"LB2706"},{"arcs":[[-127,-125,-153,-123,-139,-151,153]],"type":"Polygon","properties":{"id":175399,"statcode":"LB2707","statnaam":"'t Gein en Gooiland","jrstatcode":"2014LB2707","rubriek":"landbouwgebied","FID":"landbouwgebied_gegeneraliseerd_2014.16176016-a35a-4977-b324-eb8857d88a70"},"id":"LB2707"},{"arcs":[[-147,-152,-134,154,155,-143]],"type":"Polygon","properties":{"id":175400,"statcode":"LB2708","statnaam":"Kennemerland","jrstatcode":"2014LB2708","rubriek":"landbouwgebied","FID":"landbouwgebied_gegeneraliseerd_2014.2007e389-a8e1-45a3-b402-2d55477b506a"},"id":"LB2708"},{"arcs":[[156,157,158,159,160,161,162,163]],"type":"Polygon","properties":{"id":175401,"statcode":"LB2801","statnaam":"Voorne-Putten en Hoeksche Waard","jrstatcode":"2014LB2801","rubriek":"landbouwgebied","FID":"landbouwgebied_gegeneraliseerd_2014.a895d98f-4f94-423a-bac4-3eaf5b2d47b6"},"id":"LB2801"},{"arcs":[[166,167,-159,168,169]],"type":"Polygon","properties":{"id":175402,"statcode":"LB2802","statnaam":"Rotterdam en omgeving","jrstatcode":"2014LB2802","rubriek":"landbouwgebied","FID":"landbouwgebied_gegeneraliseerd_2014.de64c6e5-bfc7-451c-9832-a7481c8dbc8c"},"id":"LB2802"},{"arcs":[[170,171,172,173,174,175,176]],"type":"Polygon","properties":{"id":175403,"statcode":"LB2803","statnaam":"Goeree-Overflakkee","jrstatcode":"2014LB2803","rubriek":"landbouwgebied","FID":"landbouwgebied_gegeneraliseerd_2014.83543620-7d90-4b0b-a794-85b5c74d7e4d"},"id":"LB2803"},{"arcs":[[-137,-140,-121,177,178,179,180]],"type":"Polygon","properties":{"id":175404,"statcode":"LB2804","statnaam":"Westelijk Rijnland","jrstatcode":"2014LB2804","rubriek":"landbouwgebied","FID":"landbouwgebied_gegeneraliseerd_2014.db0cabbc-a809-4593-adae-40988ab520fc"},"id":"LB2804"},{"arcs":[[181,182,-179]],"type":"Polygon","properties":{"id":175405,"statcode":"LB2805","statnaam":"Boskoop en Rijneveld","jrstatcode":"2014LB2805","rubriek":"landbouwgebied","FID":"landbouwgebied_gegeneraliseerd_2014.5384568e-e69a-4b75-b715-ee822bbada10"},"id":"LB2805"},{"arcs":[[-182,-178,-120,183,-167,184]],"type":"Polygon","properties":{"id":175406,"statcode":"LB2806","statnaam":"Krimpenerwaard en Oostelijk Rijnland","jrstatcode":"2014LB2806","rubriek":"landbouwgebied","FID":"landbouwgebied_gegeneraliseerd_2014.d346b0e5-2b4f-48c4-a949-63e6526ffc46"},"id":"LB2806"},{"arcs":[[-108,185,186,-160,-168,-184,-119,-101]],"type":"Polygon","properties":{"id":175407,"statcode":"LB2807","statnaam":"Alblasserwaard en Vijfherenlanden","jrstatcode":"2014LB2807","rubriek":"landbouwgebied","FID":"landbouwgebied_gegeneraliseerd_2014.b6308e31-51e7-430a-8071-60733492f3e1"},"id":"LB2807"},{"arcs":[[187,188,-155,-138,-181]],"type":"Polygon","properties":{"id":175408,"statcode":"LB2808","statnaam":"Bollenstreek","jrstatcode":"2014LB2808","rubriek":"landbouwgebied","FID":"landbouwgebied_gegeneraliseerd_2014.e77d9235-b27e-4b0f-8139-80b858cc78d4"},"id":"LB2808"},{"arcs":[[189,-188,-180,-183,-185,-170]],"type":"Polygon","properties":{"id":175409,"statcode":"LB2809","statnaam":"Westland en Zuidhollandse Droogmakerijen","jrstatcode":"2014LB2809","rubriek":"landbouwgebied","FID":"landbouwgebied_gegeneraliseerd_2014.bd0c6e4e-6271-4ed6-91a4-8a58137b972a"},"id":"LB2809"},{"arcs":[[[190,191,-175,192,-173,193]],[[194,195,196,197]],[[198,199,200,201,202,203]]],"type":"MultiPolygon","properties":{"id":175410,"statcode":"LB2901","statnaam":"Noordelijk Zeeland","jrstatcode":"2014LB2901","rubriek":"landbouwgebied","FID":"landbouwgebied_gegeneraliseerd_2014.08082ff3-1dcf-4c6f-b44e-c9d9982b8fcf"},"id":"LB2901"},{"arcs":[[[-197,206,207,-199,208,-203,209]],[[-191,210,-201,211]]],"type":"MultiPolygon","properties":{"id":175411,"statcode":"LB2902","statnaam":"Walcheren en Zuid-Beveland","jrstatcode":"2014LB2902","rubriek":"landbouwgebied","FID":"landbouwgebied_gegeneraliseerd_2014.5f543024-8d13-4f0a-ae7f-d8358e2f7570"},"id":"LB2902"},{"arcs":[[213]],"type":"Polygon","properties":{"id":175412,"statcode":"LB2903","statnaam":"Zeeuwsch-Vlaanderen","jrstatcode":"2014LB2903","rubriek":"landbouwgebied","FID":"landbouwgebied_gegeneraliseerd_2014.52c6aa39-ee58-475b-9bc8-948dd342b86f"},"id":"LB2903"},{"arcs":[[214,215,216,-195,217,-163]],"type":"Polygon","properties":{"id":175413,"statcode":"LB3001","statnaam":"Noordwesthoek","jrstatcode":"2014LB3001","rubriek":"landbouwgebied","FID":"landbouwgebied_gegeneraliseerd_2014.2fa87650-f836-4df1-9ecc-faee3d3e344a"},"id":"LB3001"},{"arcs":[[220,-215,-162,221,222,223]],"type":"Polygon","properties":{"id":175414,"statcode":"LB3002","statnaam":"Westelijke Langstraat","jrstatcode":"2014LB3002","rubriek":"landbouwgebied","FID":"landbouwgebied_gegeneraliseerd_2014.a5c27196-f094-4719-a483-88b9b4fa7023"},"id":"LB3002"},{"arcs":[[-222,-161,-187,224]],"type":"Polygon","properties":{"id":175415,"statcode":"LB3003","statnaam":"Biesbosch","jrstatcode":"2014LB3003","rubriek":"landbouwgebied","FID":"landbouwgebied_gegeneraliseerd_2014.c11825c7-4a5a-4d76-a54f-206d064e4794"},"id":"LB3003"},{"arcs":[[-225,-186,-107,225,226,227,-223]],"type":"Polygon","properties":{"id":175416,"statcode":"LB3004","statnaam":"Oostelijke Langstraat","jrstatcode":"2014LB3004","rubriek":"landbouwgebied","FID":"landbouwgebied_gegeneraliseerd_2014.fbf8bbde-5b3f-465e-b01a-53abe5ea4de3"},"id":"LB3004"},{"arcs":[[-196,-217,228,229,-207]],"type":"Polygon","properties":{"id":175417,"statcode":"LB3005","statnaam":"Westelijke Zandgronden","jrstatcode":"2014LB3005","rubriek":"landbouwgebied","FID":"landbouwgebied_gegeneraliseerd_2014.7661f368-7e60-401f-ac25-a1115015a40c"},"id":"LB3005"},{"arcs":[[-229,-216,-221,230,231,232]],"type":"Polygon","properties":{"id":175418,"statcode":"LB3006","statnaam":"Land van Breda","jrstatcode":"2014LB3006","rubriek":"landbouwgebied","FID":"landbouwgebied_gegeneraliseerd_2014.b26ec235-c7c6-4d7f-b8dd-6a627a83e472"},"id":"LB3006"},{"arcs":[[233,-232,234]],"type":"Polygon","properties":{"id":175419,"statcode":"LB3007","statnaam":"De Kempen","jrstatcode":"2014LB3007","rubriek":"landbouwgebied","FID":"landbouwgebied_gegeneraliseerd_2014.55222437-c3e4-42b6-af88-6351758e2e80"},"id":"LB3007"},{"arcs":[[-231,-224,-228,235,236,-235]],"type":"Polygon","properties":{"id":175420,"statcode":"LB3008","statnaam":"Midden-Noord-Brabant","jrstatcode":"2014LB3008","rubriek":"landbouwgebied","FID":"landbouwgebied_gegeneraliseerd_2014.f109bfd6-97ec-439d-847e-ae26883202ed"},"id":"LB3008"},{"arcs":[[-226,-106,-95,237,238]],"type":"Polygon","properties":{"id":175421,"statcode":"LB3009","statnaam":"Maaskant en Land van Cuijk","jrstatcode":"2014LB3009","rubriek":"landbouwgebied","FID":"landbouwgebied_gegeneraliseerd_2014.4f9a2578-28ee-40a9-97e0-a5e4c09f1762"},"id":"LB3009"},{"arcs":[[239,240,-236,-227,-239]],"type":"Polygon","properties":{"id":175422,"statcode":"LB3010","statnaam":"Westelijk Peelgebied","jrstatcode":"2014LB3010","rubriek":"landbouwgebied","FID":"landbouwgebied_gegeneraliseerd_2014.8d54a356-c001-4dc3-ae0c-5f376912a34c"},"id":"LB3010"},{"arcs":[[-238,-94,241,242,243,-240]],"type":"Polygon","properties":{"id":175423,"statcode":"LB3101","statnaam":"Noord-Limburg","jrstatcode":"2014LB3101","rubriek":"landbouwgebied","FID":"landbouwgebied_gegeneraliseerd_2014.f4db7583-8b43-4543-8298-aae350716a03"},"id":"LB3101"},{"arcs":[[-243,244]],"type":"Polygon","properties":{"id":175424,"statcode":"LB3102","statnaam":"Zuid-Limburg","jrstatcode":"2014LB3102","rubriek":"landbouwgebied","FID":"landbouwgebied_gegeneraliseerd_2014.c54e02ae-a7ac-40bb-86d6-29a325030611"},"id":"LB3102"}]}}}