{"type":"Topology","arcs":[[[2934,2588],[-5,4],[-27,7],[-11,0],[-15,-5],[-1,16],[-53,36],[15,12],[61,7],[50,-22],[76,24],[164,15]],[[3188,2682],[2,-6]],[[3190,2676],[-32,0],[-9,-26],[-37,-17],[15,-39],[-38,-19],[-93,-11],[-37,5],[-25,19]],[[2874,2506],[0,1]],[[2874,2507],[22,32],[25,14],[8,38]],[[2929,2591],[5,-3]],[[3190,2676],[-25,-41],[34,-15],[19,-23],[29,-10],[15,-23],[70,-16],[19,12],[36,-3],[28,-24]],[[3415,2533],[-129,-48],[23,-33]],[[3309,2452],[-10,-21],[33,-31],[5,-29]],[[3337,2371],[-60,-15],[-21,30],[-49,22],[-17,23],[-33,17]],[[3157,2448],[-52,2]],[[3105,2450],[-34,24],[-85,28],[-66,-7],[-46,11]],[[3415,2533],[41,15],[-10,18],[35,15],[-14,27],[-24,8],[-24,32],[67,24],[30,-14]],[[3516,2658],[14,-12],[9,-40],[39,-30],[90,-23],[60,-5],[-7,-33],[13,-9],[113,-19],[13,-39],[-39,-59],[24,-26],[1,-57]],[[3846,2306],[-74,-17],[-27,22],[-69,4],[-19,7],[28,30],[-15,14],[-40,0],[-102,13],[-83,-5],[18,58],[-103,-9],[-35,28],[-16,1]],[[3735,2088],[-53,35],[-25,0],[31,43],[-31,9],[-79,68],[-159,102]],[[3419,2345],[-39,24],[-43,2]],[[3846,2306],[9,-45],[-31,-69],[-78,-78],[-11,-26]],[[3105,2450],[-55,-22],[-27,-30],[-37,-61],[-29,7]],[[2957,2344],[-53,20],[-57,2],[-29,19],[1,32],[23,31],[30,20],[-12,24],[14,14]],[[3188,2682],[109,25],[88,9],[56,-11],[14,8],[69,-23],[-8,-32]],[[2994,2752],[0,9]],[[2994,2761],[0,-9]],[[2474,2493],[-17,-17],[-40,0],[-10,14],[-35,-5],[15,-37],[-7,-25],[-45,7],[-40,-14],[-63,12],[-11,-15],[26,-19],[-39,-14],[-38,16],[-25,-8],[-68,15],[-23,-1]],[[2054,2402],[17,45],[19,23],[35,20],[44,17],[60,44],[95,23],[186,57],[61,6],[95,17],[70,4],[45,-5],[23,-38],[72,-23],[20,6],[33,-7]],[[2874,2507],[-38,13],[-53,-6],[-97,-20],[10,47],[19,1],[3,32],[-54,0],[-1,-15],[-45,-2],[-12,16],[-103,-35],[-28,-20],[-1,-25]],[[2034,2305],[-13,53],[25,14],[8,30]],[[2474,2493],[49,-18],[-23,-21],[4,-33],[64,-2],[-17,-24],[35,-23],[-10,-13],[-52,-2],[-12,-26],[63,-3],[14,-15],[-4,-22],[-55,-26],[-1,-40],[47,-60],[-48,-21],[-29,-23],[-37,-54]],[[2462,2067],[-25,-10]],[[2437,2057],[-46,33],[-36,-2]],[[2355,2088],[-56,7],[-12,15],[-60,-11],[-40,-16],[-66,18],[-64,-1],[-61,36],[52,24],[-5,29],[10,29],[-12,23],[10,31],[-17,33]],[[1809,2249],[-1,1]],[[1808,2250],[1,-1]],[[2762,2104],[-89,-39],[-45,7],[-14,20],[-41,-7],[-7,-11],[-45,-23],[-40,5],[-19,11]],[[2957,2344],[-10,-13],[63,-14],[-5,-33],[50,-48]],[[3055,2236],[15,-14],[-34,-39],[-25,-11]],[[3011,2172],[-36,-16],[-30,19],[-46,3],[-50,-37],[-87,-37]],[[1899,2623],[-36,-9],[-39,-19],[-30,9],[42,40],[171,26],[123,26],[43,4],[10,-17],[-59,-14],[-16,-13],[-68,-2],[-41,-16],[-63,-17],[-37,2]],[[2373,2709],[165,8],[-3,-15],[-88,-14],[-75,5],[-67,-22],[-37,11],[-11,22],[20,16],[96,-11]],[[2994,2752],[-76,-12],[-20,-11],[-96,-7],[-30,7],[23,22],[106,4],[93,6]],[[1736,2546],[-32,-3],[-90,-28],[14,-15],[-76,-36],[-56,9],[71,28],[52,29],[89,28],[28,-12]],[[3157,2448],[21,-30],[3,-35],[-59,-12],[33,-49],[-17,-41],[10,-21],[-93,-24]],[[3357,2118],[13,-14],[-53,-57],[-14,4],[-74,-65],[-29,9],[8,21],[-53,-4],[-22,9],[1,22],[-37,8]],[[3097,2051],[25,36],[-19,16],[-30,-3],[-11,32],[-60,13],[9,27]],[[3419,2345],[-78,-30],[-27,0],[-30,-19],[7,-20],[-33,-18],[-20,-35],[-31,-28],[21,-26],[81,-10],[19,-34],[29,-7]],[[3097,2051],[-8,-24],[-37,-12],[13,-22],[-16,-36],[44,0],[35,-13],[14,-20],[31,-2],[-2,-17]],[[3171,1905],[-15,-8],[5,-33],[-87,14],[-46,-15],[-21,30],[-37,16]],[[2970,1909],[-39,4],[-45,16],[-42,6],[-38,-5],[-43,70],[36,13],[45,31],[-82,60]],[[3357,2118],[21,11],[30,-29],[84,-45],[-18,-25],[8,-19],[-14,-30],[24,-34],[12,-47]],[[3504,1900],[-85,2],[-35,-7],[-32,-17]],[[3352,1878],[-1,21],[-94,25],[-62,-8],[-24,-11]],[[3735,2088],[-21,-28],[-17,-163],[-13,-14],[-66,13],[-37,-8],[-42,13],[-35,-1]],[[2486,1861],[61,8],[28,-4],[56,14],[18,22],[-73,24],[31,19],[-22,21],[-21,36],[-72,34],[-31,0],[-24,22]],[[2970,1909],[-25,-62],[17,2],[41,-75],[-29,-12],[12,-30],[-1,-25],[28,-7],[10,-20]],[[3023,1680],[-46,-6],[-43,11],[-14,22],[-41,9],[-93,2],[-4,-26],[-30,-1]],[[2752,1691],[-10,29],[-72,40],[-63,-34],[-40,-2],[-42,45],[-17,0]],[[2508,1769],[-11,25]],[[2497,1794],[0,1]],[[2497,1795],[-23,55],[12,11]],[[3352,1878],[17,-13],[-8,-26],[48,-25],[-41,-2],[-10,-14],[-35,5],[24,-32],[-7,-35]],[[3340,1736],[-29,9],[-27,-24],[-136,20],[-2,-9],[-53,-14],[-13,-24],[-47,-16]],[[3033,1678],[-10,2]],[[3340,1736],[77,-26],[79,0],[8,-9],[80,-16],[52,30],[17,-36],[25,-26],[19,-2],[17,-28],[-15,-35],[-31,-46],[16,-36],[19,-21],[-42,-10],[-30,2],[-38,-46],[-40,-4],[-29,-21],[-26,-36],[-95,-2]],[[3403,1368],[-45,-1],[-54,12],[10,36],[-81,17],[-36,-5],[-76,6],[-50,40],[-12,19]],[[3059,1492],[68,33],[67,19],[-34,31],[-96,1],[-66,-8],[-22,33],[9,19],[45,10],[17,36],[-14,12]],[[2808,1481],[-42,21],[6,9],[-28,40],[-18,1],[-10,29]],[[2716,1581],[10,41],[31,5],[12,23],[-16,8],[-1,33]],[[3059,1492],[-66,0],[-12,-15],[-41,-1],[-132,5]],[[2486,1861],[-181,2],[-47,38],[-23,10],[2,102],[65,65],[53,10]],[[2256,1615],[-2,-1]],[[2254,1614],[-48,4],[-27,-21],[15,-26],[-23,-45],[-117,-23],[-95,51],[-54,20],[-68,12],[-46,-7],[-14,9],[-6,45],[33,17],[96,35],[177,76],[1,20],[21,23],[44,2],[56,36],[83,16],[16,-11],[103,-15],[55,-5],[41,-32]],[[2497,1794],[-7,-50],[-43,-48],[-59,-32],[-24,3],[-61,-19],[-36,-18],[-11,-15]],[[2651,1323],[-63,4]],[[2588,1327],[5,22],[-67,6],[-19,20],[-5,23],[-50,3],[-17,46],[-42,-3],[-25,49],[35,5],[-11,20],[93,-1],[9,13],[-11,24],[40,31],[-16,25],[-53,43],[-41,-8],[-14,12]],[[2399,1657],[53,28],[30,31],[26,53]],[[2716,1581],[-21,-5],[-18,-31],[8,-16],[-14,-30],[18,-29],[17,-63],[14,-19],[-26,-14],[-43,-51]],[[2732,1217],[-28,14],[-72,-8]],[[2632,1223],[-29,14],[35,38],[-18,28],[31,20]],[[2808,1481],[19,-26],[-29,-11],[35,-16],[-9,-26],[8,-38],[23,-4],[5,-21],[32,-2],[12,-24],[-4,-41],[34,-30],[-42,-17],[-105,4],[-55,-12]],[[2598,1197],[11,24],[23,2]],[[2732,1217],[2,-38],[62,-25]],[[2796,1154],[-29,-7],[20,-28],[22,-9],[0,-20],[-77,11],[-35,1],[-53,-21],[-39,5],[-18,-14],[34,-25],[11,-32],[-37,-18]],[[2595,997],[-38,5],[-21,25],[-29,-21]],[[2507,1006],[-96,-5],[-24,7],[-60,32],[-22,4],[-26,24],[-49,11],[-48,-14],[-50,14],[-25,-19],[-50,10]],[[2057,1070],[-14,17]],[[2043,1087],[44,46],[63,6],[61,12],[127,-7],[121,-25]],[[2459,1119],[0,-20],[-30,-9],[-16,-18],[39,-32],[27,15],[48,3],[18,18],[-18,21],[2,17],[38,9],[33,-19],[23,4],[41,37],[-34,17],[-32,35]],[[2459,1119],[13,24],[45,3],[27,36],[30,26],[24,-11]],[[2043,1087],[-41,-33],[-64,19],[-96,-13],[-29,6],[-44,-2],[-30,10],[-70,-6]],[[1669,1068],[4,22],[22,30],[60,17],[36,45]],[[1791,1182],[31,35]],[[1822,1217],[33,-7],[32,17],[25,-12],[48,-11],[30,13],[43,3]],[[2033,1220],[39,12],[57,1],[66,-26],[53,-15],[20,31],[-20,20]],[[2248,1243],[31,-2],[96,9],[12,19],[68,4],[37,28],[49,-2],[47,28]],[[2057,1070],[-46,-31],[-15,-34]],[[1996,1005],[-59,-19],[-50,-3],[-24,10],[-93,-6],[9,35],[-36,14],[-33,-7],[-20,18],[-47,23]],[[1643,1070],[26,-2]],[[2124,1401],[-42,20],[-1,31],[-46,19],[11,26]],[[2046,1497],[124,17],[39,55],[45,28],[0,17]],[[2256,1615],[39,0],[104,42]],[[2248,1243],[-20,18],[1,19],[-29,18],[5,29],[-24,20],[-16,-20],[-39,-8],[14,60],[-16,22]],[[3403,1368],[-10,-34],[-16,-10],[-40,-5],[-7,-30],[65,-12],[74,-34],[2,-30],[-30,-5],[-5,-24],[-24,-19],[-48,-20],[-29,19],[-146,-31],[-74,-30],[-22,11],[-60,9],[18,-22],[-20,-19],[-44,18],[-39,-2],[-8,17],[-83,2],[-61,37]],[[1835,1335],[38,31],[-6,50]],[[1867,1416],[18,4],[21,-46],[47,-16]],[[1953,1358],[21,-25],[8,-25],[73,-30],[72,27],[-8,-34],[-31,-24],[-46,-10],[-9,-17]],[[1822,1217],[-32,7],[-28,25],[7,55]],[[1769,1304],[31,3],[2,20],[33,8]],[[1791,1182],[-61,17],[-34,27],[-33,-7],[-28,6],[-22,-16],[-27,4],[-32,-22],[-34,-4]],[[1520,1187],[-18,30],[-57,46],[27,36],[37,13],[-41,12],[-1,32],[-33,15],[40,22],[43,-5],[-8,36]],[[1509,1424],[-54,28],[-18,25]],[[1437,1477],[48,8],[27,18]],[[1512,1503],[41,0],[44,25]],[[1597,1528],[67,24]],[[1664,1552],[21,-19],[-15,-16],[30,-32],[-21,-10],[-2,-38],[11,-21]],[[1688,1416],[-76,-45],[35,-34],[13,-26],[33,-32],[20,32],[56,-7]],[[1835,1335],[-32,9],[-13,25],[-41,13],[-12,23],[20,25]],[[1757,1430],[77,-2],[24,26]],[[1858,1454],[-4,-28],[13,-10]],[[1688,1416],[69,14]],[[2124,1401],[-58,7],[-26,-25],[-42,3],[-45,-28]],[[1858,1454],[7,21],[43,57],[40,-5]],[[1948,1527],[51,-7],[47,-23]],[[1746,2024],[-70,-22],[-88,2],[-36,50]],[[1552,2054],[-18,44],[18,24],[-33,16]],[[1519,2138],[62,17],[29,25],[70,3],[76,-87],[-10,-72]],[[1809,2249],[-1,1]],[[1312,1481],[-37,-15],[-79,6]],[[1196,1472],[14,47],[20,11],[24,34]],[[1254,1564],[18,23],[43,14],[5,26]],[[1320,1627],[54,9],[23,-6],[1,-23],[63,-32]],[[1461,1575],[-2,-14],[-34,-26],[-57,-22],[-56,-32]],[[1437,1477],[-72,-10],[1,15],[-54,-1]],[[1461,1575],[90,-6]],[[1551,1569],[-30,-40],[-9,-26]],[[1552,2054],[-120,4],[-39,-20],[-47,-55],[17,-36],[21,-16]],[[1384,1931],[10,-10],[-62,-47],[-17,-33],[-63,-17]],[[1252,1824],[28,138],[15,53],[23,36],[33,83],[5,48],[17,31],[48,2],[23,-11],[-11,-18],[16,-23],[70,-25]],[[1519,2412],[30,-26],[-10,-58],[-50,-44],[-28,-5],[-46,-31],[-57,-12],[-7,30],[5,31],[26,41],[83,79],[40,14],[14,-19]],[[1339,2223],[-40,-14],[-8,18],[48,-4]],[[1662,1862],[-15,-14],[-55,-3],[-2,18],[-64,0],[-3,21],[-42,12],[-9,-13],[-38,6]],[[1434,1889],[-18,9],[5,28],[-37,5]],[[1746,2024],[51,-33],[38,14],[65,-2],[25,-11],[5,-27],[16,-10],[-58,-19],[-10,-29],[-38,-20],[-70,-17],[-46,22],[-63,-12],[1,-18]],[[1662,1862],[11,-44],[55,-64],[-47,-39],[10,-26],[33,-2],[-57,-48],[-64,-25],[51,-20]],[[1654,1594],[-46,10],[-16,-15],[-43,-9],[2,-11]],[[1320,1627],[-1,33],[31,28],[-33,17],[40,38],[-23,18],[2,34],[25,7],[59,-18],[4,23],[-37,10],[21,41],[26,31]],[[1597,1528],[-25,29],[48,24],[44,-29]],[[1654,1594],[18,-10],[47,6],[57,-12],[34,-24],[78,7],[52,-17],[8,-17]],[[1254,1564],[-48,-5],[-70,19]],[[1136,1578],[58,90],[14,50],[25,39],[19,67]],[[638,1165],[68,16],[44,4],[54,-9],[53,-28],[24,-26],[28,-8],[69,-1],[37,-21],[41,0],[36,-11],[99,0],[18,-19],[54,-12],[51,20]],[[1314,1070],[79,1],[37,-7],[97,2]],[[1527,1066],[-49,-19],[-54,-2],[-27,-14],[-18,-26],[-61,-31]],[[1318,974],[-31,-6]],[[1287,968],[-1,0]],[[1286,968],[-25,4],[-31,-12],[-59,-10],[-40,10],[-72,8],[-68,24],[-100,23],[-10,20],[-57,19],[-26,18],[-37,0],[-53,20],[-35,47],[25,26],[-16,8],[-44,-8]],[[1192,1156],[69,-17]],[[1261,1139],[51,-48],[2,-21]],[[638,1165],[19,34],[-8,22],[40,22],[47,-9],[33,16]],[[769,1250],[20,-20],[81,-33],[30,-19],[35,-8],[71,40],[30,2],[34,13],[19,-13],[23,17],[43,-18],[81,32],[-4,-25],[-28,-12],[4,-31],[-16,-19]],[[1046,948],[-9,-5]],[[1037,943],[-27,2],[-12,-25],[-75,-17],[-45,6],[-47,23],[-32,-1]],[[799,931],[-2,1]],[[797,932],[0,14],[-44,11],[-61,4],[-32,42],[1,26],[-31,22],[-39,1],[-52,-9],[-55,-38]],[[484,1005],[-3,2]],[[481,1007],[26,28],[-8,26],[145,38],[27,-22],[34,-15],[108,-35],[22,-4],[70,-46],[66,-25],[75,-4]],[[1509,1424],[-15,-8],[-60,9],[-86,-23],[-26,11],[-61,-4]],[[1261,1409],[-46,-7],[-37,-34],[-2,-46],[23,-12]],[[1199,1310],[-52,-29],[-28,0],[-26,17],[-29,3],[-18,25],[-49,-9],[18,27]],[[1015,1344],[45,30],[49,46],[25,31],[25,16],[37,5]],[[1302,1313],[-23,10],[-80,-13]],[[1261,1409],[3,-27],[19,-35],[64,-3],[10,-14],[-55,-17]],[[1520,1187],[-46,1],[-26,-16],[-42,-8],[-40,-17],[-55,-8],[-50,0]],[[1192,1156],[83,30],[17,42],[-33,20],[60,45],[-17,20]],[[1643,1070],[-31,3]],[[1612,1073],[-34,4],[-51,-11]],[[1015,1344],[-29,3],[-40,30]],[[946,1377],[80,69],[61,68],[49,64]],[[769,1250],[20,17],[157,110]],[[799,931],[-51,-9],[-9,-25],[-26,-16],[-61,-14],[-42,-4],[-40,15],[-38,4],[-13,34],[-52,17],[-11,14],[-88,-29],[-4,-19]],[[364,899],[-3,0]],[[361,899],[1,15],[-30,13],[-10,27],[25,25],[67,13],[48,-3],[19,18]],[[484,1005],[-16,-17],[61,5],[20,-11],[66,0],[42,-46],[29,-2],[50,-17],[14,9],[47,6]],[[879,883],[-39,-16],[-7,-21],[45,-47]],[[878,799],[-17,-37],[11,-24]],[[872,738],[-12,-2]],[[860,736],[-41,15],[-13,21],[-86,3],[-54,41],[-40,14],[91,32],[45,41],[37,7],[38,-23],[42,-4]],[[277,836],[-1,2]],[[276,838],[48,13]],[[324,851],[46,-10],[107,14],[27,-6],[36,-40],[-44,-15],[-17,11],[-32,-8],[-45,7],[-45,-20],[-80,52]],[[509,791],[-2,-1]],[[507,790],[2,1]],[[277,836],[-7,-12],[45,-28],[28,-34],[54,35],[37,-7],[29,9],[44,-9]],[[509,791],[60,2],[30,-13],[61,-13],[34,-15],[7,-27],[35,-30],[39,-14],[47,12],[41,-7],[-3,50]],[[872,738],[46,-64],[-12,-9],[16,-40]],[[922,625],[-36,-1],[-12,20],[-42,10],[-36,-10],[-92,19],[-15,12],[-72,36],[-54,-17],[-20,-50],[-89,-9],[-92,40],[-60,33],[-20,-15],[-71,-3],[-37,18],[-35,35],[-64,32],[4,15],[119,48],[25,6],[53,-6]],[[364,899],[-34,-28],[-6,-20]],[[324,851],[0,21],[37,27]],[[333,615],[29,-15],[69,-1],[53,-14],[25,0],[50,25],[37,7],[19,38],[43,-5],[35,-35],[36,-3],[49,-21],[37,9],[4,17],[30,6],[28,-26],[-68,-54],[-109,-51],[-43,2],[-57,-29],[-72,-16],[-26,11],[-70,5],[5,40],[-39,13],[-62,7],[-103,28],[-75,-17],[12,-41],[-81,-4],[-39,15],[-20,16],[-11,29],[-19,13],[27,19],[-12,42],[132,31],[39,-2],[41,-17],[106,-22]],[[879,883],[113,14],[27,11],[15,21],[33,17],[78,-15],[88,13],[53,24]],[[1287,968],[40,-53],[14,-28]],[[1341,887],[-34,-4]],[[1307,883],[-41,-10],[-64,5],[-41,-21],[-39,12],[-53,-8],[14,-53],[-63,-15],[-82,10],[-44,17],[-16,-21]],[[1046,948],[-9,-5]],[[1506,828],[-21,7],[0,31],[-24,14],[-50,-2],[-37,14],[-33,-5]],[[1318,974],[22,-3],[36,15],[30,23],[87,-4],[-4,-30],[56,-7],[43,4],[43,-6]],[[1631,966],[51,-6],[42,11],[25,-11],[-6,-34]],[[1743,926],[-52,-15],[-57,14],[-5,-21],[-29,-4],[-48,-21],[4,-32],[-50,-19]],[[1612,1073],[-14,-27],[-23,-7],[0,-35],[58,-3],[9,-15],[-11,-20]],[[1996,1005],[58,6]],[[2054,1011],[-6,-24],[24,-37]],[[2072,950],[-74,-4],[-2,-26],[-50,-5],[16,-30],[-42,-17],[-31,14],[-4,16],[-38,21],[-38,-1],[-7,-30],[-54,-3],[-5,41]],[[1307,883],[-1,-30],[18,-5],[12,-54],[-51,-27],[-18,3],[-77,-48]],[[1190,722],[-10,9],[-96,-13],[-57,-20],[-1,-28],[48,-46],[-47,-21],[-44,4],[-6,20],[-55,-2]],[[1402,751],[-31,-18],[-36,-32],[-27,-8],[4,-18],[-95,7],[-40,-10],[-5,27],[18,23]],[[1506,828],[-1,-22]],[[1505,806],[-32,-7],[-84,-35],[13,-13]],[[2059,511],[-71,14],[-10,-13],[-40,-1],[-70,7],[15,37],[-41,17],[-37,-13],[-29,5],[-2,32],[-61,46],[34,38],[-26,40],[-68,1],[-7,-29],[-73,-45],[-45,19],[-97,-8],[-3,23],[40,-9],[-3,26],[19,32],[-27,14],[-55,7]],[[1505,806],[4,-19],[44,-28],[45,9],[18,21],[131,-3],[66,-26],[53,6],[4,-18],[-18,-33],[-3,-31],[23,-9],[49,24],[55,19],[22,-7],[5,-19],[-37,-37],[30,3],[35,-33],[24,8],[21,-60],[-37,-12],[-9,-27],[29,-23]],[[2072,950],[27,-13],[-12,-24],[-49,-19],[-13,-13],[12,-26],[-14,-18],[24,-40],[42,-36],[-6,-16],[70,1],[-3,-26],[22,-12],[17,-25],[-22,-6],[1,-23],[32,1],[41,12],[40,4],[0,-33],[16,-35],[-24,-26],[-26,4],[-37,-11],[-52,-26]],[[2158,544],[-31,5],[-43,-18],[-25,-20]],[[2507,1006],[20,-29],[70,-19],[10,-56],[59,-37],[15,-32],[-7,-32],[-29,18],[-68,-16],[-97,12]],[[2480,815],[-37,12],[-14,20],[-28,-4],[-28,80],[-52,-9],[-79,43],[-19,23],[-82,14],[-26,18],[-61,-1]],[[2480,815],[15,-62],[19,-54],[59,-65],[-57,-32],[-202,-38],[-46,-42],[-7,-44],[-53,-8]],[[2208,470],[-10,46],[-40,28]],[[2595,997],[41,-10],[51,-21],[-19,-8],[11,-36],[72,-26],[-18,-41],[30,-13],[36,-27],[20,-27],[35,-26],[12,-38],[-19,-75],[21,-40],[-57,-27],[-44,-58],[-52,-32],[-5,-22],[14,-49],[57,1],[22,-24],[-69,-14],[-55,-38],[-39,-13],[-31,-40],[-29,-9],[-25,32],[-26,-15],[-10,-28]],[[2519,273],[-24,1],[-2,23],[-27,17],[-26,-5]],[[2440,309],[23,33],[-10,26],[45,26],[-31,23],[-46,-9],[-12,25],[-56,-2],[-47,4],[-19,14],[-79,21]],[[2519,273],[29,-22],[-9,-27],[58,13],[11,-8],[52,4],[0,-49],[64,-13],[-7,-32],[13,-18],[-14,-25],[-55,-1],[6,-32],[-21,-13],[24,-27],[-14,-19],[-56,7],[-57,-11],[-15,19],[-79,-14],[-30,26],[-38,-25],[-56,5],[18,21],[-9,29],[-36,12],[-17,24],[3,16],[54,35],[26,10],[36,46],[-37,8],[45,35],[10,24],[-16,9],[13,31],[25,-2]]],"transform":{"scale":[0.001,0.0009996427295462672],"translate":[3.358,50.751]},"objects":{"landbouwgebied_2004":{"type":"GeometryCollection","geometries":[{"arcs":[[0,1,2]],"type":"Polygon","properties":{"id":23758,"statcode":"LB2001","statnaam":"De Marne","jrstatcode":"2004LB2001","rubriek":"landbouwgebied","FID":"landbouwgebied_gegeneraliseerd_2004.d908c93f-273f-425a-9e25-6556e61e65a0"},"id":"LB2001"},{"arcs":[[3,4,5,-3,6,7,8,9,10,11]],"type":"Polygon","properties":{"id":23759,"statcode":"LB2002","statnaam":"Centraal weidegebied in Groningen","jrstatcode":"2004LB2002","rubriek":"landbouwgebied","FID":"landbouwgebied_gegeneraliseerd_2004.66b9e45b-c7a9-4630-b33d-c51dc739a9dc"},"id":"LB2002"},{"arcs":[[-8,12,13,14]],"type":"Polygon","properties":{"id":23760,"statcode":"LB2003","statnaam":"Oostelijke bouwstreek in Groningen","jrstatcode":"2004LB2003","rubriek":"landbouwgebied","FID":"landbouwgebied_gegeneraliseerd_2004.85233918-ead2-4f8d-8e16-804faa30f843"},"id":"LB2003"},{"arcs":[[15,16,-9,-15,17]],"type":"Polygon","properties":{"id":23761,"statcode":"LB2004","statnaam":"Westerwolde en Groninger Veenkoloni‰n","jrstatcode":"2004LB2004","rubriek":"landbouwgebied","FID":"landbouwgebied_gegeneraliseerd_2004.99d4e6d4-151d-477c-8bf3-d7a7afdbb1e7"},"id":"LB2004"},{"arcs":[[18,19,-12]],"type":"Polygon","properties":{"id":23762,"statcode":"LB2005","statnaam":"Groninger zuidelijk Westerkwartier","jrstatcode":"2004LB2005","rubriek":"landbouwgebied","FID":"landbouwgebied_gegeneraliseerd_2004.36c263ac-04c2-4f14-9d64-485d642a06fb"},"id":"LB2005"},{"arcs":[[-7,-2,20,-13]],"type":"Polygon","properties":{"id":23763,"statcode":"LB2006","statnaam":"Oostelijk Hogeland","jrstatcode":"2004LB2006","rubriek":"landbouwgebied","FID":"landbouwgebied_gegeneraliseerd_2004.f78505c4-4b87-42e1-ba20-55c05937db6c"},"id":"LB2006"},{"arcs":[[23,24,-5,25]],"type":"Polygon","properties":{"id":23764,"statcode":"LB2101","statnaam":"Noordelijk Friesland","jrstatcode":"2004LB2101","rubriek":"landbouwgebied","FID":"landbouwgebied_gegeneraliseerd_2004.419ba323-9290-431e-8250-a581d41cc1f7"},"id":"LB2101"},{"arcs":[[26,-24,27,28,29,30]],"type":"Polygon","properties":{"id":23765,"statcode":"LB2102","statnaam":"Weidestreek in Friesland","jrstatcode":"2004LB2102","rubriek":"landbouwgebied","FID":"landbouwgebied_gegeneraliseerd_2004.1c1c3b6b-45f6-4bd4-9d86-1e500a21705b"},"id":"LB2102"},{"arcs":[[33,-28,-26,-4,-20,34,35,36]],"type":"Polygon","properties":{"id":23766,"statcode":"LB2103","statnaam":"De Wouden","jrstatcode":"2004LB2103","rubriek":"landbouwgebied","FID":"landbouwgebied_gegeneraliseerd_2004.4030694a-d899-4d20-b34e-ad3eb3e28104"},"id":"LB2103"},{"arcs":[[[37]],[[38]],[[-22,39]],[[40]]],"type":"MultiPolygon","properties":{"id":23767,"statcode":"LB2104","statnaam":"Eilanden","jrstatcode":"2004LB2104","rubriek":"landbouwgebied","FID":"landbouwgebied_gegeneraliseerd_2004.0c356fe4-6914-47b5-bd1f-8ad58b5723b8"},"id":"LB2104"},{"arcs":[[-35,-19,-11,41]],"type":"Polygon","properties":{"id":23768,"statcode":"LB2201","statnaam":"Weidegebied van het Noorderveld","jrstatcode":"2004LB2201","rubriek":"landbouwgebied","FID":"landbouwgebied_gegeneraliseerd_2004.a6625121-26f8-42d3-8827-653a91878102"},"id":"LB2201"},{"arcs":[[42,43,-36,-42,-10,-17,44]],"type":"Polygon","properties":{"id":23769,"statcode":"LB2202","statnaam":"Smilde en Centraal zandgebied in Drenth","jrstatcode":"2004LB2202","rubriek":"landbouwgebied","FID":"landbouwgebied_gegeneraliseerd_2004.ebf5063a-865d-409e-bc80-b9ffcaad6334"},"id":"LB2202"},{"arcs":[[-37,-44,45,46,47]],"type":"Polygon","properties":{"id":23770,"statcode":"LB2203","statnaam":"Zuidwestelijk weidegebied in Drenthe","jrstatcode":"2004LB2203","rubriek":"landbouwgebied","FID":"landbouwgebied_gegeneraliseerd_2004.6f4fd9b6-46ef-4a3f-b059-ff5f5fb842a7"},"id":"LB2203"},{"arcs":[[48,49,50,-46,-43]],"type":"Polygon","properties":{"id":23771,"statcode":"LB2204","statnaam":"Zuidelijk zandgebied in Drenthe","jrstatcode":"2004LB2204","rubriek":"landbouwgebied","FID":"landbouwgebied_gegeneraliseerd_2004.0d6acc96-72a1-4fd8-8867-f35e09c69faa"},"id":"LB2204"},{"arcs":[[-49,-45,-16,51]],"type":"Polygon","properties":{"id":23772,"statcode":"LB2205","statnaam":"Drentse Veenkoloni‰n en Hondsrug","jrstatcode":"2004LB2205","rubriek":"landbouwgebied","FID":"landbouwgebied_gegeneraliseerd_2004.d975dea1-1d1a-467a-b8c9-e92639342f1d"},"id":"LB2205"},{"arcs":[[52,-29,-34,-48,53,54,55,56,57,58]],"type":"Polygon","properties":{"id":23773,"statcode":"LB2301","statnaam":"Weidegebied in Overijssel","jrstatcode":"2004LB2301","rubriek":"landbouwgebied","FID":"landbouwgebied_gegeneraliseerd_2004.dcf8ddb4-9fe8-4cd7-9190-6ca0ac766ed0"},"id":"LB2301"},{"arcs":[[-47,-51,59,60,61,-54]],"type":"Polygon","properties":{"id":23774,"statcode":"LB2302","statnaam":"Noordoost-Overijssel","jrstatcode":"2004LB2302","rubriek":"landbouwgebied","FID":"landbouwgebied_gegeneraliseerd_2004.d4b89823-c46f-4373-8ad3-629bad2092da"},"id":"LB2302"},{"arcs":[[-61,62,63,64]],"type":"Polygon","properties":{"id":23775,"statcode":"LB2303","statnaam":"Twente","jrstatcode":"2004LB2303","rubriek":"landbouwgebied","FID":"landbouwgebied_gegeneraliseerd_2004.c324adc0-49b7-4d9e-a79c-2a1e4e634ba0"},"id":"LB2303"},{"arcs":[[65,66,-55,-62,-65,67]],"type":"Polygon","properties":{"id":23776,"statcode":"LB2304","statnaam":"Salland","jrstatcode":"2004LB2304","rubriek":"landbouwgebied","FID":"landbouwgebied_gegeneraliseerd_2004.d51d7fe9-a1d1-4f56-b6cc-200dadac0ab9"},"id":"LB2304"},{"arcs":[[-30,-53,68]],"type":"Polygon","properties":{"id":23777,"statcode":"LB2401","statnaam":"Noordoostelijke Polder","jrstatcode":"2004LB2401","rubriek":"landbouwgebied","FID":"landbouwgebied_gegeneraliseerd_2004.8d4691a3-b74f-4d3f-b775-ffc1ffc42c70"},"id":"LB2401"},{"arcs":[[69,70,-58,71]],"type":"Polygon","properties":{"id":23778,"statcode":"LB2402","statnaam":"Zuidelijke IJsselmeerpolders","jrstatcode":"2004LB2402","rubriek":"landbouwgebied","FID":"landbouwgebied_gegeneraliseerd_2004.83363c79-0da0-4108-9f94-1001a3f6ccc3"},"id":"LB2402"},{"arcs":[[72,73,74,-56,-67,75]],"type":"Polygon","properties":{"id":23779,"statcode":"LB2501","statnaam":"Oostelijke Veluwe","jrstatcode":"2004LB2501","rubriek":"landbouwgebied","FID":"landbouwgebied_gegeneraliseerd_2004.3711b423-b61c-4658-8405-b9979b8c955f"},"id":"LB2501"},{"arcs":[[76,77,-76,-66,78]],"type":"Polygon","properties":{"id":23780,"statcode":"LB2502","statnaam":"IJsselstreek","jrstatcode":"2004LB2502","rubriek":"landbouwgebied","FID":"landbouwgebied_gegeneraliseerd_2004.e1fb1716-ce27-4ea5-aea0-bc57e51fc4cc"},"id":"LB2502"},{"arcs":[[79,-77,80,81,82,83,84,85,86]],"type":"Polygon","properties":{"id":23781,"statcode":"LB2503","statnaam":"Zuidelijk Gelderland","jrstatcode":"2004LB2503","rubriek":"landbouwgebied","FID":"landbouwgebied_gegeneraliseerd_2004.9cdfb863-3af8-4bdc-a3fe-3f7258fe9b77"},"id":"LB2503"},{"arcs":[[87,-87]],"type":"Polygon","properties":{"id":23782,"statcode":"LB2504","statnaam":"Oostelijke Betuwe en Nijmegen","jrstatcode":"2004LB2504","rubriek":"landbouwgebied","FID":"landbouwgebied_gegeneraliseerd_2004.4050677a-0c04-493b-9aad-983f79672487"},"id":"LB2504"},{"arcs":[[-78,-80,-88,-86,88,89,90,91,92,93,-73]],"type":"Polygon","properties":{"id":23783,"statcode":"LB2505","statnaam":"Veluwezoom en Betuwe","jrstatcode":"2004LB2505","rubriek":"landbouwgebied","FID":"landbouwgebied_gegeneraliseerd_2004.3c7a3610-193d-4810-8ff0-74c258bd9b81"},"id":"LB2505"},{"arcs":[[-85,94,95,96,-89]],"type":"Polygon","properties":{"id":23784,"statcode":"LB2506","statnaam":"Bommelerwaard","jrstatcode":"2004LB2506","rubriek":"landbouwgebied","FID":"landbouwgebied_gegeneraliseerd_2004.6870f809-ec0e-44d2-8897-5d8caf69ea6a"},"id":"LB2506"},{"arcs":[[97,98,-70,99,-74,-94,100]],"type":"Polygon","properties":{"id":23785,"statcode":"LB2507","statnaam":"Westelijke Veluwe","jrstatcode":"2004LB2507","rubriek":"landbouwgebied","FID":"landbouwgebied_gegeneraliseerd_2004.0021c7be-540b-4da7-88fb-e005c584e763"},"id":"LB2507"},{"arcs":[[-81,-79,-68,-64,101]],"type":"Polygon","properties":{"id":23786,"statcode":"LB2508","statnaam":"Achterhoek","jrstatcode":"2004LB2508","rubriek":"landbouwgebied","FID":"landbouwgebied_gegeneraliseerd_2004.42228bf5-cb60-442e-b4da-4b66700c33c9"},"id":"LB2508"},{"arcs":[[102,103,104,-92,105,106]],"type":"Polygon","properties":{"id":23787,"statcode":"LB2601","statnaam":"Kromme Rijn-streek en Heuvelrug","jrstatcode":"2004LB2601","rubriek":"landbouwgebied","FID":"landbouwgebied_gegeneraliseerd_2004.361f8494-1a02-4904-88cf-4ee4bffcfe7c"},"id":"LB2601"},{"arcs":[[[-106,-91,107,108,109,110,111,112,113,114]],[[115,116,117,-103]]],"type":"MultiPolygon","properties":{"id":23788,"statcode":"LB2602","statnaam":"Westelijk weidegebied in Utrecht","jrstatcode":"2004LB2602","rubriek":"landbouwgebied","FID":"landbouwgebied_gegeneraliseerd_2004.b18ee6fd-af6e-49a0-be38-44d3c1824fb0"},"id":"LB2602"},{"arcs":[[-116,-107,-115,118]],"type":"Polygon","properties":{"id":23789,"statcode":"LB2603","statnaam":"Centraal tuinbouwgebied in Utrecht","jrstatcode":"2004LB2603","rubriek":"landbouwgebied","FID":"landbouwgebied_gegeneraliseerd_2004.76612434-7767-496f-94da-a38e7f81774f"},"id":"LB2603"},{"arcs":[[119,-104,-118,120,121,-98]],"type":"Polygon","properties":{"id":23790,"statcode":"LB2604","statnaam":"Eemland","jrstatcode":"2004LB2604","rubriek":"landbouwgebied","FID":"landbouwgebied_gegeneraliseerd_2004.2ca0dd45-dbd3-4a07-b69c-9fab5341ecb9"},"id":"LB2604"},{"arcs":[[-120,-101,-93,-105]],"type":"Polygon","properties":{"id":23791,"statcode":"LB2605","statnaam":"Zandgebied in Utrecht","jrstatcode":"2004LB2605","rubriek":"landbouwgebied","FID":"landbouwgebied_gegeneraliseerd_2004.aa633d73-772b-4303-9e08-5a9fc4ceda51"},"id":"LB2605"},{"arcs":[[122,123,124]],"type":"Polygon","properties":{"id":23792,"statcode":"LB2701","statnaam":"Wieringen en Wieringermeer","jrstatcode":"2004LB2701","rubriek":"landbouwgebied","FID":"landbouwgebied_gegeneraliseerd_2004.4a25c854-803d-45c3-ba21-4805abe89baa"},"id":"LB2701"},{"arcs":[[126,127,128,129,130]],"type":"Polygon","properties":{"id":23793,"statcode":"LB2702","statnaam":"Haarlemmermeer","jrstatcode":"2004LB2702","rubriek":"landbouwgebied","FID":"landbouwgebied_gegeneraliseerd_2004.9e45b1d5-8f40-41ee-82b7-60a27d95b044"},"id":"LB2702"},{"arcs":[[131,-131,132,133,-111]],"type":"Polygon","properties":{"id":23794,"statcode":"LB2703","statnaam":"Amstelland en Aalsmeer","jrstatcode":"2004LB2703","rubriek":"landbouwgebied","FID":"landbouwgebied_gegeneraliseerd_2004.26c30020-67ed-464e-81ea-9ecb1124efdf"},"id":"LB2703"},{"arcs":[[[-124,134,135,136]],[[137]],[[138]]],"type":"MultiPolygon","properties":{"id":23795,"statcode":"LB2704","statnaam":"Texel en Land van Zijpe","jrstatcode":"2004LB2704","rubriek":"landbouwgebied","FID":"landbouwgebied_gegeneraliseerd_2004.63dfd970-2e39-449e-994d-b6497c65e127"},"id":"LB2704"},{"arcs":[[139,140,-135,-123,141]],"type":"Polygon","properties":{"id":23796,"statcode":"LB2705","statnaam":"West-Friesland en omgeving","jrstatcode":"2004LB2705","rubriek":"landbouwgebied","FID":"landbouwgebied_gegeneraliseerd_2004.fdb37855-f077-47ff-b3ae-cb453b91f129"},"id":"LB2705"},{"arcs":[[[-140,142,143,-133,-130,144]],[[145,-113]]],"type":"MultiPolygon","properties":{"id":23797,"statcode":"LB2706","statnaam":"Waterland en N.-Hollandse Droogmakerije","jrstatcode":"2004LB2706","rubriek":"landbouwgebied","FID":"landbouwgebied_gegeneraliseerd_2004.cc227388-36b2-4383-88e9-fef612b50f25"},"id":"LB2706"},{"arcs":[[-119,-114,-146,-112,-134,-144,146,-121,-117]],"type":"Polygon","properties":{"id":23798,"statcode":"LB2707","statnaam":"'t Gein en Gooiland","jrstatcode":"2004LB2707","rubriek":"landbouwgebied","FID":"landbouwgebied_gegeneraliseerd_2004.ab025c0b-3fcc-4044-aa3d-881a381a191f"},"id":"LB2707"},{"arcs":[[-129,147,148,-136,-141,-145]],"type":"Polygon","properties":{"id":23799,"statcode":"LB2708","statnaam":"Kennemerland","jrstatcode":"2004LB2708","rubriek":"landbouwgebied","FID":"landbouwgebied_gegeneraliseerd_2004.3ffaf399-8b2d-4e30-8719-50743756d719"},"id":"LB2708"},{"arcs":[[149,150,151,152,153,154]],"type":"Polygon","properties":{"id":23800,"statcode":"LB2801","statnaam":"Voorne-Putten en Hoeksche Waard","jrstatcode":"2004LB2801","rubriek":"landbouwgebied","FID":"landbouwgebied_gegeneraliseerd_2004.078e0b05-7514-47ee-99bb-9d852ccb52f9"},"id":"LB2801"},{"arcs":[[155,156,-150,157,158]],"type":"Polygon","properties":{"id":23801,"statcode":"LB2802","statnaam":"Rotterdam en omgeving","jrstatcode":"2004LB2802","rubriek":"landbouwgebied","FID":"landbouwgebied_gegeneraliseerd_2004.6c888999-d37a-49af-973e-28b0233e47b2"},"id":"LB2802"},{"arcs":[[159,160,161,162,163,164]],"type":"Polygon","properties":{"id":23802,"statcode":"LB2803","statnaam":"Goeree-Overflakkee","jrstatcode":"2004LB2803","rubriek":"landbouwgebied","FID":"landbouwgebied_gegeneraliseerd_2004.78fc5d81-271b-494c-9aa7-5bef7ef2a5b8"},"id":"LB2803"},{"arcs":[[-127,-132,-110,165,166,167,168]],"type":"Polygon","properties":{"id":23803,"statcode":"LB2804","statnaam":"Westelijk Rijnland","jrstatcode":"2004LB2804","rubriek":"landbouwgebied","FID":"landbouwgebied_gegeneraliseerd_2004.fedc7fe6-4c5c-42c8-9a18-4b40daf8dca7"},"id":"LB2804"},{"arcs":[[169,-167,170]],"type":"Polygon","properties":{"id":23804,"statcode":"LB2805","statnaam":"Boskoop en Rijneveld","jrstatcode":"2004LB2805","rubriek":"landbouwgebied","FID":"landbouwgebied_gegeneraliseerd_2004.a5019359-e819-4ed9-9c43-15fd1d14bc3d"},"id":"LB2805"},{"arcs":[[-171,-166,-109,171,-156,172]],"type":"Polygon","properties":{"id":23805,"statcode":"LB2806","statnaam":"Krimpenerwaard en Oostelijk Rijnland","jrstatcode":"2004LB2806","rubriek":"landbouwgebied","FID":"landbouwgebied_gegeneraliseerd_2004.a73b0293-5582-4fec-a507-bd7a5d971d7f"},"id":"LB2806"},{"arcs":[[-97,173,174,-151,-157,-172,-108,-90]],"type":"Polygon","properties":{"id":23806,"statcode":"LB2807","statnaam":"Alblasserwaard en Vijfherenlanden","jrstatcode":"2004LB2807","rubriek":"landbouwgebied","FID":"landbouwgebied_gegeneraliseerd_2004.04c00265-df06-46c1-bc38-8776411f6da1"},"id":"LB2807"},{"arcs":[[-128,-169,175,176,-148]],"type":"Polygon","properties":{"id":23807,"statcode":"LB2808","statnaam":"Bollenstreek","jrstatcode":"2004LB2808","rubriek":"landbouwgebied","FID":"landbouwgebied_gegeneraliseerd_2004.60f9eb75-b7fa-4979-bafe-d888f4197e07"},"id":"LB2808"},{"arcs":[[-159,177,-176,-168,-170,-173]],"type":"Polygon","properties":{"id":23808,"statcode":"LB2809","statnaam":"Westland en Zuidhollandse Droogmakerije","jrstatcode":"2004LB2809","rubriek":"landbouwgebied","FID":"landbouwgebied_gegeneraliseerd_2004.ecbcdcce-a8b6-410f-b2b9-9b0a0b84d667"},"id":"LB2809"},{"arcs":[[[-162,178,179,180,-164,181]],[[182,183,184,185]],[[186,187,188]]],"type":"MultiPolygon","properties":{"id":23809,"statcode":"LB2901","statnaam":"Noordelijk Zeeland","jrstatcode":"2004LB2901","rubriek":"landbouwgebied","FID":"landbouwgebied_gegeneraliseerd_2004.6a4134b2-43ef-439e-915b-ed0d5ced6760"},"id":"LB2901"},{"arcs":[[[-187,191,-190,192,-185,193,194]],[[-180,195,196]]],"type":"MultiPolygon","properties":{"id":23810,"statcode":"LB2902","statnaam":"Walcheren en Zuid-Beveland","jrstatcode":"2004LB2902","rubriek":"landbouwgebied","FID":"landbouwgebied_gegeneraliseerd_2004.397b191e-21d7-4a01-8f71-e6bf22945413"},"id":"LB2902"},{"arcs":[[197]],"type":"Polygon","properties":{"id":23811,"statcode":"LB2903","statnaam":"Zeeuwsch-Vlaanderen","jrstatcode":"2004LB2903","rubriek":"landbouwgebied","FID":"landbouwgebied_gegeneraliseerd_2004.2f871ebc-cc2f-49b3-9ccb-98e4db9b064a"},"id":"LB2903"},{"arcs":[[-183,198,-154,199,200,201]],"type":"Polygon","properties":{"id":23812,"statcode":"LB3001","statnaam":"Noordwesthoek","jrstatcode":"2004LB3001","rubriek":"landbouwgebied","FID":"landbouwgebied_gegeneraliseerd_2004.56cfe4af-d1ba-4a74-9016-829572149a98"},"id":"LB3001"},{"arcs":[[203,-200,-153,204,205,206]],"type":"Polygon","properties":{"id":23813,"statcode":"LB3002","statnaam":"Westelijke Langstraat","jrstatcode":"2004LB3002","rubriek":"landbouwgebied","FID":"landbouwgebied_gegeneraliseerd_2004.3a8683b6-5842-43a9-8d0c-4b70aa099600"},"id":"LB3002"},{"arcs":[[-152,-175,207,-205]],"type":"Polygon","properties":{"id":23814,"statcode":"LB3003","statnaam":"Biesbosch","jrstatcode":"2004LB3003","rubriek":"landbouwgebied","FID":"landbouwgebied_gegeneraliseerd_2004.10d2ed15-09c4-4b1d-a581-5d32436ec010"},"id":"LB3003"},{"arcs":[[-206,-208,-174,-96,208,209,210]],"type":"Polygon","properties":{"id":23815,"statcode":"LB3004","statnaam":"Oostelijke Langstraat","jrstatcode":"2004LB3004","rubriek":"landbouwgebied","FID":"landbouwgebied_gegeneraliseerd_2004.830d7ce3-0c9c-48a2-a7c6-188e84d87bcd"},"id":"LB3004"},{"arcs":[[-194,-184,-202,211,212]],"type":"Polygon","properties":{"id":23816,"statcode":"LB3005","statnaam":"Westelijke Zandgronden","jrstatcode":"2004LB3005","rubriek":"landbouwgebied","FID":"landbouwgebied_gegeneraliseerd_2004.a40cf0ce-3832-42b6-b549-2df486baafbe"},"id":"LB3005"},{"arcs":[[213,-212,-201,-204,214,215]],"type":"Polygon","properties":{"id":23817,"statcode":"LB3006","statnaam":"Land van Breda","jrstatcode":"2004LB3006","rubriek":"landbouwgebied","FID":"landbouwgebied_gegeneraliseerd_2004.27d15840-aea3-4466-ba1d-8ce9713be0f1"},"id":"LB3006"},{"arcs":[[216,-216,217]],"type":"Polygon","properties":{"id":23818,"statcode":"LB3007","statnaam":"De Kempen","jrstatcode":"2004LB3007","rubriek":"landbouwgebied","FID":"landbouwgebied_gegeneraliseerd_2004.eeb7f146-2046-478f-a61b-21d31caf8a35"},"id":"LB3007"},{"arcs":[[-215,-207,-211,218,219,-218]],"type":"Polygon","properties":{"id":23819,"statcode":"LB3008","statnaam":"Midden Noord-Brabant","jrstatcode":"2004LB3008","rubriek":"landbouwgebied","FID":"landbouwgebied_gegeneraliseerd_2004.840957a4-c636-40b2-bc97-a15ef6bfa00f"},"id":"LB3008"},{"arcs":[[220,221,-209,-95,-84]],"type":"Polygon","properties":{"id":23820,"statcode":"LB3009","statnaam":"Maaskant en Land van Cuijk","jrstatcode":"2004LB3009","rubriek":"landbouwgebied","FID":"landbouwgebied_gegeneraliseerd_2004.2a320f90-d72b-4b63-9922-bc106c35a32a"},"id":"LB3009"},{"arcs":[[-210,-222,222,223,-219]],"type":"Polygon","properties":{"id":23821,"statcode":"LB3010","statnaam":"Westelijk Peelgebied","jrstatcode":"2004LB3010","rubriek":"landbouwgebied","FID":"landbouwgebied_gegeneraliseerd_2004.921e6b9b-879d-4a6a-963f-29b72ed069f0"},"id":"LB3010"},{"arcs":[[224,225,226,-223,-221,-83]],"type":"Polygon","properties":{"id":23822,"statcode":"LB3101","statnaam":"Noord-Limburg","jrstatcode":"2004LB3101","rubriek":"landbouwgebied","FID":"landbouwgebied_gegeneraliseerd_2004.caf2e8e0-2f51-4ca1-9ad8-e9808567c36f"},"id":"LB3101"},{"arcs":[[-226,227]],"type":"Polygon","properties":{"id":23823,"statcode":"LB3102","statnaam":"Zuid-Limburg","jrstatcode":"2004LB3102","rubriek":"landbouwgebied","FID":"landbouwgebied_gegeneraliseerd_2004.73471799-478d-425e-90d2-b164237e57a1"},"id":"LB3102"}]}}}