{"type":"Topology","arcs":[[[3415,2530],[-41,-14]],[[3374,2516],[-24,-10]],[[3350,2506],[-4,-5]],[[3346,2501],[5,-19]],[[3351,2482],[-11,-20],[-31,-13]],[[3309,2449],[-17,-9]],[[3292,2440],[-3,-5]],[[3289,2435],[-8,-2]],[[3281,2433],[50,-31],[6,-34]],[[3337,2368],[-43,-10]],[[3294,2358],[-17,-5]],[[3277,2353],[-8,17],[-46,41],[-17,-6],[-16,23]],[[3190,2428],[-5,-2]],[[3185,2426],[-13,16]],[[3172,2442],[-14,3]],[[3158,2445],[-3,-1]],[[3155,2444],[-27,7],[-23,-4]],[[3105,2447],[7,20]],[[3112,2467],[10,26]],[[3122,2493],[28,12]],[[3150,2505],[44,4],[67,-13],[35,60]],[[3296,2556],[36,-11],[19,12],[56,-12],[8,-15]],[[3516,2655],[14,-12],[9,-40],[37,-23],[34,-14],[59,-17],[57,-4],[-6,-31],[26,-15],[55,-6],[48,-9],[11,-39],[-29,-43]],[[3831,2402],[-15,-7],[-34,7],[-33,-11],[-27,0],[-46,-28],[-46,0],[-102,13],[-20,-5],[-43,2],[-21,-7],[12,-48]],[[3456,2318],[-37,24]],[[3419,2342],[-40,24],[-42,2]],[[3281,2433],[8,2]],[[3292,2440],[17,9]],[[3346,2501],[4,5]],[[3350,2506],[24,10]],[[3374,2516],[41,14]],[[3296,2556],[-34,5],[-24,33],[32,5],[2,11],[34,4],[33,-4],[55,34]],[[3394,2644],[2,0]],[[3396,2644],[25,14],[13,-7],[52,18],[30,-14]],[[3831,2402],[-10,-16],[4,-17],[20,-9],[-4,-32],[14,-70],[-31,-69],[-78,-78],[-17,-14],[6,-12]],[[3735,2085],[-21,7],[-32,28],[-25,0],[25,35]],[[3682,2155],[-61,49]],[[3621,2204],[-9,7]],[[3612,2211],[-27,23]],[[3585,2234],[-6,6]],[[3579,2240],[-123,78]],[[3122,2493],[-10,-26]],[[3105,2447],[-20,-12],[-35,-10],[-25,-28],[-39,-63],[-29,7]],[[2957,2341],[-53,20],[-56,1],[-30,20],[1,32],[23,28],[30,23],[-12,24],[14,15]],[[2874,2504],[22,32],[25,14],[15,5],[-13,5],[6,28]],[[2929,2588],[1,0]],[[2930,2588],[3,-2]],[[2933,2586],[1,-1]],[[2934,2585],[27,-21],[48,5],[32,-3],[32,9],[10,-11],[41,0],[22,-22],[4,-37]],[[2930,2588],[3,-2]],[[3396,2644],[-2,0]],[[2934,2585],[-5,4],[-13,4],[-42,5],[20,7],[-20,9],[-15,-3],[-20,27],[-6,20]],[[2833,2658],[8,-3],[62,6],[52,-16],[55,18],[28,5],[171,14],[79,20],[98,11],[54,-11],[16,8],[49,-12],[19,-11],[-8,-32]],[[3141,2797],[11,-10],[-37,-16],[-14,17],[19,13],[21,-4]],[[2833,2658],[-29,-3],[-7,-16],[26,-35],[37,-3],[3,-12],[33,6],[19,-3],[14,-4]],[[2874,2504],[-37,13],[-17,-10],[-37,4],[-97,-20],[10,47],[18,10],[-5,23],[-45,0],[-1,-15],[-45,-2],[-12,16],[-67,-21],[10,-14],[-25,-11],[-21,11],[-22,-13]],[[2481,2522],[-22,1],[-54,18],[-32,0],[-10,-14],[13,-31],[-4,-14],[15,-37],[-7,-25],[-53,9],[-26,-14],[-5,-26],[-35,-6],[-23,-10],[-45,8],[-23,12],[-25,-8],[-25,7],[-66,7]],[[2054,2399],[-1,24],[38,44],[34,21],[44,16],[60,43],[56,19],[89,24],[60,19],[39,9],[57,20],[45,-3],[83,15],[79,5],[44,-4],[38,11],[14,-4]],[[2481,2522],[-7,-32],[27,0],[21,-10],[18,-24],[-40,-5],[4,-32],[64,-4],[-17,-23],[34,-23],[-10,-13],[-51,-2],[1,-14]],[[2525,2340],[-5,-2]],[[2520,2338],[-1,-6],[-58,-9],[-21,-26],[60,-33],[29,-35],[46,-67],[-22,-17],[-25,-4],[-29,-23],[-37,-54]],[[2462,2064],[-25,-10]],[[2437,2054],[-46,33],[-36,-2]],[[2355,2085],[-28,8],[-27,-2],[-14,17],[-26,-10],[-33,-2],[-18,-15],[-22,-1],[-91,22],[-28,-7],[-60,26],[-12,13],[17,12],[36,11],[-6,29],[12,25],[-16,39],[11,17],[-32,35],[17,8],[-18,28],[-32,-17],[-46,-7],[-130,-68]],[[1809,2246],[-1,1]],[[1808,2247],[127,67],[56,11],[29,17],[1,13],[25,14],[8,30]],[[2957,2341],[-10,-13],[63,-14],[-5,-33],[50,-48]],[[3055,2233],[15,-14],[-35,-39],[-24,-11]],[[3011,2169],[-36,-16],[-30,19],[-46,3],[-50,-37],[-87,-37]],[[2762,2101],[-89,-39],[-34,2],[-25,25],[-42,-7],[-6,-11],[-48,-23],[-32,4],[-24,12]],[[2520,2338],[5,2]],[[1742,2548],[-37,-7],[-30,-13],[-61,-16],[7,-13],[-60,-36],[-65,6],[79,33],[28,16],[75,31],[28,6],[36,-7]],[[2112,2654],[-86,-5],[-27,-14],[-64,-18],[-36,3],[-36,-9],[-25,-14],[-41,5],[39,38],[57,11],[125,19],[97,18],[38,4],[30,-12],[-65,-16],[-6,-10]],[[2373,2709],[40,-2],[113,7],[53,-10],[-132,-19],[-75,5],[-27,-13],[-33,-7],[-40,7],[-14,23],[29,16],[86,-7]],[[3023,2759],[-107,-23],[-22,-11],[-55,-6],[-67,2],[25,26],[134,9],[78,8],[14,-5]],[[3155,2444],[23,-30],[3,-34],[-59,-12],[11,-24],[22,-25],[-1,-16],[-16,-25],[9,-21],[-92,-24]],[[3185,2426],[5,2]],[[3277,2353],[17,5]],[[3419,2342],[-29,-14],[-49,-16],[-27,0],[-30,-19],[7,-20],[-34,-20],[-19,-33],[-26,-15],[-5,-13],[21,-26],[81,-10],[19,-34],[29,-7]],[[3357,2115],[13,-14],[-38,-31],[2,-12],[-31,-10],[-74,-65],[-29,9],[8,21],[-53,-4],[-22,9],[1,22],[-37,8]],[[3097,2048],[25,36],[-29,13],[-20,0],[-11,32],[-60,13],[26,21],[-17,6]],[[3158,2445],[14,-3]],[[3097,2048],[-9,-25],[-36,-11],[13,-22],[-16,-36],[44,0],[-2,-13],[37,0],[14,-20],[31,-2],[-2,-17]],[[3171,1902],[-15,-9],[5,-32],[-55,10],[-11,-10],[-47,7],[-22,-9],[-20,31],[-36,16]],[[2970,1906],[-5,11],[-50,-5],[-25,11],[-46,9],[-19,-10],[-20,5],[-43,70],[36,13],[46,31],[-65,45],[-17,15]],[[3504,1897],[-40,-2],[-45,4],[-35,-7],[-32,-17]],[[3352,1875],[-2,21],[-93,25],[-62,-8],[-24,-11]],[[3357,2115],[21,11],[30,-29],[61,-30],[23,-15],[-19,-27],[9,-17],[-14,-30],[23,-32],[13,-49]],[[3579,2240],[6,-6]],[[3612,2211],[9,-7]],[[3735,2085],[-21,-28],[-8,-87],[-9,-79],[-13,-11],[-67,13],[-36,-8],[-42,13],[-35,-1]],[[2970,1906],[-25,-62],[17,2],[42,-74],[-30,-3],[12,-41],[-1,-24],[28,-7],[10,-20]],[[3023,1677],[-32,-5],[-57,10],[-14,22],[-42,9],[-92,2],[11,-15],[-15,-11],[-30,-1]],[[2752,1688],[-8,25]],[[2744,1713],[-8,8]],[[2736,1721],[-23,8],[-17,18],[-26,10],[-20,-6],[-43,-28],[-39,-2],[-16,24],[-23,19],[-21,2]],[[2508,1766],[-9,25]],[[2499,1791],[0,2]],[[2499,1793],[-33,34],[19,31]],[[2485,1858],[53,7]],[[2538,1865],[22,-5],[72,13],[29,17],[-35,14]],[[2626,1904],[-50,19],[31,18],[-22,21],[-21,36],[-72,34],[-31,3],[-24,19]],[[3352,1875],[17,-13],[-8,-26],[48,-25],[-41,-1],[-10,-14],[-35,4],[24,-32],[-7,-35]],[[3340,1733],[-29,9],[-27,-24],[-31,-4],[-10,12],[-47,9]],[[3196,1735],[-44,3]],[[3152,1738],[-6,-9],[-53,-13],[-13,-25],[-48,-16]],[[3032,1675],[-9,2]],[[3340,1733],[55,-22],[22,-4],[79,0],[8,-9],[80,-16],[20,10],[16,21],[16,-1],[17,-36],[25,-26],[23,-4],[13,-26],[0,-21],[-16,-14],[-30,-46],[2,-14],[33,-43],[-42,-10],[-30,2],[-38,-46],[-35,-3],[-34,-22],[-9,-24],[-18,-13],[-94,-1]],[[3403,1365],[-45,-1],[-53,12],[11,13],[-3,24],[-26,8],[-33,-11],[-22,19],[-35,-5],[-76,6],[-50,40],[-13,19]],[[3058,1489],[14,10],[61,24],[51,6],[11,17],[-8,19],[-20,8],[-57,0],[-7,-6],[-39,6],[-66,-8],[-22,33],[9,19],[46,10],[16,36],[-15,12]],[[3152,1738],[44,-3]],[[3058,1489],[-65,0],[-12,-15],[-46,4],[-42,-4],[-85,4]],[[2808,1478],[-18,-3],[-24,23],[6,10],[-31,39],[-15,2],[-10,29]],[[2716,1578],[8,41],[42,9],[6,18],[-19,9],[8,25],[-9,8]],[[2485,1858],[53,7]],[[2626,1904],[-20,-18],[-132,-26],[-169,0],[-12,2]],[[2293,1862],[-1,1]],[[2292,1863],[-34,35],[-23,12],[2,100],[65,65],[53,10]],[[2293,1862],[4,-18],[101,-15],[57,-5],[44,-31]],[[2499,1791],[0,-26],[-9,-25],[-31,-36]],[[2459,1704],[-20,-18],[-50,-24],[-27,1],[-59,-18],[-36,-18],[-10,-17]],[[2257,1610],[-1,-1]],[[2256,1609],[-50,6],[-26,-18],[15,-29],[-24,-46],[-58,-11]],[[2113,1511],[-1,-1]],[[2112,1510],[-60,-10],[-96,50]],[[1956,1550],[-1,0]],[[1955,1550],[-14,9],[-59,17],[-56,6],[-45,-9]],[[1781,1573],[-1,0]],[[1780,1573],[-13,55],[37,19],[96,35],[177,76],[-9,19],[20,31],[21,11],[-12,22],[-56,55],[-39,25],[-55,16],[-18,0]],[[1929,1937],[0,1]],[[1929,1938],[15,1],[52,-14],[7,-4],[39,-25],[56,-55],[13,-24],[-13,-20],[45,6],[58,36],[69,13],[22,11]],[[2736,1721],[8,-8]],[[2716,1578],[-21,0],[-18,-36],[8,-16],[-15,-30],[5,-25],[14,-3],[17,-64],[14,-19],[-26,-15],[-18,-26],[-25,-24]],[[2651,1320],[-19,5],[-44,-1]],[[2588,1324],[0,21],[-63,7],[-18,20],[-5,23],[-50,2],[-18,47],[-41,-3],[-20,15],[11,11],[-16,23],[35,5],[-12,20],[72,5],[31,7],[-11,24],[40,31],[-16,25],[-53,43],[-41,-7],[-14,11]],[[2399,1654],[53,28],[7,22]],[[2459,1704],[23,9],[26,53]],[[2808,1478],[23,-14],[-5,-13],[-27,-6],[37,-24],[-21,-30],[19,-31],[23,-5],[-4,-17],[-33,-1],[-7,-12],[-55,-30],[6,-14],[30,7],[24,-3],[1,-20],[-18,-19]],[[2801,1246],[-65,-7],[-30,22],[-36,-19],[-13,1],[-25,-23]],[[2632,1220],[-29,14],[19,30],[16,8],[-18,28],[26,3],[5,17]],[[2801,1246],[1,-19],[-31,-3],[-39,-10],[1,-29],[77,-38]],[[2810,1147],[-11,4],[-47,-10],[27,-9],[8,-16],[22,-8],[0,-21],[-60,7],[-44,17],[-27,-22],[-49,-12],[-24,6],[-18,-13],[34,-26],[12,-32],[-38,-18]],[[2595,994],[-38,5],[-22,25],[-25,-2],[-4,-18]],[[2506,1004],[-84,-6],[-35,7],[-13,13],[-30,6],[-8,10],[-37,10],[-22,22],[-46,10],[-31,-2],[-17,-12],[-55,13],[-12,-14],[-35,-5],[-24,11]],[[2057,1067],[-14,17]],[[2043,1084],[32,39],[20,10],[44,2],[75,13],[125,-7],[29,-8],[91,-17]],[[2459,1116],[9,-4],[-39,-25],[-16,-18],[11,-14],[28,-18],[27,15],[45,4],[17,15],[-12,40],[34,10],[34,-18],[26,3],[13,16],[23,5],[5,15],[-34,17],[-33,36]],[[2597,1195],[-3,16],[38,9]],[[2459,1116],[21,13],[-8,11],[44,4],[17,9],[11,26],[30,26],[23,-10]],[[2043,1084],[-40,-32],[-22,1],[-34,17],[-102,-14],[-26,6],[-37,-2],[-50,13],[-39,-8],[-25,0]],[[1668,1065],[5,22],[-31,7],[5,10],[54,0],[-4,15],[26,3],[7,12],[25,0],[19,27],[48,52]],[[1822,1213],[26,-8],[24,17],[17,1],[23,-12],[63,-8],[15,11],[35,1],[59,17],[36,-3]],[[2120,1229],[62,-16],[21,-12],[45,-12],[21,9],[-1,22],[-20,20]],[[2248,1240],[69,-3],[61,11],[9,18],[68,4],[37,28],[49,-2],[11,12],[36,16]],[[2057,1067],[-13,0],[-33,-31],[-15,-35]],[[1996,1001],[-58,-18],[-51,-3],[-29,9],[-53,0],[-35,-5]],[[1770,984],[10,13],[0,22],[-42,15],[-29,-7],[-19,17],[-32,10],[-16,13]],[[1642,1067],[26,-2]],[[2248,1240],[-15,9],[-4,28],[-17,15]],[[2212,1292],[-12,3]],[[2200,1295],[5,29],[-9,22],[-31,-22],[-39,-8],[-25,10],[27,14],[13,53],[-18,4]],[[2123,1397],[0,8]],[[2123,1405],[1,2]],[[2124,1407],[-10,3]],[[2114,1410],[4,1]],[[2118,1411],[-36,7],[0,19]],[[2082,1437],[0,7]],[[2082,1444],[-30,22],[-17,2],[11,26]],[[2046,1494],[63,9],[3,7]],[[2113,1511],[56,0],[35,51],[49,31],[3,16]],[[2257,1610],[38,2],[25,14],[22,2],[57,26]],[[3403,1365],[-10,-34],[-16,-10],[-39,-5],[-8,-30],[26,0],[39,-12],[74,-34],[2,-30],[-30,-5],[-5,-24],[-24,-19],[-48,-20],[-29,19],[-18,1],[-37,-12],[-52,-10],[-30,-12],[-91,-27],[-36,10],[-21,-11],[-1,-26],[-44,7],[-18,16],[-39,-2],[-5,16],[-21,9],[-18,-6],[-47,0],[-31,15],[-16,18]],[[1953,1354],[-13,-12],[34,-12],[53,-6]],[[2027,1324],[5,-2]],[[2032,1322],[47,-4],[9,-27],[45,12],[22,-2],[16,-15],[-35,-45],[-14,-4]],[[2122,1237],[1,-2]],[[2123,1235],[-3,-6]],[[1822,1213],[-33,10],[-7,17],[-20,6]],[[1762,1246],[8,25],[-1,30]],[[1769,1301],[31,3],[2,20],[33,8]],[[1835,1332],[13,-1],[12,29],[13,3],[-6,50]],[[1867,1413],[18,4],[13,-35],[26,-24],[29,-4]],[[1664,1549],[21,-20],[-16,-18],[31,-29],[-16,-4],[-9,-21]],[[1675,1457],[3,0]],[[1678,1457],[10,-44],[75,15],[72,-3],[23,26]],[[1858,1451],[-4,-28],[13,-10]],[[1835,1332],[-32,8],[-12,24],[-62,18],[-26,-13],[-28,-6],[-30,24],[-33,-19],[35,-34],[-6,-22],[19,-4],[33,-32],[19,31],[24,-2]],[[1736,1305],[3,0]],[[1739,1305],[30,-4]],[[1762,1246],[-30,2],[-24,-8],[-44,-24],[-24,8],[-30,-19],[-28,4],[-26,-21],[-36,-4]],[[1520,1184],[-18,30],[-42,32],[39,6],[-10,12],[-44,-4],[26,36],[39,13],[-42,12],[-1,32],[-33,15]],[[1434,1368],[21,18],[20,5],[42,-6],[-1,18],[18,6],[-48,18],[-30,22],[-19,25]],[[1437,1474],[48,10],[27,16]],[[1512,1500],[41,0],[23,28],[21,-3]],[[1597,1525],[42,11],[25,13]],[[1739,1305],[-3,0]],[[1948,1525],[51,-8],[47,-23]],[[2082,1444],[0,-7]],[[2118,1411],[-4,-1]],[[2124,1407],[-1,-2]],[[2123,1397],[-25,4]],[[2098,1401],[-11,6]],[[2087,1407],[-29,-10]],[[2058,1397],[-2,-3]],[[2056,1394],[-6,-6]],[[2050,1388],[-8,-6]],[[2042,1382],[-44,1],[-45,-29]],[[1858,1451],[7,21],[43,57],[40,-4]],[[2200,1295],[12,-3]],[[2123,1235],[-1,2]],[[2032,1322],[-5,2]],[[2042,1382],[8,6]],[[2056,1394],[2,3]],[[2087,1407],[11,-6]],[[1746,2021],[-34,-6],[-13,-11],[-31,-5],[-82,2],[-45,-47],[-51,13]],[[1490,1967],[-8,14]],[[1482,1981],[-10,13]],[[1472,1994],[-23,23],[22,5],[6,33],[-24,27]],[[1453,2082],[-17,12]],[[1436,2094],[-35,2],[12,30],[24,34],[12,0]],[[1449,2160],[68,-25],[63,17],[30,25],[86,11],[112,59]],[[1809,2246],[-128,-68],[10,-7],[65,-78],[-10,-72]],[[1461,1573],[-9,-20],[-45,-29],[-39,-14],[-24,-19],[-32,-13]],[[1312,1478],[-37,-15],[-75,3]],[[1200,1466],[10,50],[21,12],[23,33]],[[1254,1561],[0,11],[64,31],[-5,14],[5,40],[46,23]],[[1364,1680],[17,-2],[-10,-30],[28,-4],[-1,-41],[63,-30]],[[1551,1565],[-1,-11],[-29,-28],[-9,-26]],[[1437,1474],[-70,-14],[-1,19],[-38,-5],[-16,4]],[[1461,1573],[90,-8]],[[1436,2094],[17,-12]],[[1472,1994],[10,-13]],[[1490,1967],[-43,-6],[-26,17],[-8,-30],[-42,-10],[13,-10]],[[1384,1928],[7,-15]],[[1391,1913],[-4,-3]],[[1387,1910],[-35,-21],[5,-17]],[[1357,1872],[-25,-1],[-17,-33],[-63,-17]],[[1252,1821],[17,91],[11,43],[-1,21],[15,40],[24,32],[30,73],[11,73],[14,16],[32,2],[16,-10],[28,-42]],[[1521,2404],[29,-22],[-8,-10],[-3,-46],[-50,-45],[-28,-5],[-45,-33],[-54,-11],[-11,37],[15,46],[34,38],[83,77],[20,0],[18,-26]],[[1929,1937],[-41,-4],[-10,-29],[-37,-21],[-40,-13],[-31,-3],[-39,23],[-21,-8],[-22,7],[-27,-12],[1,-18]],[[1662,1859],[-15,-14],[-55,-3],[7,16]],[[1599,1858],[-4,2]],[[1595,1860],[-69,0],[3,10]],[[1529,1870],[1,4]],[[1530,1874],[-3,3]],[[1527,1877],[-9,4]],[[1518,1881],[-37,12],[-9,-13],[-35,5]],[[1437,1885],[-7,1]],[[1430,1886],[12,18]],[[1442,1904],[1,3]],[[1443,1907],[-28,-7]],[[1415,1900],[5,11]],[[1420,1911],[-4,1]],[[1416,1912],[5,7]],[[1421,1919],[-32,10]],[[1389,1929],[-5,-1]],[[1746,2021],[42,-32],[34,-1],[13,14],[65,-2],[25,-13],[5,-25],[12,-7],[-13,-17]],[[1597,1525],[-26,31],[46,22],[47,-29]],[[1420,1911],[-5,-11]],[[1443,1907],[-1,-3]],[[1430,1886],[7,-1]],[[1518,1881],[9,-4]],[[1530,1874],[-1,-4]],[[1595,1860],[4,-2]],[[1662,1859],[11,-44],[24,-23],[31,-41],[-27,-18],[3,-18],[-14,-13],[1,-16],[29,-2],[-11,-24],[-15,0],[-38,-32],[-34,-7],[32,-30]],[[1654,1591],[-13,-2],[-29,14],[-17,-16],[-40,-9],[-4,-13]],[[1364,1680],[-47,23],[23,15],[17,22],[-22,18],[2,33],[24,8],[36,-16],[20,-1]],[[1417,1782],[3,9]],[[1420,1791],[4,13],[-37,11],[6,14]],[[1393,1829],[1,11]],[[1394,1840],[-19,15]],[[1375,1855],[6,6]],[[1381,1861],[-6,4]],[[1375,1865],[-17,7]],[[1358,1872],[-1,0]],[[1387,1910],[4,3]],[[1384,1928],[5,1]],[[1421,1919],[-5,-7]],[[1654,1591],[24,-11],[58,6],[44,-13]],[[1781,1573],[27,-21],[74,7],[51,-15],[22,6]],[[1956,1550],[-17,-10],[9,-15]],[[1678,1457],[-3,0]],[[1381,1861],[-6,-6]],[[1394,1840],[-1,-11]],[[1420,1791],[-3,-9]],[[1254,1561],[-16,4],[-49,-4]],[[1189,1561],[-52,14]],[[1137,1575],[-1,0]],[[1136,1575],[61,95],[12,45],[20,31],[23,75]],[[1358,1872],[17,-7]],[[1186,941],[28,5]],[[1214,946],[-28,-5]],[[953,993],[42,-10],[-16,-10],[-26,1],[-49,19],[49,0]],[[881,1119],[21,-7]],[[902,1112],[76,-2],[36,-21],[38,0],[40,-11],[49,3],[50,-3],[21,-21],[51,-10],[51,20]],[[1314,1067],[79,1],[34,-7],[54,4],[46,-3]],[[1527,1062],[-39,-17],[-49,1],[-42,-18],[-18,-26],[-61,-31]],[[1318,971],[-31,-6]],[[1287,965],[-1,0]],[[1286,965],[-7,-2]],[[1279,963],[-1,0]],[[1278,963],[-17,6],[-31,-11],[-58,-11],[-63,14],[-61,7],[-8,-11]],[[1040,957],[6,12],[-55,20],[-100,23],[-37,34],[-30,5],[-26,18],[-62,6],[-20,14],[-25,-11]],[[691,1078],[16,22],[-36,32],[25,29],[-15,9],[-45,-8]],[[636,1162],[70,16],[44,4],[55,-9],[57,-31],[19,-23]],[[1034,1211],[11,1]],[[1045,1212],[25,10],[19,-13],[14,12]],[[1103,1221],[3,2]],[[1106,1223],[5,3]],[[1111,1226],[0,1]],[[1111,1227],[14,-8]],[[1125,1219],[12,-6]],[[1137,1213],[26,-4]],[[1163,1209],[7,3]],[[1170,1212],[26,3]],[[1196,1215],[7,1]],[[1203,1216],[13,3]],[[1216,1219],[5,3]],[[1221,1222],[15,0]],[[1236,1222],[-2,-7]],[[1234,1215],[-8,-4]],[[1226,1211],[-4,-1]],[[1222,1210],[-18,-7],[-1,-16]],[[1203,1187],[2,-5]],[[1205,1182],[1,-4]],[[1206,1178],[1,-2]],[[1207,1176],[-27,-10]],[[1180,1166],[3,-5]],[[1183,1161],[9,-1]],[[1192,1160],[4,3]],[[1196,1163],[-4,-10]],[[1192,1153],[70,-17]],[[1262,1136],[15,-20],[35,-28],[2,-21]],[[902,1112],[-21,7]],[[636,1162],[-9,2],[-24,43],[23,24],[58,1],[6,9],[47,-10],[30,17]],[[767,1248],[22,-21],[40,-14],[5,-12],[26,-13],[24,0],[17,-14],[34,-7],[44,26],[55,18]],[[691,1078],[14,-19],[102,-34],[24,-4],[54,-30],[20,-17],[66,-25],[55,-1],[14,9]],[[1040,957],[6,-12]],[[1046,945],[-10,-5]],[[1036,940],[-26,-9],[-11,-14],[-76,-16],[-49,6],[-12,13],[-31,9],[-32,-1]],[[799,928],[-2,1]],[[797,929],[0,14],[-44,11],[-52,4],[-37,31],[8,14],[-8,22],[-30,23],[-43,1],[-52,-9],[-28,-13],[-14,-23],[-13,-2]],[[484,1002],[-3,2]],[[481,1004],[25,20],[-4,36],[140,35],[36,-25],[13,8]],[[1434,1368],[-53,-15]],[[1381,1353],[20,28],[-17,29],[-36,-12],[-26,12],[-39,-1],[-68,-11],[-38,-32],[-1,-47],[23,-12]],[[1199,1307],[-52,-29],[-28,0],[-26,17],[-29,3],[-18,26],[-48,-10],[-21,7],[38,20]],[[1015,1341],[45,29],[26,22],[10,26],[50,14],[34,-5],[20,39]],[[1381,1353],[-6,-6]],[[1375,1347],[-9,-1]],[[1366,1346],[-8,-19],[-39,-15],[-17,-2]],[[1302,1310],[-23,10],[-30,-8],[-50,-5]],[[1520,1184],[-46,1],[-21,-14],[-49,-11],[-46,-18],[-43,-6],[-53,0]],[[1192,1153],[33,14],[28,4],[24,13],[11,16],[-13,16],[35,9],[15,14],[-24,12],[22,23],[-4,16],[-17,20]],[[1366,1346],[9,1]],[[1642,1067],[-64,7],[-51,-12]],[[1015,1341],[-29,3],[-41,30]],[[945,1374],[81,69],[63,71],[47,61]],[[1137,1575],[52,-14]],[[1196,1163],[-4,-3]],[[1183,1161],[-3,5]],[[1207,1176],[-1,2]],[[1205,1182],[-2,5]],[[1222,1210],[4,1]],[[1234,1215],[2,7]],[[1221,1222],[-5,-3]],[[1203,1216],[-7,-1]],[[1170,1212],[-7,-3]],[[1137,1213],[-12,6]],[[1111,1227],[0,-1]],[[1106,1223],[-3,-2]],[[1045,1212],[-11,-1]],[[767,1248],[62,50],[18,9],[54,40],[44,27]],[[420,795],[-6,2]],[[414,797],[6,-2]],[[484,1002],[8,-18],[38,6],[26,-13],[59,2],[9,-15],[25,-15],[8,-16],[29,-2],[48,-18],[17,11],[46,5]],[[799,928],[12,-28],[32,-15],[36,-5]],[[879,880],[-23,-6],[-22,-19],[0,-15],[36,-30],[8,-14]],[[878,796],[-17,-45],[11,-16]],[[872,735],[-12,-1]],[[860,734],[-41,14],[-13,21],[-90,4],[-25,26],[-44,23],[-15,17],[34,4],[51,16],[53,-11],[-27,41],[19,11],[32,1],[-2,23],[-41,-4],[-12,-26],[-26,-16],[-21,-1],[-43,-14],[-39,-3],[-28,20],[-26,-5],[-45,-33],[28,-36],[-24,-5],[-6,-13]],[[509,788],[-2,-1]],[[507,787],[-32,15],[-29,-8],[-44,7],[-45,-20],[-27,21],[-33,13],[-20,18]],[[277,833],[-1,2]],[[276,835],[47,11]],[[323,846],[2,1]],[[325,847],[32,-9],[84,13],[36,1],[34,-10],[45,33],[-24,4],[-13,34],[-20,11],[-32,6],[-7,12],[-93,-27],[-3,-19]],[[364,896],[-3,0]],[[361,896],[3,13],[-33,15],[-10,29],[38,29],[72,8],[28,-3],[22,17]],[[420,795],[-6,2]],[[277,833],[-5,-15],[40,-22],[31,-38],[25,12],[8,16],[20,8],[38,-7],[30,7],[43,-7]],[[509,788],[60,2],[13,-19],[17,6],[61,-12],[34,-16],[3,-21],[38,-36],[40,-15],[48,13],[42,-5],[-5,49]],[[872,735],[46,-64],[-12,-9],[4,-32],[9,-8]],[[919,622],[-34,-1],[-11,20],[-35,12],[-40,-12],[-50,8],[-45,11],[-12,16],[-17,2],[-58,30],[-54,-17],[5,-11],[-25,-39],[-88,-9],[-58,29],[-20,-4],[-43,33],[-34,13],[-18,-13],[-65,-5],[-48,24],[-30,31],[-46,21],[-18,12],[5,15],[115,47],[22,5],[59,-5]],[[323,846],[2,23],[36,27]],[[361,896],[3,0]],[[364,896],[-6,-13],[-29,-15],[-4,-21]],[[158,653],[52,-6],[17,-13],[56,-12],[46,-5],[36,-21],[66,0],[53,-14],[25,0],[50,25],[42,7],[15,39],[42,-6],[37,-35],[33,-2],[29,-12],[22,11],[54,13],[15,-2],[29,-26],[-69,-55],[-108,-50],[-52,-1],[-47,-26],[-73,-16],[3,23],[-29,-12],[-39,-2],[-30,5],[-2,32],[6,10],[-39,13],[-62,7],[-36,14],[-17,-2],[-50,16],[-76,-17],[13,-41],[-78,-4],[-43,15],[-37,35],[7,10],[-19,13],[27,19],[-16,38],[61,19],[6,-3],[80,19]],[[1214,946],[-28,-5]],[[1287,965],[22,-33],[30,2],[13,-15],[-25,-7],[14,-28]],[[1341,884],[-34,-4]],[[1307,880],[-36,-10],[-69,5],[-41,-21],[-39,12],[-53,-8],[14,-54],[-63,-14],[-81,10],[-45,17],[-16,-21]],[[879,880],[80,12],[33,2],[38,21],[6,25]],[[1046,945],[40,-3],[46,-13],[30,1],[82,13],[34,20]],[[1279,963],[7,2]],[[1724,968],[27,-13],[-7,-32]],[[1744,923],[-41,-6],[-13,-9],[-56,14],[-5,-21],[-29,-3],[-4,19],[-29,4],[8,-24],[-23,-22],[8,-28],[-18,-8]],[[1542,839],[-10,-4]],[[1532,835],[-26,-10]],[[1506,825],[-23,17]],[[1483,842],[-7,1]],[[1476,843],[9,20],[-22,13]],[[1463,876],[-3,2]],[[1460,878],[-11,1]],[[1449,879],[-19,4]],[[1430,883],[-18,-7],[-31,13],[-40,-5]],[[1318,971],[23,-3],[35,15],[30,23],[58,-6],[29,2],[-9,-43],[31,7],[85,3],[51,-10],[45,-1],[28,10]],[[1770,984],[-46,-16]],[[2116,975],[11,-16],[-15,-24],[-13,-1]],[[2099,934],[-27,13],[-64,-4],[6,-17],[-33,-16],[-35,2],[17,-29],[-17,-12],[-38,-9],[-11,9],[-44,-9],[-19,23],[-47,2],[-39,-5],[-4,41]],[[1996,1001],[85,10],[24,-39],[11,3]],[[1336,791],[-13,-4]],[[1323,787],[-27,-17]],[[1296,770],[-29,-3],[-35,-24],[-34,-11],[-8,-13]],[[1190,719],[-10,9],[-51,-5],[-45,-8],[-57,-20],[12,-7],[-5,-34],[40,-33],[-10,-10],[-37,-11],[-44,4],[-6,20],[-58,-2]],[[1307,880],[-1,-30],[18,-5],[12,-31],[0,-23]],[[1430,883],[19,-4]],[[1460,878],[3,-2]],[[1476,843],[7,-1]],[[1506,825],[-1,-22]],[[1505,803],[-23,-4]],[[1482,799],[-7,-3]],[[1475,796],[-39,-15]],[[1436,781],[-16,-6]],[[1420,775],[-31,-14],[13,-13]],[[1402,748],[-31,-18],[-36,-32],[-26,-8],[3,-18],[-40,0],[-55,7],[-40,-10],[-5,27],[18,23]],[[1296,770],[27,17]],[[1323,787],[13,4]],[[1673,776],[14,1]],[[1687,777],[15,7],[43,-2]],[[1745,782],[7,3]],[[1752,785],[40,-16]],[[1792,769],[9,-6]],[[1801,763],[31,-10],[34,10],[4,-18],[-8,-26],[-10,-7],[-3,-31],[22,-10],[19,21],[50,9],[37,11],[21,-4],[0,-28],[-37,-10],[5,-18],[30,3],[35,-33],[36,3],[-5,-20],[4,-28],[-30,-22],[-6,-24],[29,-23]],[[2059,508],[-71,14],[-10,-13],[-40,-2],[-70,7],[16,37],[-42,18],[-37,-13],[-29,6],[-2,31],[-61,46],[34,38],[-26,40],[-33,0],[-24,11],[-11,-10],[-7,-27],[-41,-23],[-34,-26],[-43,21],[-97,-8],[-18,6],[16,18],[42,-10],[-6,26],[17,30],[-25,16],[-55,7]],[[1420,775],[16,6]],[[1475,796],[7,3]],[[1505,803],[3,-19],[45,-28],[46,9],[17,21],[48,-2],[9,-8]],[[2099,934],[-12,-24],[-70,-30],[20,-28],[-14,-10],[18,-24],[6,-24],[43,-36],[-7,-16],[70,1],[-2,-28],[21,-10],[17,-25],[-22,-6],[1,-23],[38,0],[35,13],[40,4],[0,-33],[16,-35],[-15,-7],[-9,-19],[-26,4],[-37,-11],[-52,-26]],[[2158,541],[-31,5],[-20,-15],[-23,-3],[-25,-20]],[[1801,763],[-9,6]],[[1752,785],[-7,-3]],[[1687,777],[-14,-1]],[[1532,835],[10,4]],[[2506,1004],[16,-8],[5,-22],[15,-8],[55,-11],[17,-63],[48,-24],[6,-26],[14,-14],[-8,-30],[-28,18],[-69,-16],[-28,-2],[-16,8],[-53,6]],[[2480,812],[-37,13],[-14,19],[-28,-4],[-16,56],[-12,24],[-52,-9],[-56,34],[-23,9],[-19,23],[-52,9],[-19,-3]],[[2152,983],[-1,0]],[[2151,983],[-35,-8]],[[2480,812],[15,-62],[8,-12],[11,-42],[59,-65],[-56,-32],[-203,-38],[-46,-41],[-7,-45],[-53,-8]],[[2208,467],[-11,23],[3,18],[-42,33]],[[2151,983],[1,0]],[[2595,994],[2,-10],[39,0],[51,-21],[-19,-8],[11,-36],[80,-16],[-26,-51],[30,-13],[36,-26],[20,-28],[35,-26],[1,-22],[11,-16],[-19,-75],[21,-40],[-57,-27],[-44,-58],[-52,-32],[-5,-22],[5,-38],[9,-11],[31,3],[52,19],[16,-8],[-42,-13],[36,-15],[-12,-9],[-37,-4],[-34,-10],[-16,-16],[-40,-22],[-26,-6],[-40,-30],[-1,-14],[-31,-12],[-25,32],[-26,-15],[-10,-20]],[[2519,278],[-24,-3],[-4,17],[-22,2],[-3,19],[-25,-7]],[[2441,306],[-4,30],[39,10],[-24,18],[30,13],[16,14],[-32,23],[-46,-17],[-11,33],[-27,3],[-32,-5],[-50,3],[-12,15],[-80,21]],[[2519,278],[2,-14],[27,-16],[-9,-27],[58,13],[11,-8],[51,3],[1,-48],[64,-13],[-7,-29],[13,-21],[-11,-11],[-58,-15],[6,-32],[-21,-13],[-29,-3],[53,-24],[-7,-20],[-131,2],[-4,14],[-41,-5],[-38,-9],[-30,27],[-82,-28],[-1,57],[-38,12],[-17,22],[5,25],[39,18],[15,21],[28,11],[30,37],[-36,4],[46,36],[10,24],[-18,12],[21,29],[20,-3]]],"transform":{"scale":[0.001,0.0009996429846483414],"translate":[3.358,50.754]},"objects":{"landbouwgebied_2021":{"type":"GeometryCollection","geometries":[{"arcs":[[0,1,2,3,4,5,6,7,8,9,10,11,12,13,14,15,16,17,18,19,20,21]],"type":"Polygon","properties":{"id":1,"statcode":"LB2002","jrstatcode":"2021LB2002","statnaam":"Centraal Weidegebied in Groningen","rubriek":"landbouwgebied","FID":"landbouwgebied_gegeneraliseerd_2021.aef89be6-caac-43c3-9769-eb15ea30e031"},"id":"LB2002"},{"arcs":[[22,23,24,25,-9,26,-7,27,-5,-4,28,29,30,-22,31,32,33]],"type":"Polygon","properties":{"id":2,"statcode":"LB2003","jrstatcode":"2021LB2003","statnaam":"Oostelijke Bouwstreek in Groningen","rubriek":"landbouwgebied","FID":"landbouwgebied_gegeneraliseerd_2021.b75489f5-8bd3-43c6-af80-573c873541e5"},"id":"LB2003"},{"arcs":[[34,35,36,37,38,39,40,-24]],"type":"Polygon","properties":{"id":3,"statcode":"LB2004","jrstatcode":"2021LB2004","statnaam":"Westerwolde en Groninger Veenkoloniën","rubriek":"landbouwgebied","FID":"landbouwgebied_gegeneraliseerd_2021.b52ba157-b738-4007-bd20-0736f736f8db"},"id":"LB2004"},{"arcs":[[-20,41,-18,42,43,44,45,46,47,48]],"type":"Polygon","properties":{"id":4,"statcode":"LB2005","jrstatcode":"2021LB2005","statnaam":"Groninger zuidelijk Westerkwartier","rubriek":"landbouwgebied","FID":"landbouwgebied_gegeneraliseerd_2021.92d221ff-5af2-400e-b328-9d5d2bf3fe43"},"id":"LB2005"},{"arcs":[[[-34,50,-32,-21,-49,51,52]],[[53]]],"type":"MultiPolygon","properties":{"id":5,"statcode":"LB2006","jrstatcode":"2021LB2006","statnaam":"Oostelijk Hogeland","rubriek":"landbouwgebied","FID":"landbouwgebied_gegeneraliseerd_2021.d9c03322-d57c-429b-a30d-ff42ac040a4e"},"id":"LB2006"},{"arcs":[[54,-45,55,56,57]],"type":"Polygon","properties":{"id":6,"statcode":"LB2101","jrstatcode":"2021LB2101","statnaam":"Noordelijk Friesland","rubriek":"landbouwgebied","FID":"landbouwgebied_gegeneraliseerd_2021.8be4877e-d2ee-4165-a23b-354a6721b269"},"id":"LB2101"},{"arcs":[[58,59,60,61,62,63,64,65,-57]],"type":"Polygon","properties":{"id":7,"statcode":"LB2102","jrstatcode":"2021LB2102","statnaam":"Weidestreek in Friesland","rubriek":"landbouwgebied","FID":"landbouwgebied_gegeneraliseerd_2021.4c74247a-a543-4e51-9f87-ee2ddc98650d"},"id":"LB2102"},{"arcs":[[-44,66,67,68,69,-61,70,-59,-56]],"type":"Polygon","properties":{"id":8,"statcode":"LB2103","jrstatcode":"2021LB2103","statnaam":"De Wouden","rubriek":"landbouwgebied","FID":"landbouwgebied_gegeneraliseerd_2021.0b334c3a-25d9-488a-9492-1ec07d435a8d"},"id":"LB2103"},{"arcs":[[[71]],[[72]],[[73]],[[74]]],"type":"MultiPolygon","properties":{"id":9,"statcode":"LB2104","jrstatcode":"2021LB2104","statnaam":"Eilanden","rubriek":"landbouwgebied","FID":"landbouwgebied_gegeneraliseerd_2021.fec47566-8d70-47f6-85cf-75359a362159"},"id":"LB2104"},{"arcs":[[75,-67,-43,-17]],"type":"Polygon","properties":{"id":10,"statcode":"LB2201","jrstatcode":"2021LB2201","statnaam":"Weidegebied van het Noorderveld","rubriek":"landbouwgebied","FID":"landbouwgebied_gegeneraliseerd_2021.af6e927a-fed2-4ad0-a63a-6718f7932b07"},"id":"LB2201"},{"arcs":[[76,-12,77,-10,-26,78,79,80,-68,-76,-16,81,-14]],"type":"Polygon","properties":{"id":11,"statcode":"LB2202","jrstatcode":"2021LB2202","statnaam":"Smilde en Centraal Zandgebied in Drenthe","rubriek":"landbouwgebied","FID":"landbouwgebied_gegeneraliseerd_2021.7311fbc1-d35b-4827-aaeb-c0180e595c22"},"id":"LB2202"},{"arcs":[[-81,82,83,84,-69]],"type":"Polygon","properties":{"id":12,"statcode":"LB2203","jrstatcode":"2021LB2203","statnaam":"Zuidwestelijk Weidegebied in Drenthe","rubriek":"landbouwgebied","FID":"landbouwgebied_gegeneraliseerd_2021.fce3f64f-9e1b-4a46-a35a-446824f8c28f"},"id":"LB2203"},{"arcs":[[85,86,-83,-80,87]],"type":"Polygon","properties":{"id":13,"statcode":"LB2204","jrstatcode":"2021LB2204","statnaam":"Zuidelijk Zandgebied in Drenthe","rubriek":"landbouwgebied","FID":"landbouwgebied_gegeneraliseerd_2021.227e2254-8a9d-4ec1-9e7f-f8b0e88777bf"},"id":"LB2204"},{"arcs":[[-41,88,-39,89,-37,-36,90,-88,-79,-25]],"type":"Polygon","properties":{"id":14,"statcode":"LB2205","jrstatcode":"2021LB2205","statnaam":"Drentse Veenkoloniën en Hondsrug","rubriek":"landbouwgebied","FID":"landbouwgebied_gegeneraliseerd_2021.5f3bbf5f-648b-4e29-8e7c-6619b520e6bc"},"id":"LB2205"},{"arcs":[[91,92,93,94,95,96,97,98,99,100,101,-62,-70,-85]],"type":"Polygon","properties":{"id":15,"statcode":"LB2301","jrstatcode":"2021LB2301","statnaam":"Weidegebied in Overijssel","rubriek":"landbouwgebied","FID":"landbouwgebied_gegeneraliseerd_2021.167460d9-3e82-42bd-9f1a-6ec1c8f078b7"},"id":"LB2301"},{"arcs":[[102,103,104,105,106,-92,-84,-87]],"type":"Polygon","properties":{"id":16,"statcode":"LB2302","jrstatcode":"2021LB2302","statnaam":"Noordoost-Overijssel","rubriek":"landbouwgebied","FID":"landbouwgebied_gegeneraliseerd_2021.b2133cda-88a1-4d05-820e-06486389f91a"},"id":"LB2302"},{"arcs":[[107,108,109,-106,110,-104]],"type":"Polygon","properties":{"id":17,"statcode":"LB2303","jrstatcode":"2021LB2303","statnaam":"Twente","rubriek":"landbouwgebied","FID":"landbouwgebied_gegeneraliseerd_2021.f633f114-d1e0-498a-b915-98e1a329eae7"},"id":"LB2303"},{"arcs":[[-107,-110,111,112,113,-93]],"type":"Polygon","properties":{"id":18,"statcode":"LB2304","jrstatcode":"2021LB2304","statnaam":"Salland","rubriek":"landbouwgebied","FID":"landbouwgebied_gegeneraliseerd_2021.b0e225c5-94c3-4e23-a815-d47a5232a416"},"id":"LB2304"},{"arcs":[[-102,115,116,117,-63]],"type":"Polygon","properties":{"id":19,"statcode":"LB2401","jrstatcode":"2021LB2401","statnaam":"Noordoostelijke Polder","rubriek":"landbouwgebied","FID":"landbouwgebied_gegeneraliseerd_2021.db37de8a-c395-468f-8adc-6c2d0d750fd6"},"id":"LB2401"},{"arcs":[[-117,118,-98,119,120,121,122,123,124,125,126,127,128,129,130]],"type":"Polygon","properties":{"id":20,"statcode":"LB2402","jrstatcode":"2021LB2402","statnaam":"Zuidelijke IJsselmeerpolders","rubriek":"landbouwgebied","FID":"landbouwgebied_gegeneraliseerd_2021.93c80078-4f4b-436a-a7b5-7fb5a283646e"},"id":"LB2402"},{"arcs":[[131,-94,-114,132,133,134,135,136,-96]],"type":"Polygon","properties":{"id":21,"statcode":"LB2501","jrstatcode":"2021LB2501","statnaam":"Oostelijke Veluwe","rubriek":"landbouwgebied","FID":"landbouwgebied_gegeneraliseerd_2021.4518c90e-ccfc-4798-a3fa-88ab89439b19"},"id":"LB2501"},{"arcs":[[137,138,139,-133,-113]],"type":"Polygon","properties":{"id":22,"statcode":"LB2502","jrstatcode":"2021LB2502","statnaam":"IJsselstreek","rubriek":"landbouwgebied","FID":"landbouwgebied_gegeneraliseerd_2021.9ebcf8d9-15d1-4762-a9bc-341dd49541e3"},"id":"LB2502"},{"arcs":[[140,141,142,143,144,145,146,147,-139]],"type":"Polygon","properties":{"id":23,"statcode":"LB2503","jrstatcode":"2021LB2503","statnaam":"Zuidelijk Gelderland","rubriek":"landbouwgebied","FID":"landbouwgebied_gegeneraliseerd_2021.d2381b50-a947-4e2c-aaba-98cdb8847e77"},"id":"LB2503"},{"arcs":[[-147,148]],"type":"Polygon","properties":{"id":24,"statcode":"LB2504","jrstatcode":"2021LB2504","statnaam":"Oostelijke Betuwe en Nijmegen","rubriek":"landbouwgebied","FID":"landbouwgebied_gegeneraliseerd_2021.db6268fb-c087-410f-a1c4-eb4fb161bc66"},"id":"LB2504"},{"arcs":[[-140,-148,-149,-146,149,150,151,152,153,-134]],"type":"Polygon","properties":{"id":25,"statcode":"LB2505","jrstatcode":"2021LB2505","statnaam":"Veluwezoom en Betuwe","rubriek":"landbouwgebied","FID":"landbouwgebied_gegeneraliseerd_2021.e2e610b5-ad2c-4b95-a037-b487c515e507"},"id":"LB2505"},{"arcs":[[154,155,156,157,-150,-145]],"type":"Polygon","properties":{"id":26,"statcode":"LB2506","jrstatcode":"2021LB2506","statnaam":"Bommelerwaard","rubriek":"landbouwgebied","FID":"landbouwgebied_gegeneraliseerd_2021.cfdf06b4-9b39-4e98-b01e-16f76abc888a"},"id":"LB2506"},{"arcs":[[-154,158,159,160,161,162,163,164,165,166,167,168,-124,169,-122,170,-135]],"type":"Polygon","properties":{"id":27,"statcode":"LB2507","jrstatcode":"2021LB2507","statnaam":"Westelijke Veluwe","rubriek":"landbouwgebied","FID":"landbouwgebied_gegeneraliseerd_2021.fb763921-829b-4cc9-b3be-25dcce0bb67c"},"id":"LB2507"},{"arcs":[[-109,171,-141,-138,-112]],"type":"Polygon","properties":{"id":28,"statcode":"LB2508","jrstatcode":"2021LB2508","statnaam":"Achterhoek","rubriek":"landbouwgebied","FID":"landbouwgebied_gegeneraliseerd_2021.e47f462d-6dd8-4534-8de1-b4a931702874"},"id":"LB2508"},{"arcs":[[172,173,174,175,176,-152,177,178,179,180,181]],"type":"Polygon","properties":{"id":29,"statcode":"LB2601","jrstatcode":"2021LB2601","statnaam":"Kromme Rijn-streek en Heuvelrug","rubriek":"landbouwgebied","FID":"landbouwgebied_gegeneraliseerd_2021.a3ced94d-79c9-4f2e-b6ec-ca15bd0c6846"},"id":"LB2601"},{"arcs":[[182,183,184,185,-181,186,187,188,-179,189,190,191,192,193,194]],"type":"Polygon","properties":{"id":30,"statcode":"LB2602","jrstatcode":"2021LB2602","statnaam":"Westelijk Weidegebied in Utrecht","rubriek":"landbouwgebied","FID":"landbouwgebied_gegeneraliseerd_2021.12c10ab5-817a-46d3-9455-14addd5bce18"},"id":"LB2602"},{"arcs":[[-180,-189,195,-187]],"type":"Polygon","properties":{"id":31,"statcode":"LB2603","jrstatcode":"2021LB2603","statnaam":"Centraal Tuinbouwgebied in Utrecht","rubriek":"landbouwgebied","FID":"landbouwgebied_gegeneraliseerd_2021.77cbce51-2e51-4e29-8690-2ebb879b8e27"},"id":"LB2603"},{"arcs":[[196,-168,197,-166,198,-164,199,-162,200,201,202,203,204,205,206,-182,-186,207]],"type":"Polygon","properties":{"id":32,"statcode":"LB2604","jrstatcode":"2021LB2604","statnaam":"Eemland","rubriek":"landbouwgebied","FID":"landbouwgebied_gegeneraliseerd_2021.e62f94d7-440f-4bbe-9912-375e4c1f2b94"},"id":"LB2604"},{"arcs":[[208,-159,-153,-177,209,-175,210,-173,-207,211,-205,212,-203,213,-201,-161]],"type":"Polygon","properties":{"id":33,"statcode":"LB2605","jrstatcode":"2021LB2605","statnaam":"Zandgebied in Utrecht","rubriek":"landbouwgebied","FID":"landbouwgebied_gegeneraliseerd_2021.8ca5d242-94b4-460b-811d-c1d104de6424"},"id":"LB2605"},{"arcs":[[214,215,216,217,218,219,220,-65,221]],"type":"Polygon","properties":{"id":34,"statcode":"LB2701","jrstatcode":"2021LB2701","statnaam":"Wieringen en Wieringermeer","rubriek":"landbouwgebied","FID":"landbouwgebied_gegeneraliseerd_2021.3198eb84-ebe8-4021-b2d1-b5c584ad31a4"},"id":"LB2701"},{"arcs":[[222,223,224,225,226]],"type":"Polygon","properties":{"id":35,"statcode":"LB2702","jrstatcode":"2021LB2702","statnaam":"Haarlemmermeer","rubriek":"landbouwgebied","FID":"landbouwgebied_gegeneraliseerd_2021.0c25dee1-d834-449b-8d60-673651839240"},"id":"LB2702"},{"arcs":[[227,-193,228,-223,229]],"type":"Polygon","properties":{"id":36,"statcode":"LB2703","jrstatcode":"2021LB2703","statnaam":"Amstelland en Aalsmeer","rubriek":"landbouwgebied","FID":"landbouwgebied_gegeneraliseerd_2021.f72dfe5a-388b-416a-8789-80a813a844dc"},"id":"LB2703"},{"arcs":[[[-220,230,-218,231,-216,232,233,234,235,236,237]],[[238]]],"type":"MultiPolygon","properties":{"id":37,"statcode":"LB2704","jrstatcode":"2021LB2704","statnaam":"Texel en Land van Zijpe","rubriek":"landbouwgebied","FID":"landbouwgebied_gegeneraliseerd_2021.f3bfe937-ef7c-4795-bd23-e8756067c5c7"},"id":"LB2704"},{"arcs":[[-130,239,240,241,242,243,244,245,246,247,248,249,250,251,252,253,254,255,-233,-215,256]],"type":"Polygon","properties":{"id":38,"statcode":"LB2705","jrstatcode":"2021LB2705","statnaam":"West-Friesland en omgeving","rubriek":"landbouwgebied","FID":"landbouwgebied_gegeneraliseerd_2021.7c1cd67c-34ff-4661-a3d0-70862b89cdd9"},"id":"LB2705"},{"arcs":[[[-195,257]],[[258,-251,259,-249,260,-247,261,-245,262,-243,263,-241,264,265,-230,-227,266,267,268,269,270,271,272,273,274,-236,275,-234,276,-255,277,-253]]],"type":"MultiPolygon","properties":{"id":39,"statcode":"LB2706","jrstatcode":"2021LB2706","statnaam":"Waterland en N.-Hollandse Droogmakerijen","rubriek":"landbouwgebied","FID":"landbouwgebied_gegeneraliseerd_2021.c1fac5ce-762a-4c2d-aa3a-71efa7db0cb9"},"id":"LB2706"},{"arcs":[[278,-128,279,-126,280,-208,-185,281,-183,-258,-194,-228,-266]],"type":"Polygon","properties":{"id":40,"statcode":"LB2707","jrstatcode":"2021LB2707","statnaam":"'t Gein en Gooiland","rubriek":"landbouwgebied","FID":"landbouwgebied_gegeneraliseerd_2021.fbed2470-d7ba-4f3f-aa39-0bc4bdd756bf"},"id":"LB2707"},{"arcs":[[-273,282,-271,283,-269,284,-267,-226,285,286,287,288,-237,-275,289]],"type":"Polygon","properties":{"id":41,"statcode":"LB2708","jrstatcode":"2021LB2708","statnaam":"Kennemerland","rubriek":"landbouwgebied","FID":"landbouwgebied_gegeneraliseerd_2021.0f4616bf-3c58-45a1-9e55-cd7f4e143ec4"},"id":"LB2708"},{"arcs":[[[292]],[[293,294,295,296,297,298,299,300,301,302,303,304]]],"type":"MultiPolygon","properties":{"id":42,"statcode":"LB2801","jrstatcode":"2021LB2801","statnaam":"Voorne-Putten en Hoeksche Waard","rubriek":"landbouwgebied","FID":"landbouwgebied_gegeneraliseerd_2021.d4268ad7-90d4-4bf0-a866-a60d945152f0"},"id":"LB2801"},{"arcs":[[305,306,307,308,309,310,311,312,313,314,315,316,317,318,319,320,321,322,323,324,325,326,327,328,329,330,331,332,-295,333,-305,334,335]],"type":"Polygon","properties":{"id":43,"statcode":"LB2802","jrstatcode":"2021LB2802","statnaam":"Rotterdam en omgeving","rubriek":"landbouwgebied","FID":"landbouwgebied_gegeneraliseerd_2021.8003b90d-fd78-4db5-8e3f-2d0a67d68ec8"},"id":"LB2802"},{"arcs":[[336,337,338,339,340,341,342,343]],"type":"Polygon","properties":{"id":44,"statcode":"LB2803","jrstatcode":"2021LB2803","statnaam":"Goeree-Overflakkee","rubriek":"landbouwgebied","FID":"landbouwgebied_gegeneraliseerd_2021.e8cebd85-6dc5-4d78-891a-c44c6ad81c9b"},"id":"LB2803"},{"arcs":[[-192,344,345,346,347,-224,-229]],"type":"Polygon","properties":{"id":45,"statcode":"LB2804","jrstatcode":"2021LB2804","statnaam":"Westelijk Rijnland","rubriek":"landbouwgebied","FID":"landbouwgebied_gegeneraliseerd_2021.4b2e66c0-16ed-4c9c-acdc-677ea03f70e2"},"id":"LB2804"},{"arcs":[[348,349,350,351,-346]],"type":"Polygon","properties":{"id":46,"statcode":"LB2805","jrstatcode":"2021LB2805","statnaam":"Boskoop en Rijneveld","rubriek":"landbouwgebied","FID":"landbouwgebied_gegeneraliseerd_2021.743adae1-d2d3-48ee-a9dd-575af2a7059f"},"id":"LB2805"},{"arcs":[[-191,352,-332,353,-351,354,-349,-345]],"type":"Polygon","properties":{"id":47,"statcode":"LB2806","jrstatcode":"2021LB2806","statnaam":"Krimpenerwaard en Oostelijk Rijnland","rubriek":"landbouwgebied","FID":"landbouwgebied_gegeneraliseerd_2021.cedf24f8-ca7f-42bb-991f-7e8c5875254c"},"id":"LB2806"},{"arcs":[[-151,-158,355,-296,-333,-353,-190,-178]],"type":"Polygon","properties":{"id":48,"statcode":"LB2807","jrstatcode":"2021LB2807","statnaam":"Alblasserwaard en Vijfherenlanden","rubriek":"landbouwgebied","FID":"landbouwgebied_gegeneraliseerd_2021.8897afce-e75a-4327-9995-909412cd23d5"},"id":"LB2807"},{"arcs":[[-286,-225,-348,356,357,-288,358]],"type":"Polygon","properties":{"id":49,"statcode":"LB2808","jrstatcode":"2021LB2808","statnaam":"Bollenstreek","rubriek":"landbouwgebied","FID":"landbouwgebied_gegeneraliseerd_2021.1f0a088d-b632-44b5-94c0-4c821580b56e"},"id":"LB2808"},{"arcs":[[-347,-352,-354,-331,359,-329,360,-327,361,-325,362,-323,363,-321,364,-319,365,-317,366,-315,367,-313,368,-311,369,-309,370,-307,371,-336,372,-357]],"type":"Polygon","properties":{"id":50,"statcode":"LB2809","jrstatcode":"2021LB2809","statnaam":"Westland en Zuidhollandse Droogmakerijen","rubriek":"landbouwgebied","FID":"landbouwgebied_gegeneraliseerd_2021.c7edf037-b9b9-4b8e-a2c7-4d3d082ba1ec"},"id":"LB2809"},{"arcs":[[375,-341,376,377,378,379,380,381,382,383,384,385,386,387,388,-343]],"type":"Polygon","properties":{"id":51,"statcode":"LB2901","jrstatcode":"2021LB2901","statnaam":"Noordelijk Zeeland","rubriek":"landbouwgebied","FID":"landbouwgebied_gegeneraliseerd_2021.6a935bf7-d817-45d7-8677-4ac8e6772327"},"id":"LB2901"},{"arcs":[[[-384,390,-382,391,-380,392,393]],[[-386,394,395,396]]],"type":"MultiPolygon","properties":{"id":52,"statcode":"LB2902","jrstatcode":"2021LB2902","statnaam":"Walcheren en Zuid-Beveland","rubriek":"landbouwgebied","FID":"landbouwgebied_gegeneraliseerd_2021.833afbd6-765c-45ac-8c8e-32891ae92ff2"},"id":"LB2902"},{"arcs":[[397]],"type":"Polygon","properties":{"id":53,"statcode":"LB2903","jrstatcode":"2021LB2903","statnaam":"Zeeuwsch-Vlaanderen","rubriek":"landbouwgebied","FID":"landbouwgebied_gegeneraliseerd_2021.f4028f3c-29da-4ec6-94b7-30f6cb2b4e51"},"id":"LB2903"},{"arcs":[[399,400,401,-378,402,-339,403,-301,404,-299]],"type":"Polygon","properties":{"id":54,"statcode":"LB3001","jrstatcode":"2021LB3001","statnaam":"Noordwesthoek","rubriek":"landbouwgebied","FID":"landbouwgebied_gegeneraliseerd_2021.77e7a104-a1f6-42f1-aa07-de45e0382dc4"},"id":"LB3001"},{"arcs":[[405,406,407,408,409,410,411,412,413,414,415,-400,-298,416]],"type":"Polygon","properties":{"id":55,"statcode":"LB3002","jrstatcode":"2021LB3002","statnaam":"Westelijke Langstraat","rubriek":"landbouwgebied","FID":"landbouwgebied_gegeneraliseerd_2021.a6016740-4b54-4570-9b77-b68c84160ef6"},"id":"LB3002"},{"arcs":[[-157,417,-417,-297,-356]],"type":"Polygon","properties":{"id":56,"statcode":"LB3003","jrstatcode":"2021LB3003","statnaam":"Biesbosch","rubriek":"landbouwgebied","FID":"landbouwgebied_gegeneraliseerd_2021.4045b7c1-e113-4893-a95d-739033cdb3bd"},"id":"LB3003"},{"arcs":[[418,419,-406,-418,-156,420]],"type":"Polygon","properties":{"id":57,"statcode":"LB3004","jrstatcode":"2021LB3004","statnaam":"Oostelijke Langstraat","rubriek":"landbouwgebied","FID":"landbouwgebied_gegeneraliseerd_2021.fb83d652-2772-485f-92f2-18f5a9dfe85e"},"id":"LB3004"},{"arcs":[[421,422,423,424,-393,-379,-402,425]],"type":"Polygon","properties":{"id":58,"statcode":"LB3005","jrstatcode":"2021LB3005","statnaam":"Westelijke Zandgronden","rubriek":"landbouwgebied","FID":"landbouwgebied_gegeneraliseerd_2021.3eddf1f2-808e-45e0-8f9a-fe10f9cf246d"},"id":"LB3005"},{"arcs":[[426,-414,427,-412,428,-410,429,430,431,432,433,434,435,-424,436,437,-426,-401,-416]],"type":"Polygon","properties":{"id":59,"statcode":"LB3006","jrstatcode":"2021LB3006","statnaam":"Land van Breda","rubriek":"landbouwgebied","FID":"landbouwgebied_gegeneraliseerd_2021.f8478bf7-a3c7-49d5-8b76-69a4ec4cdb07"},"id":"LB3006"},{"arcs":[[438,439,440,441,442,443,444,-435,445,-433,446,-431,447]],"type":"Polygon","properties":{"id":60,"statcode":"LB3007","jrstatcode":"2021LB3007","statnaam":"De Kempen","rubriek":"landbouwgebied","FID":"landbouwgebied_gegeneraliseerd_2021.4583a3ad-3198-4d10-bcbb-f0d6dea53a5c"},"id":"LB3007"},{"arcs":[[448,449,-444,450,-442,451,-440,452,-448,-430,-409,453,-407,-420]],"type":"Polygon","properties":{"id":61,"statcode":"LB3008","jrstatcode":"2021LB3008","statnaam":"Midden-Noord-Brabant","rubriek":"landbouwgebied","FID":"landbouwgebied_gegeneraliseerd_2021.9b6d4a9a-cbad-48d5-95a4-8521334ffdfc"},"id":"LB3008"},{"arcs":[[454,455,456,457,-421,-155,-144]],"type":"Polygon","properties":{"id":62,"statcode":"LB3009","jrstatcode":"2021LB3009","statnaam":"Maaskant en Land van Cuijk","rubriek":"landbouwgebied","FID":"landbouwgebied_gegeneraliseerd_2021.5355d05f-29bb-42dd-905e-e2a8f4b56db5"},"id":"LB3009"},{"arcs":[[458,459,-449,-419,-458,460,-456]],"type":"Polygon","properties":{"id":63,"statcode":"LB3010","jrstatcode":"2021LB3010","statnaam":"Westelijk Peelgebied","rubriek":"landbouwgebied","FID":"landbouwgebied_gegeneraliseerd_2021.4473b052-e908-44cc-ac54-3ef28fc7dec7"},"id":"LB3010"},{"arcs":[[461,462,463,-459,-455,-143]],"type":"Polygon","properties":{"id":64,"statcode":"LB3101","jrstatcode":"2021LB3101","statnaam":"Noord-Limburg","rubriek":"landbouwgebied","FID":"landbouwgebied_gegeneraliseerd_2021.a69f30ef-bb8e-48a5-8dac-fb92b5a8ce2e"},"id":"LB3101"},{"arcs":[[464,-463]],"type":"Polygon","properties":{"id":65,"statcode":"LB3102","jrstatcode":"2021LB3102","statnaam":"Zuid-Limburg","rubriek":"landbouwgebied","FID":"landbouwgebied_gegeneraliseerd_2021.7392ba16-987b-42c4-98d9-f43239feacce"},"id":"LB3102"}]}}}