{"type":"Topology","arcs":[[[1642,1070],[16,-13],[32,-10],[19,-17],[29,7],[42,-15],[0,-22],[-10,-13]],[[1770,987],[-26,-7],[-20,-9],[27,-13]],[[1751,958],[-4,-19]],[[1747,939],[-3,-18],[4,-36],[39,5],[47,-2],[16,-19]],[[1850,869],[29,-2]],[[1879,867],[9,5]],[[1888,872],[23,-13]],[[1911,859],[10,-5]],[[1921,854],[-32,-18]],[[1889,836],[-1,-8],[26,-29],[-19,-10],[-9,-14]],[[1886,775],[-20,-9],[3,-10]],[[1869,756],[-7,-34],[-10,-7],[-19,-36],[-89,-1]],[[1744,678],[3,2],[-26,40],[-33,0],[-24,11],[-11,-10],[-7,-27],[-41,-23],[-34,-26],[-43,21],[-46,-2],[-51,-6],[-18,6],[-4,16],[20,2],[42,-10],[-6,26],[13,12],[4,18],[-19,4],[-6,12],[-32,5],[-30,0],[-24,-16],[-12,-15],[-24,-17],[-26,-8],[3,-18],[-40,0],[-55,7],[-40,-10],[-5,27],[18,23],[-10,9],[-51,-5],[-45,-8],[-57,-20],[12,-7],[-2,-15],[-11,-6],[8,-13],[40,-33],[-10,-10],[-37,-11],[-44,4],[-6,20],[-92,-3],[-11,20],[-35,12],[-40,-12],[-50,8],[-45,11],[-12,16],[-17,2],[-46,22],[-12,8],[-54,-17],[5,-11],[-25,-39],[-25,2],[-18,-6],[-46,-5],[-22,14],[-35,15],[-20,-4],[-14,15],[-29,18],[-34,13],[-18,-13],[-65,-5],[-48,24],[-31,31],[-36,16],[-27,18],[5,14],[114,48],[47,4],[35,-5],[47,11],[2,23],[15,16],[16,3],[8,21],[-33,15],[-10,29],[10,13],[21,11],[54,12],[49,-2],[26,17]],[[481,1007],[3,-2]],[[484,1005],[-16,-17],[24,-1],[38,6],[26,-13],[59,2],[9,-15],[25,-15],[8,-16],[29,-2],[48,-18],[17,11],[46,5]],[[797,932],[2,-1]],[[799,931],[12,-28],[32,-15],[40,-7],[76,14],[33,2],[23,9],[15,12],[6,25]],[[1036,943],[10,5]],[[1046,948],[22,-2],[64,-14],[37,2],[75,12],[34,20]],[[1278,966],[1,0]],[[1279,966],[7,2]],[[1286,968],[31,5],[62,32],[18,26],[19,11],[23,7],[49,-1],[43,20],[30,8]],[[1561,1076],[51,-3]],[[1612,1073],[30,-3]],[[751,879],[-8,13],[19,11],[32,1],[8,15],[-10,8],[-41,-4],[-12,-26],[-26,-16],[-21,-1],[-43,-14],[-39,-3],[-28,20],[-26,-5],[-45,-33],[23,-24],[5,-12],[-24,-5],[-5,-15],[59,4],[13,-19],[17,6],[43,-10],[43,-18],[13,-21],[37,-36],[40,-15],[20,2],[28,11],[42,-5],[-1,25],[-8,28],[-37,10],[-1,13],[-12,8],[-87,2],[-28,28],[-44,23],[-21,5],[6,12],[34,4],[51,16],[26,-3],[7,-7],[43,0],[3,10],[-28,0],[-17,17]],[[363,841],[24,5],[29,0],[25,8],[36,1],[34,-10],[45,33],[-24,4],[1,10],[-14,24],[-20,11],[-32,6],[-7,12],[-25,0],[-11,-10],[-57,-17],[-11,-34],[-27,-13],[-5,-21],[39,-9]],[[349,766],[18,9],[-37,30],[-33,13],[-14,19],[-13,-13],[16,-15],[26,-10],[13,-20],[24,-13]],[[1186,944],[28,5]],[[1214,949],[-28,-5]],[[161,656],[29,-2],[37,-17],[56,-12],[46,-5],[36,-21],[66,0],[18,-12],[60,-2],[50,25],[38,6],[13,19],[-4,13],[10,8],[44,-6],[35,-35],[60,-5],[26,0],[34,12],[33,1],[29,-26],[-69,-55],[-108,-50],[-21,3],[-31,-4],[-20,-8],[-27,-18],[-73,-16],[3,23],[-29,-12],[-39,-2],[-30,5],[-2,32],[6,10],[-39,13],[-62,7],[-36,14],[-17,-2],[-50,16],[-15,-16],[-13,8],[-48,-9],[13,-41],[-78,-4],[-43,15],[-37,35],[7,10],[-19,13],[27,19],[-11,15],[-4,23],[9,5],[52,15],[9,-4],[79,19]],[[1802,2546],[-27,-12],[-22,3],[16,13],[33,-4]],[[1742,2551],[-37,-7],[-30,-13],[-61,-16],[7,-16],[-60,-33],[-39,-1],[-11,-11],[-24,4],[9,14],[79,33],[28,16],[75,31],[28,6],[36,-7]],[[2185,2689],[-2,-6],[-65,-16],[-17,-12],[-55,0],[-20,-3],[-27,-14],[-64,-18],[-36,3],[-36,-9],[-30,-16],[-40,2],[14,20],[21,18],[15,7],[50,9],[125,19],[119,21],[48,-5]],[[2373,2712],[40,-2],[160,8],[-40,-17],[-86,-13],[-75,5],[-27,-13],[-23,-5],[-37,2],[-27,13],[0,13],[36,17],[16,1],[27,-9],[36,0]],[[3344,1892],[3,1]],[[3347,1893],[-19,10]],[[3328,1903],[-71,21],[-62,-8]],[[3195,1916],[-24,-12]],[[3171,1904],[-15,-8],[5,-32],[-49,11],[-17,-11],[-19,12],[-50,-14],[-20,31],[-38,17],[-3,10],[-25,-4],[-32,1]],[[2908,1917],[-10,3]],[[2898,1920],[-25,11]],[[2873,1931],[-11,5],[-26,-7]],[[2836,1929],[-31,1],[-12,23],[-31,47],[12,9],[24,4],[46,31],[-65,45],[-17,15],[-39,-15],[-28,-2],[7,-11],[-22,-8]],[[2680,2068],[-13,5],[-28,-6]],[[2639,2067],[-11,5]],[[2628,2072],[-14,20],[-42,-7],[-6,-11],[-26,-16],[-22,-7],[-32,4],[-24,12]],[[2462,2067],[-25,-10]],[[2437,2057],[-11,10],[-35,23],[-24,4]],[[2367,2094],[-12,-6]],[[2355,2088],[-28,8],[-27,-2],[-13,16],[-27,-9],[-33,-2],[-18,-15],[-22,-1],[-45,13],[-46,9],[-28,-7],[-28,9],[-32,17],[-9,10],[14,15],[36,11],[-6,29],[12,25],[-16,39],[11,17],[-32,35],[17,8],[-4,14],[-14,14],[-31,-17],[-47,-7],[-130,-68]],[[1809,2249],[-1,1]],[[1808,2250],[127,67],[56,11],[29,17],[1,13],[25,14],[16,60],[29,38],[34,21],[44,16],[35,28],[25,15],[93,28],[76,25],[23,3],[81,28],[28,7],[45,-3],[83,15],[79,5],[44,-4],[38,11],[22,-7],[45,7],[17,-1],[37,-14],[8,-7],[34,15],[28,8],[47,6],[123,9],[9,-2],[52,9],[35,13],[62,11],[50,4],[52,-11],[16,8],[51,-13],[17,-10],[-8,-32],[14,-12],[9,-40],[37,-23],[34,-14],[59,-17],[57,-4],[-6,-31],[26,-15],[30,-2],[22,-7],[50,-7],[11,-21],[1,-17],[-27,-36],[-12,-23],[4,-17],[20,-9],[-4,-32],[14,-70],[-31,-69],[-78,-78],[-17,-14],[6,-12],[-21,-28],[-8,-87],[-9,-79],[-13,-11],[-67,13],[-36,-8],[-20,2],[-22,11],[-75,-3],[-45,4],[-35,-7],[-16,-12],[-24,-6],[0,15]],[[2866,2647],[-46,17],[-16,-6],[-7,-16],[7,-23],[35,-16],[21,11],[-33,39],[39,-6]],[[3021,2757],[-41,-1],[-8,-5],[-56,-12],[-22,-11],[-55,-6],[-36,0],[-46,-9],[4,20],[31,14],[79,8],[60,4],[56,7],[43,1],[-9,-10]],[[3147,2801],[1,-13],[-20,-11],[-25,12],[26,15],[18,-3]],[[2836,1929],[26,7],[11,-5]],[[2873,1931],[25,-11]],[[2898,1920],[10,-3]],[[3171,1904],[24,12]],[[3328,1903],[19,-10]],[[3344,1892],[0,-15],[11,0],[14,-12],[-8,-26],[48,-25],[-15,-5],[-25,4],[-11,-14],[-35,4],[24,-32],[-7,-35],[55,-22],[22,-4],[79,0],[8,-9],[80,-16],[19,9],[17,22],[16,-1],[17,-36],[24,-25],[24,-5],[13,-26],[0,-21],[-16,-14],[-8,-18],[-22,-28],[2,-14],[14,-22],[24,-15],[-5,-6],[-42,-10],[-30,2],[-38,-46],[-35,-3],[-34,-22],[-9,-24],[-18,-13],[-32,-2],[-62,1],[-10,-34],[-16,-10],[-39,-5],[-8,-30],[26,0],[39,-12],[58,-30],[16,-4],[2,-30],[-30,-5],[-5,-24],[-24,-19],[-16,-3],[-32,-17],[-29,19],[-18,1],[-37,-12],[-52,-10],[-30,-12],[-55,-14],[-1,-6],[-35,-7],[-14,10],[-22,0],[-38,8],[-3,-11],[20,-8],[-1,-26],[-44,7],[-18,16],[-39,-2],[-5,16],[-21,9],[-18,-6],[-47,0],[-31,15],[7,9],[-34,13],[-47,-10],[27,-9],[8,-16],[22,-8],[0,-21],[-31,6],[-29,1],[-44,17],[-8,-13],[-19,-9],[-49,-12],[-24,6],[-18,-13],[34,-26],[12,-32],[-38,-18]],[[2595,997],[-38,5],[-22,25],[-25,-2],[-4,-18]],[[2506,1007],[-12,1],[-72,-7],[-35,7],[-13,13],[-30,6],[-8,10],[-37,10],[-22,22],[-17,0],[-29,10],[-31,-2],[-17,-12],[-23,3],[-15,10],[-17,0],[-12,-14],[-35,-5],[-37,11],[-33,-31],[-9,-29],[-6,-6],[-58,-18],[-13,3],[-38,-6],[-33,9]],[[1854,992],[-49,0],[-35,-5]],[[1642,1070],[26,-2],[5,22],[-22,2]],[[1651,1092],[-9,1]],[[1642,1093],[-2,11]],[[1640,1104],[29,4]],[[1669,1108],[37,2]],[[1706,1110],[-9,12],[26,3],[6,8]],[[1729,1133],[27,5]],[[1756,1138],[18,26],[16,14],[32,38],[10,-4]],[[1832,1212],[16,-4],[24,17],[17,1],[23,-12],[63,-8],[15,11],[35,1],[35,8],[24,9],[31,-3]],[[2115,1232],[13,1],[25,-10],[29,-7],[21,-12],[45,-12],[19,9]],[[2267,1201],[1,22],[-12,16],[-27,21]],[[2229,1260],[0,20],[-16,17]],[[2213,1297],[-13,1],[5,29],[-13,27],[-17,-5]],[[2175,1349],[4,-11],[-14,-11],[-39,-8],[-25,10],[27,14],[-2,12]],[[2126,1355],[4,10]],[[2130,1365],[10,14],[14,4]],[[2154,1383],[-23,14]],[[2131,1397],[-19,19],[-30,5],[-1,31],[-29,17]],[[2052,1469],[-17,2],[11,26],[102,18],[21,-1],[14,15],[18,32],[17,16],[35,19],[3,11],[17,9],[22,-1],[25,14],[22,2],[40,17],[71,38],[11,10],[-5,11]],[[2459,1707],[24,10],[25,53],[-9,24]],[[2499,1794],[1,2]],[[2500,1796],[-16,17],[-13,24],[14,24]],[[2485,1861],[53,7]],[[2538,1868],[35,-4],[31,10],[24,-1],[33,20],[-36,15]],[[2625,1908],[-12,7],[-37,11],[31,18],[-23,22]],[[2584,1966],[-6,14]],[[2578,1980],[-14,21]],[[2564,2001],[-42,22],[-30,12],[-31,3],[-24,19]],[[2437,2057],[25,10]],[[2628,2072],[11,-5]],[[2639,2067],[28,6],[13,-5]],[[2485,1861],[43,9],[10,-2]],[[2564,2001],[14,-21]],[[2578,1980],[6,-14]],[[2625,1908],[-19,-19],[-132,-26],[-169,0],[-23,-5],[15,-11],[101,-15],[57,-5],[45,-31]],[[2499,1794],[0,-26],[-9,-25],[-31,-36]],[[2459,1707],[-20,-18],[-50,-24],[-27,1],[-59,-18],[-36,-18],[-15,-14],[-28,-3],[-18,5],[-26,-18],[15,-16],[0,-13],[-24,-46],[-119,-22],[-25,11],[-68,40],[-20,-11],[14,-19],[46,-4],[47,-23],[-11,-26],[17,-2]],[[2131,1397],[23,-14]],[[2130,1365],[-4,-10]],[[2175,1349],[17,5],[13,-27],[-5,-29],[13,-1]],[[2229,1260],[27,-21],[12,-16],[-1,-22]],[[2267,1201],[-19,-9],[-45,12],[-21,12],[-29,7],[-25,10],[-13,-1]],[[1832,1212],[-10,4],[-32,-38],[-16,-14],[-18,-26]],[[1729,1133],[-6,-8],[-26,-3],[9,-12]],[[1706,1110],[-37,-2],[-3,22]],[[1666,1130],[-25,3],[-4,18],[-39,14],[-17,13],[-10,21]],[[1571,1199],[-15,-8],[-36,-4],[-18,30],[-33,25]],[[1469,1242],[-9,7],[39,6],[-10,12],[-44,-4],[26,36],[39,13],[-42,12],[-1,32]],[[1467,1356],[-33,15],[21,18],[20,5]],[[1475,1394],[22,-8],[20,2],[-1,18],[18,6],[-37,17],[-11,1],[-30,22],[-15,17]],[[1441,1469],[-4,8],[34,4]],[[1471,1481],[23,11]],[[1494,1492],[6,6]],[[1500,1498],[11,4]],[[1511,1502],[42,1],[18,15],[-3,10],[31,1]],[[1599,1529],[27,11],[13,-1],[16,15],[30,-22],[22,-4],[37,2],[-10,35],[-63,16],[-2,7]],[[1669,1588],[10,-4],[40,6],[60,-15],[-8,58],[33,17],[96,35],[120,52],[17,4],[40,20],[-9,19],[1,8],[11,17],[8,6],[21,11],[-12,22],[-56,55],[-39,25],[-55,16],[-18,0]],[[1929,1940],[0,1]],[[1929,1941],[15,1],[52,-14],[7,-4],[39,-25],[56,-55],[13,-24],[-29,-14],[-12,-18],[20,-3],[8,15],[45,6],[58,36],[69,13],[24,12],[-36,34],[-23,12],[2,100],[65,65],[53,10]],[[2367,2094],[24,-4],[35,-23],[11,-10]],[[1795,1579],[-15,-4],[24,-19],[86,6],[43,-15],[24,7],[-30,13],[-64,17],[-26,2],[-42,-7]],[[1324,2210],[-19,9],[4,14],[26,-3],[-11,-20]],[[1929,1940],[-41,-4],[-10,-29],[-37,-21],[-24,-3],[-16,-10],[-31,-3],[-39,23],[-21,-8],[-22,7],[-27,-12],[1,-34],[11,-29],[24,-22],[11,-22],[20,-19],[-27,-18],[9,-14],[-20,-17],[1,-16],[29,-2],[9,0],[6,3],[0,12],[10,15],[30,-7],[-38,-12],[-1,-7],[-2,-4],[-17,-8],[-7,-12]],[[1710,1667],[-19,-2],[-66,12]],[[1625,1677],[-35,-5],[-3,-7]],[[1587,1665],[-14,-3],[-25,10]],[[1548,1672],[-43,8]],[[1505,1680],[-7,-13],[-117,14],[-10,-30],[28,-4],[-1,-41],[60,-29],[1,-15]],[[1459,1562],[-21,-13],[-8,-10]],[[1430,1539],[-23,-12],[-39,-14],[-24,-19],[-32,-13]],[[1312,1481],[-37,-15],[-30,-1],[-46,4],[11,50],[20,11],[24,34],[-43,2],[-5,-7],[-70,19]],[[1136,1578],[61,95],[7,23],[-8,15],[51,6],[-30,12],[18,34],[22,83],[12,69],[11,43],[-1,21],[6,22],[37,59],[31,83],[6,54],[14,16],[32,2],[16,-10],[23,-2],[-11,-17],[18,-25],[66,-23],[34,6],[26,9],[33,27],[86,11],[112,59]],[[1809,2249],[-128,-68],[10,-7],[65,-78],[-10,-72],[14,-4],[6,-14],[22,-14],[34,-1],[13,14],[65,-2],[25,-13],[5,-25],[11,-12],[-12,-12]],[[1521,2407],[14,-5],[15,-17],[-8,-10],[-3,-46],[-24,-14],[0,-10],[-26,-21],[-28,-5],[-34,-27],[-48,-13],[-23,8],[-5,25],[15,46],[34,38],[40,35],[43,42],[20,0],[18,-26]],[[1505,1680],[43,-8]],[[1587,1665],[3,7],[35,5]],[[1710,1667],[-16,-4],[-38,-28],[-40,-13],[36,-19],[17,-15]],[[1599,1529],[-31,-1],[3,-10],[-18,-15],[-42,-1]],[[1500,1498],[-6,-6]],[[1471,1481],[-34,-4]],[[1437,1477],[-16,1]],[[1421,1478],[-46,-21]],[[1375,1457],[-8,6]],[[1367,1463],[-1,19],[-28,0]],[[1338,1482],[-26,-1]],[[1430,1539],[8,10],[21,13]],[[1338,1482],[28,0],[1,-19]],[[1367,1463],[8,-6]],[[1375,1457],[46,21]],[[1437,1477],[4,-8]],[[1475,1394],[-20,-5],[-21,-18],[33,-15]],[[1469,1242],[33,-25],[18,-30]],[[1520,1187],[-46,1]],[[1474,1188],[-21,-14]],[[1453,1174],[-20,-5]],[[1433,1169],[-29,-6],[-46,-18],[-43,-6],[-52,-1]],[[1263,1138],[-26,5],[6,13],[42,6],[-24,20]],[[1261,1182],[-35,32],[15,23],[-20,2],[-7,-18],[-18,-3],[-8,23],[9,14],[10,53],[-31,-10],[-27,-16]],[[1149,1282],[-30,-1],[-20,-10],[0,-17]],[[1099,1254],[-6,-9]],[[1093,1245],[-57,-33],[-58,-17]],[[978,1195],[-43,-25]],[[935,1170],[-34,7]],[[901,1177],[-27,15]],[[874,1192],[-14,-1],[-26,13],[-5,12],[-40,14],[-22,21]],[[767,1251],[67,50],[33,22],[36,29],[42,26],[29,21],[42,38],[73,80],[47,61]],[[1186,944],[28,5]],[[953,996],[42,-10],[-16,-10],[-26,1],[-49,19],[2,7],[47,-7]],[[598,1027],[-51,-7],[29,19],[22,-12]],[[1261,1182],[24,-20],[-42,-6],[-6,-13],[26,-5]],[[1433,1169],[20,5]],[[1453,1174],[21,14]],[[1520,1187],[36,4],[15,8]],[[1666,1130],[3,-22]],[[1640,1104],[2,-11]],[[1651,1092],[22,-2],[-5,-22],[-56,5]],[[1612,1073],[-51,3]],[[1286,968],[-7,-2]],[[1278,966],[-17,6],[-31,-11],[-58,-11],[-63,14],[-28,1],[-33,6],[-8,-11],[6,-12]],[[1036,943],[-26,-9],[-11,-14],[-18,-6],[-58,-10],[-49,6],[-12,13],[-31,9],[-32,-1]],[[797,932],[0,14],[-44,11],[-41,0],[-11,4],[-37,31],[-5,13],[3,23],[-31,23],[-40,1],[-13,-5],[-39,-4],[-1,-9],[-27,-4],[-14,-23],[-13,-2]],[[481,1007],[21,13],[5,11],[-10,21],[5,11],[32,12],[17,1],[39,13],[52,9],[36,-25],[32,25],[-39,37],[24,32],[-13,6],[-41,-9],[-15,3],[-21,36],[2,13],[19,18],[20,4],[38,-3],[5,8],[50,-9],[28,17]],[[874,1192],[27,-15]],[[935,1170],[43,25]],[[1093,1245],[6,9]],[[1099,1254],[0,17],[20,10],[30,1]],[[700,1087],[-14,-19],[49,-15],[33,-15],[62,-13],[55,-31],[20,-17],[36,-11],[30,-14],[55,-1],[20,21],[-55,20],[-32,9],[-68,14],[-18,13],[-1,9],[-18,12],[-30,5],[-26,18],[-25,-3],[-37,9],[-20,14],[-16,-5]],[[2506,1007],[16,-8],[5,-22],[15,-8],[34,-4],[21,-7],[10,-33],[-2,-19],[9,-11],[24,-9],[24,-15],[6,-26],[14,-14],[1,-18]],[[2683,813],[-4,-6]],[[2679,807],[-4,-1]],[[2675,806],[-30,13]],[[2645,819],[-68,-16],[-28,-2],[-16,8],[-53,6]],[[2480,815],[15,-62],[8,-12],[11,-42],[5,-5]],[[2519,694],[54,-60],[-61,-32]],[[2512,602],[-99,-19]],[[2413,583],[-99,-19],[-46,-41],[-7,-45],[-53,-8]],[[2208,470],[-11,23],[3,18],[-42,33],[-31,5],[-20,-15],[-23,-3],[-25,-20],[-71,14],[-10,-13],[-40,-2],[-33,6],[-25,-6],[-12,7],[16,37],[-42,18],[-37,-13],[-29,6],[-2,31],[-15,14],[-46,32],[31,36]],[[1869,756],[-3,10],[20,9]],[[1889,836],[32,18]],[[1911,859],[-23,13]],[[1888,872],[-9,-5]],[[1879,867],[-29,2]],[[1747,939],[4,19]],[[1751,958],[-27,13],[20,9],[61,12],[49,0]],[[2595,997],[2,-10],[39,0],[51,-21],[-19,-8],[11,-36],[51,-13],[29,-3],[-26,-51],[30,-13],[10,-12],[26,-14],[20,-28],[23,-12],[12,-14],[1,-22],[11,-16],[-19,-75],[9,-10],[12,-30],[-36,-21],[-21,-6],[-24,-35],[-20,-23],[-39,-27],[-13,-5],[13,-20],[-18,-2],[5,-38],[9,-11],[31,3],[9,6],[43,13],[16,-8],[-42,-13],[36,-15],[-12,-9],[-37,-4],[-34,-10],[-16,-16],[-40,-22],[-26,-6],[-40,-30],[-2,-16],[-30,-10],[-25,32],[-26,-15],[-9,-14],[1,-20],[27,-16],[-9,-27],[58,13],[11,-8],[51,3],[1,-48],[64,-13],[-7,-29],[13,-21],[-11,-11],[-58,-15],[-3,-12],[9,-20],[-21,-13],[-19,9],[-10,-12],[53,-24],[-7,-20],[-47,1],[-5,6],[-38,-4],[-10,-6],[-31,5],[-4,14],[-23,-6],[-18,1],[-38,-9],[-30,27],[-30,-13],[-8,-13],[-19,8],[-25,-10],[-12,6],[14,14],[-3,37],[-38,12],[-17,22],[5,25],[39,18],[15,21],[27,1],[1,10],[30,37],[-36,4],[46,36],[10,24],[-18,12],[14,26],[21,-1],[11,18],[-9,13],[29,2],[10,8],[-24,18],[30,13],[16,14],[-20,9],[-12,14],[-46,-17],[-11,33],[-27,3],[-32,-5],[-50,3],[-12,15],[-80,21]],[[2413,583],[99,19]],[[2519,694],[-5,5],[-11,42],[-8,12],[-15,62]],[[2480,815],[53,-6],[16,-8],[28,2],[68,16]],[[2645,819],[30,-13]],[[2675,806],[4,1]],[[2679,807],[4,6]]],"transform":{"scale":[0.001,0.0009996433666191172],"translate":[3.358,50.751]},"objects":{"regionale_eenheid_2024":{"type":"GeometryCollection","geometries":[{"arcs":[[[0,1,2,3,4,5,6,7,8,9,10,11,12,13,14,15,16,17,18,19,20,21,22,23],[24],[25],[26]],[[29]]],"type":"MultiPolygon","properties":{"statcode":"RE08","jrstatcode":"2024RE08","statnaam":"Zeeland - West-Brabant","rubriek":"regionale_eenheid","id":8,"FID":"regionale_eenheid_gegeneraliseerd.0e05bf83-d375-4018-ae78-3a6a66f3dba1"},"id":"RE08"},{"arcs":[[[30]],[[31]],[[32]],[[33]],[[34,35,36,37,38,39,40,41,42,43,44,45,46,47,48,49,50,51],[52]],[[53]],[[54]]],"type":"MultiPolygon","properties":{"statcode":"RE01","jrstatcode":"2024RE01","statnaam":"Noord-Nederland","rubriek":"regionale_eenheid","id":1,"FID":"regionale_eenheid_gegeneraliseerd.d9149c76-78e9-426c-8b58-39c21e4ad714"},"id":"RE01"},{"arcs":[[55,56,57,-39,58,-37,59,-35,60,61,62,63,-1,64,65,66,67,68,69,70,71,72,73,74,75,76,77,78,79,80,81,82,83,84,85,86,87,88,89,90,91,92,-46,93,94,-43]],"type":"Polygon","properties":{"statcode":"RE02","jrstatcode":"2024RE02","statnaam":"Oost-Nederland","rubriek":"regionale_eenheid","id":2,"FID":"regionale_eenheid_gegeneraliseerd.ff597e1a-7c12-4a2f-9666-e04869dccdf8"},"id":"RE02"},{"arcs":[[[95,-87]],[[-92,96,97,-89,98,-85,99,100,-82,101,-80,102,-78,103,-76,104,105,-73,106,-71,107,108,109,110,111,112,113,114,115,116,117,118,119,120,121,122,-49,123],[124]]],"type":"MultiPolygon","properties":{"statcode":"RE03","jrstatcode":"2024RE03","statnaam":"Midden-Nederland","rubriek":"regionale_eenheid","id":3,"FID":"regionale_eenheid_gegeneraliseerd.6ab4e461-8108-4e99-948e-8540c09027b6"},"id":"RE03"},{"arcs":[[[125]],[[-122,126,127,128,129,130,131,132,133,134,135,-51,136]],[[137]]],"type":"MultiPolygon","properties":{"statcode":"RE04","jrstatcode":"2024RE04","statnaam":"Noord-Holland","rubriek":"regionale_eenheid","id":4,"FID":"regionale_eenheid_gegeneraliseerd.36dce507-dded-4076-8b12-669cb935f354"},"id":"RE04"},{"arcs":[[138,-130,139,-128,140,-120,141,-118,142,-116,143,144,145,146,147,148,-134,149,-132]],"type":"Polygon","properties":{"statcode":"RE05","jrstatcode":"2024RE05","statnaam":"Amsterdam","rubriek":"regionale_eenheid","id":5,"FID":"regionale_eenheid_gegeneraliseerd.dd2cdebd-a9be-411d-9536-a91926fac257"},"id":"RE05"},{"arcs":[[-149,150,151,152,-145,153,-114,154,-112,155,156,157,158,159,160,161,162,163,164,165,166,167,168,169,-135]],"type":"Polygon","properties":{"statcode":"RE06","jrstatcode":"2024RE06","statnaam":"Den Haag","rubriek":"regionale_eenheid","id":6,"FID":"regionale_eenheid_gegeneraliseerd.67707e49-43d3-41b7-9a05-e94a972ae77f"},"id":"RE06"},{"arcs":[[[171]],[[172]],[[173,-160,174,175,-157,176,-110,177,-68,178,-66,179,180,-22,181,-20,182,-18,183,-16,184,-14,185,-169,186,-167,187,-165,188,189,-162],[190]]],"type":"MultiPolygon","properties":{"statcode":"RE07","jrstatcode":"2024RE07","statnaam":"Rotterdam","rubriek":"regionale_eenheid","id":7,"FID":"regionale_eenheid_gegeneraliseerd.097e8922-46b2-4e65-9b96-9c56e7c13acc"},"id":"RE07"},{"arcs":[[191,192,193,194,195,196,197,198,199,200,-12,201,-10,202,-8,203,204,205,-4,206,207,-63]],"type":"Polygon","properties":{"statcode":"RE09","jrstatcode":"2024RE09","statnaam":"Oost-Brabant","rubriek":"regionale_eenheid","id":9,"FID":"regionale_eenheid_gegeneraliseerd.58346a75-ee30-497b-ae7a-16817bb09a4a"},"id":"RE09"},{"arcs":[[208,-200,209,-198,210,211,212,213,214,-192,-62]],"type":"Polygon","properties":{"statcode":"RE10","jrstatcode":"2024RE10","statnaam":"Limburg","rubriek":"regionale_eenheid","id":10,"FID":"regionale_eenheid_gegeneraliseerd.cecd5344-2aeb-49ba-bf6a-108fe1bb21d1"},"id":"RE10"}]}}}