{"type":"Topology","arcs":[[[1630,1070],[12,0]],[[1642,1070],[9,-3],[7,-10],[32,-10],[19,-17],[29,7],[42,-15],[0,-22],[-10,-13]],[[1770,987],[-10,-2]],[[1760,985],[-26,-8]],[[1734,977],[1,-9]],[[1735,968],[3,-1]],[[1738,967],[3,-1]],[[1741,966],[4,-4]],[[1745,962],[2,-2]],[[1747,960],[4,-2]],[[1751,958],[-6,-7],[-1,-30],[4,-36],[39,5],[47,-2],[19,-23]],[[1853,865],[11,4]],[[1864,869],[6,-4]],[[1870,865],[10,3]],[[1880,868],[9,2]],[[1889,870],[-1,2]],[[1888,872],[14,-2]],[[1902,870],[9,-8]],[[1911,862],[-7,-14]],[[1904,848],[-14,-9]],[[1890,839],[-1,-3]],[[1889,836],[-1,-8],[26,-29],[-19,-10],[-9,-14],[-20,-9],[27,-7],[-4,-11],[-19,0],[-8,-26],[-10,-7],[-19,-36],[-89,-1]],[[1744,678],[3,2],[-26,40],[-33,0],[-24,11],[-11,-10],[-7,-27],[-41,-23],[-34,-26],[-43,21],[-46,-2],[-51,-6],[-18,6],[-4,16],[20,2],[42,-10],[-6,26],[13,12],[4,18],[-19,4],[-6,12],[-32,5],[-30,0],[-6,-10],[-18,-6],[-12,-15],[-24,-17],[-26,-8],[3,-18],[-40,0],[-55,7],[-40,-10],[-5,27],[18,23],[-10,9],[-51,-5],[-45,-8],[-57,-20],[12,-7],[-2,-15],[-11,-6],[8,-13],[40,-33],[-10,-10],[-37,-11],[-44,4],[-6,20],[-92,-3],[-11,20],[-35,12],[-40,-12],[-50,8],[-45,11],[-12,16],[-17,2],[-46,22],[-12,8],[-54,-17],[5,-11],[-25,-39],[-25,2],[-18,-6],[-46,-5],[-22,14],[-35,15],[-20,-4],[-14,15],[-29,18],[-34,13],[-18,-13],[-65,-5],[-48,24],[-31,31],[-36,16],[-27,18],[5,14],[114,48],[47,4],[35,-5],[47,11],[2,23],[15,16],[16,3],[8,21],[-33,15],[-10,29],[10,13],[21,11],[54,12],[49,-2],[26,17]],[[481,1007],[3,-2]],[[484,1005],[-16,-17],[24,-1],[38,6],[26,-13],[59,2],[9,-15],[25,-15],[8,-16],[29,-2],[48,-18],[17,11],[46,5]],[[797,932],[2,-1]],[[799,931],[12,-28],[32,-15],[40,-7],[76,14],[33,2],[23,9],[15,12],[6,25]],[[1036,943],[10,5]],[[1046,948],[22,-2],[64,-14],[37,2],[75,12],[34,20]],[[1278,966],[1,0]],[[1279,966],[7,2]],[[1286,968],[31,5],[62,32],[18,26],[19,11],[23,7],[49,-1],[43,20],[47,9]],[[1578,1077],[25,-3]],[[1603,1074],[27,-4]],[[751,879],[-8,13],[19,11],[32,1],[8,15],[-10,8],[-41,-4],[-12,-26],[-26,-16],[-21,-1],[-43,-14],[-39,-3],[-28,20],[-26,-5],[-45,-33],[23,-24],[5,-12],[-24,-5],[-5,-15],[59,4],[13,-19],[17,6],[43,-10],[43,-18],[13,-21],[37,-36],[40,-15],[20,2],[28,11],[42,-5],[-1,25],[-8,28],[-37,10],[-1,13],[-12,8],[-87,2],[-28,28],[-44,23],[-21,5],[6,12],[34,4],[51,16],[26,-3],[7,-7],[43,0],[3,10],[-28,0],[-17,17]],[[363,841],[24,5],[29,0],[25,8],[36,1],[34,-10],[45,33],[-24,4],[1,10],[-14,24],[-20,11],[-32,6],[-7,12],[-25,0],[-11,-10],[-57,-17],[-11,-34],[-27,-13],[-5,-21],[39,-9]],[[349,766],[18,9],[-37,30],[-33,13],[-14,19],[-13,-13],[16,-15],[26,-10],[13,-20],[24,-13]],[[1186,944],[28,5]],[[1214,949],[-28,-5]],[[161,656],[29,-2],[37,-17],[56,-12],[46,-5],[36,-21],[66,0],[18,-12],[60,-2],[50,25],[38,6],[13,19],[-4,13],[10,8],[44,-6],[35,-35],[60,-5],[26,0],[34,12],[33,1],[29,-26],[-69,-55],[-108,-50],[-21,3],[-31,-4],[-20,-8],[-27,-18],[-73,-16],[3,23],[-29,-12],[-39,-2],[-30,5],[-2,32],[6,10],[-39,13],[-62,7],[-36,14],[-17,-2],[-50,16],[-15,-16],[-13,8],[-48,-9],[13,-41],[-78,-4],[-43,15],[-37,35],[7,10],[-19,13],[27,19],[-11,15],[-4,23],[9,5],[52,15],[9,-4],[79,19]],[[1802,2546],[-27,-12],[-22,3],[16,13],[33,-4]],[[1742,2551],[-37,-7],[-30,-13],[-61,-16],[7,-16],[-60,-33],[-39,-1],[-11,-11],[-24,4],[9,14],[79,33],[28,16],[75,31],[28,6],[36,-7]],[[2185,2689],[-2,-6],[-65,-16],[-17,-12],[-55,0],[-20,-3],[-27,-14],[-64,-18],[-36,3],[-36,-9],[-30,-16],[-40,2],[14,20],[21,18],[15,7],[50,9],[125,19],[119,21],[48,-5]],[[2373,2712],[40,-2],[160,8],[-40,-17],[-86,-13],[-75,5],[-27,-13],[-23,-5],[-37,2],[-27,13],[0,13],[36,17],[16,1],[27,-9],[36,0]],[[3352,1878],[-5,5]],[[3347,1883],[-2,2]],[[3345,1885],[-2,7]],[[3343,1892],[1,0]],[[3344,1892],[6,6]],[[3350,1898],[-93,26],[-62,-8]],[[3195,1916],[-24,-11]],[[3171,1905],[-15,-9],[5,-32],[-49,11],[-17,-11],[-19,12],[-50,-14],[-20,31],[-38,17],[1,9],[-57,-4],[-22,11],[-46,9],[-21,-10],[-24,17],[-37,58],[12,9],[24,4],[46,31],[-65,45],[-17,15],[-39,-15],[-28,-2],[7,-11],[-33,-5]],[[2669,2071],[-9,1]],[[2660,2072],[-11,-2]],[[2649,2070],[-10,-3]],[[2639,2067],[-6,5]],[[2633,2072],[-2,0]],[[2631,2072],[-3,0]],[[2628,2072],[-14,20],[-42,-7],[-6,-11],[-26,-16],[-22,-7],[-32,4],[-24,12]],[[2462,2067],[-3,0]],[[2459,2067],[-22,-10]],[[2437,2057],[-5,-3]],[[2432,2054],[-6,13]],[[2426,2067],[-35,23],[-24,4],[-12,-6]],[[2355,2088],[-28,8],[-27,-2],[-13,16],[-27,-9],[-33,-2],[-18,-15],[-22,-1],[-45,13],[-46,9],[-28,-7],[-28,9],[-32,17],[-9,10],[14,15],[36,11],[2,12],[-8,17],[12,25],[-16,39],[11,17],[-32,35],[17,8],[-4,14],[-14,14],[-31,-17],[-47,-7],[-130,-68]],[[1809,2249],[-1,1]],[[1808,2250],[127,67],[56,11],[29,17],[1,13],[25,14],[16,60],[29,38],[34,21],[44,16],[35,28],[25,15],[93,28],[76,25],[23,3],[81,28],[28,7],[45,-3],[83,15],[79,5],[44,-4],[38,11],[22,-7],[45,7],[17,-1],[37,-14],[8,-7],[34,15],[28,8],[47,6],[123,9],[9,-2],[52,9],[35,13],[62,11],[50,4],[52,-11],[16,8],[51,-13],[17,-10],[-8,-32],[14,-12],[9,-40],[37,-23],[34,-14],[59,-17],[57,-4],[-6,-31],[26,-15],[30,-2],[22,-7],[50,-7],[11,-21],[1,-17],[-27,-36],[-12,-23],[4,-17],[20,-9],[-4,-32],[14,-70],[-31,-69],[-78,-78],[-17,-14],[6,-12],[-21,-28],[-8,-87],[-9,-79],[-13,-11],[-67,13],[-36,-8],[-20,2],[-22,11],[-75,-3],[-45,4],[-35,-7],[-32,-17]],[[2866,2647],[-46,17],[-16,-6],[-7,-16],[7,-23],[35,-16],[21,1],[0,10],[-33,39],[39,-6]],[[3021,2757],[-41,-1],[-8,-5],[-56,-12],[-22,-11],[-55,-6],[-36,0],[-46,-9],[4,20],[31,14],[79,8],[60,4],[56,7],[43,1],[-9,-10]],[[3147,2801],[1,-13],[-20,-11],[-25,12],[26,15],[18,-3]],[[2476,1857],[-9,-14],[-22,13],[31,1]],[[3171,1905],[24,11]],[[3350,1898],[-6,-6]],[[3343,1892],[2,-7]],[[3347,1883],[5,-5]],[[3352,1878],[17,-13],[-8,-26],[48,-25],[-15,-5],[-25,4],[-11,-14],[-35,4],[24,-32],[-7,-35],[55,-22],[22,-4],[79,0],[8,-9],[80,-16],[19,9],[17,22],[16,-1],[17,-36],[11,-6],[13,-19],[24,-5],[13,-26],[0,-21],[-16,-14],[-8,-18],[-22,-28],[2,-14],[14,-22],[24,-15],[-5,-6],[-42,-10],[-30,2],[-38,-46],[-35,-3],[-34,-22],[-9,-24],[-18,-13],[-32,-2],[-62,1],[-10,-34],[-16,-10],[-39,-5],[-8,-30],[26,0],[39,-12],[58,-30],[16,-4],[2,-30],[-30,-5],[-5,-24],[-24,-19],[-16,-3],[-32,-17],[-29,19],[-18,1],[-37,-12],[-52,-10],[-30,-12],[-55,-14],[-1,-6],[-35,-7],[-14,10],[-22,0],[-38,8],[-3,-11],[20,-8],[-1,-26],[-44,7],[-18,16],[-39,-2],[-5,16],[-21,9],[-18,-6],[-47,0],[-31,15],[7,9],[-34,13],[-47,-10],[27,-9],[8,-16],[22,-8],[0,-21],[-31,6],[-29,1],[-44,17],[-8,-13],[-19,-9],[-49,-12],[-24,6],[-18,-13],[34,-26],[12,-32],[-38,-18]],[[2595,997],[-38,5],[-22,25],[-25,-2],[-4,-18]],[[2506,1007],[-12,1],[-72,-7],[-35,7],[-13,13],[-30,6],[-8,10],[-37,10],[-22,22],[-17,0],[-29,10],[-31,-2],[-17,-12],[-23,3],[-15,10],[-17,0],[-12,-14],[-35,-5],[-37,11],[-33,-31],[-9,-29],[-6,-6],[-58,-18],[-13,3],[-38,-6],[-33,9]],[[1854,992],[-26,-1]],[[1828,991],[-23,1],[-35,-5]],[[1642,1070],[13,0]],[[1655,1070],[13,-2],[5,22]],[[1673,1090],[-22,2]],[[1651,1092],[-10,2]],[[1641,1094],[6,13],[22,1]],[[1669,1108],[17,0]],[[1686,1108],[9,-2]],[[1695,1106],[11,4]],[[1706,1110],[-10,4]],[[1696,1114],[1,8]],[[1697,1122],[18,1]],[[1715,1123],[11,4]],[[1726,1127],[3,3]],[[1729,1130],[27,8]],[[1756,1138],[4,3]],[[1760,1141],[0,4]],[[1760,1145],[-1,2]],[[1759,1147],[19,16]],[[1778,1163],[0,4]],[[1778,1167],[12,14]],[[1790,1181],[1,2]],[[1791,1183],[6,4]],[[1797,1187],[25,29]],[[1822,1216],[26,-8],[24,17],[17,1],[23,-12],[63,-8],[15,11],[35,1],[35,8],[24,9],[36,-3]],[[2120,1232],[23,-4]],[[2143,1228],[18,-7]],[[2161,1221],[19,-4]],[[2180,1217],[19,-12]],[[2199,1205],[19,-3]],[[2218,1202],[11,-2]],[[2229,1200],[17,-7]],[[2246,1193],[12,5]],[[2258,1198],[4,-1]],[[2262,1197],[3,4]],[[2265,1201],[4,0]],[[2269,1201],[-4,11]],[[2265,1212],[2,7]],[[2267,1219],[1,4]],[[2268,1223],[-12,16]],[[2256,1239],[-22,11]],[[2234,1250],[-3,8]],[[2231,1258],[-2,22],[-16,17]],[[2213,1297],[-13,1],[5,29],[-13,27],[-17,-5]],[[2175,1349],[4,-11],[-14,-11],[-39,-9],[-25,11],[27,14],[-2,12]],[[2126,1355],[10,7]],[[2136,1362],[-6,3]],[[2130,1365],[10,14],[14,4]],[[2154,1383],[2,2]],[[2156,1385],[-33,15],[-11,16],[-30,5],[-1,31],[-32,11]],[[2049,1463],[-14,8],[11,26],[102,18],[21,-1],[14,15],[18,32],[17,16],[35,19],[3,11],[17,9],[22,-1],[25,14],[22,2],[40,17],[71,38],[11,10],[-5,11]],[[2459,1707],[24,10],[17,33],[6,20]],[[2506,1770],[-1,1]],[[2505,1771],[-6,23]],[[2499,1794],[1,2]],[[2500,1796],[-16,17],[-13,24],[14,24]],[[2485,1861],[53,7]],[[2538,1868],[35,-4],[31,10],[24,-1],[33,20],[-36,15]],[[2625,1908],[-12,7],[-37,11],[31,18],[-23,22]],[[2584,1966],[-6,14]],[[2578,1980],[-14,21],[-42,22],[-30,12],[-31,3],[-24,19]],[[2459,2067],[3,0]],[[2628,2072],[3,0]],[[2633,2072],[6,-5]],[[2639,2067],[10,3]],[[2660,2072],[9,-1]],[[2506,1770],[-1,1]],[[2485,1861],[43,9],[10,-2]],[[2426,2067],[6,-13]],[[2578,1980],[6,-14]],[[2625,1908],[-19,-19],[-132,-26],[-169,0],[-23,-5],[15,-11],[101,-15],[57,-5],[45,-31]],[[2499,1794],[0,-26],[-9,-25],[-31,-36]],[[2459,1707],[-20,-18],[-50,-24],[-27,1],[-59,-18],[-36,-18],[-15,-14],[-28,-3],[-18,5],[-26,-18],[15,-16],[0,-13],[-24,-46],[-119,-22],[-25,11],[-68,40],[-20,-11],[14,-19],[46,-4],[47,-23],[-11,-26],[14,-8]],[[2156,1385],[-2,-2]],[[2130,1365],[6,-3]],[[2136,1362],[-10,-7]],[[2175,1349],[17,5],[13,-27],[-5,-29],[13,-1]],[[2231,1258],[3,-8]],[[2256,1239],[12,-16]],[[2267,1219],[-2,-7]],[[2265,1212],[4,-11]],[[2269,1201],[-4,0]],[[2265,1201],[-3,-4]],[[2258,1198],[-12,-5]],[[2246,1193],[-17,7]],[[2218,1202],[-19,3]],[[2199,1205],[-19,12]],[[2161,1221],[-18,7]],[[2143,1228],[-23,4]],[[1822,1216],[-25,-29]],[[1797,1187],[-6,-4]],[[1790,1181],[-12,-14]],[[1778,1167],[0,-4]],[[1759,1147],[1,-2]],[[1760,1141],[-4,-3]],[[1729,1130],[-3,-3]],[[1715,1123],[-18,-1]],[[1697,1122],[-1,-8]],[[1696,1114],[10,-4]],[[1706,1110],[-11,-4]],[[1686,1108],[-17,5]],[[1669,1113],[-3,17],[-25,3],[-4,18],[-39,14],[-17,13],[-10,21]],[[1571,1199],[-15,-8],[-36,-4],[-18,30],[-33,25]],[[1469,1242],[-9,7],[39,6],[-10,12],[-44,-4],[26,36],[39,13],[-42,12],[-1,32],[-33,15]],[[1434,1371],[1,2]],[[1435,1373],[9,1]],[[1444,1374],[4,2]],[[1448,1376],[3,10]],[[1451,1386],[9,4]],[[1460,1390],[3,1]],[[1463,1391],[11,2]],[[1474,1393],[23,-7],[20,2],[-1,18],[18,6],[-37,17],[-11,1],[-30,22],[-20,21]],[[1436,1473],[8,4]],[[1444,1477],[15,1]],[[1459,1478],[12,3]],[[1471,1481],[26,11]],[[1497,1492],[3,6]],[[1500,1498],[11,4]],[[1511,1502],[42,1],[18,15],[-3,10],[31,1]],[[1599,1529],[27,11],[13,-1],[16,15],[30,-22],[22,-4],[37,2],[-10,35],[-63,16],[-2,7]],[[1669,1588],[10,-4],[40,6],[60,-15],[-8,58],[33,17],[96,35],[120,52],[17,4],[40,20],[-9,19],[1,8],[11,17],[8,6],[21,11],[-12,22],[-56,55],[-39,25],[-55,16],[-18,0]],[[1929,1940],[0,1]],[[1929,1941],[15,1],[52,-14],[7,-4],[39,-25],[56,-55],[13,-24],[-29,-14],[-12,-18],[20,-3],[8,15],[45,6],[58,36],[69,13],[24,12],[-36,34],[-23,12],[2,100],[65,65],[53,10]],[[1795,1579],[-15,-4],[24,-19],[86,6],[43,-15],[24,7],[-30,13],[-64,17],[-26,2],[-42,-7]],[[1324,2210],[-19,9],[4,14],[26,-3],[-11,-20]],[[1929,1940],[-41,-4],[-10,-29],[-37,-21],[-24,-3],[-16,-10],[-31,-3],[-39,23],[-21,-8],[-22,7],[-27,-12],[1,-34],[11,-29],[24,-22],[11,-22],[20,-19],[-27,-18],[9,-14],[-20,-17],[1,-16],[29,-2],[9,0],[6,3],[0,12],[10,15],[30,-7],[-38,-12],[-1,-7],[-2,-4],[-17,-8],[-7,-12]],[[1710,1667],[-19,-2],[-49,10],[-48,-2]],[[1594,1673],[-2,-1]],[[1592,1672],[-1,-1]],[[1591,1671],[-4,-6]],[[1587,1665],[-14,-3],[-25,10]],[[1548,1672],[-43,8]],[[1505,1680],[-7,-13],[-117,14],[-10,-30],[28,-4],[-1,-41],[60,-29],[1,-15]],[[1459,1562],[-7,-6]],[[1452,1556],[-16,-10]],[[1436,1546],[-6,-7]],[[1430,1539],[-23,-12],[-39,-14],[-24,-19],[-32,-13]],[[1312,1481],[-37,-15],[-30,-1],[-46,4],[11,50],[20,11],[24,34],[-43,2],[-5,-7],[-70,19]],[[1136,1578],[61,95],[7,23],[-8,15],[51,6],[-30,12],[18,34],[22,83],[12,69],[11,43],[-1,21],[6,22],[37,59],[31,83],[6,54],[14,16],[32,2],[16,-10],[23,-2],[-11,-17],[18,-25],[65,-22],[33,5],[28,9],[33,27],[59,8],[11,-5],[128,67]],[[1809,2249],[-128,-68],[10,-7],[65,-78],[-10,-72],[14,-4],[6,-14],[22,-14],[34,-1],[13,14],[65,-2],[25,-13],[5,-25],[11,-12],[-12,-12]],[[1521,2407],[14,-5],[15,-17],[-8,-10],[-3,-46],[-24,-14],[0,-10],[-26,-21],[-28,-5],[-34,-27],[-48,-13],[-23,8],[-5,25],[15,46],[34,38],[40,35],[43,42],[20,0],[18,-26]],[[1505,1680],[43,-8]],[[1587,1665],[4,6]],[[1592,1672],[2,1]],[[1710,1667],[-16,-4],[-38,-28],[-2,-11],[-22,4],[-16,-6],[36,-19],[25,-8],[-8,-7]],[[1599,1529],[-31,-1],[3,-10],[-18,-15],[-42,-1]],[[1500,1498],[-3,-6]],[[1471,1481],[-12,-3]],[[1444,1477],[-7,0]],[[1437,1477],[-16,1]],[[1421,1478],[-31,-13]],[[1390,1465],[-15,-8]],[[1375,1457],[-4,3]],[[1371,1460],[-4,3]],[[1367,1463],[-2,3]],[[1365,1466],[1,16],[-20,2]],[[1346,1484],[-18,-7],[-16,4]],[[1430,1539],[6,7]],[[1452,1556],[7,6]],[[1346,1484],[20,-2],[-1,-16]],[[1367,1463],[4,-3]],[[1375,1457],[15,8]],[[1390,1465],[31,13]],[[1437,1477],[-1,-4]],[[1474,1393],[-11,-2]],[[1460,1390],[-9,-4]],[[1448,1376],[-4,-2]],[[1444,1374],[-9,-1]],[[1435,1373],[-1,-2]],[[1469,1242],[33,-25],[18,-30]],[[1520,1187],[-46,1]],[[1474,1188],[-21,-14]],[[1453,1174],[-49,-11],[-46,-18],[-43,-6],[-53,0]],[[1262,1139],[-29,6]],[[1233,1145],[-15,7]],[[1218,1152],[67,10],[-25,18]],[[1260,1180],[-34,34],[15,23],[-20,2],[-7,-18],[-18,-3],[-8,23],[9,14],[10,53],[-30,-9],[-28,-17]],[[1149,1282],[-19,-1]],[[1130,1281],[-10,-1]],[[1120,1280],[-1,1]],[[1119,1281],[-13,-7]],[[1106,1274],[-7,-20]],[[1099,1254],[2,-3]],[[1101,1251],[-9,-1]],[[1092,1250],[-22,-25],[-34,-14],[-70,-20]],[[966,1191],[-10,-7]],[[956,1184],[-21,-14],[-34,7]],[[901,1177],[-19,15]],[[882,1192],[-22,-1],[-26,13],[-5,12],[-40,14],[-22,21]],[[767,1251],[67,50],[33,22],[36,29],[42,26],[42,33],[29,26],[73,80],[47,61]],[[1186,944],[28,5]],[[995,986],[-23,-11],[-31,5],[-31,15],[-5,8],[48,-7],[42,-10]],[[598,1027],[-51,-7],[29,19],[22,-12]],[[1260,1180],[25,-18],[-67,-10]],[[1233,1145],[29,-6]],[[1453,1174],[21,14]],[[1520,1187],[36,4],[15,8]],[[1669,1113],[0,-5]],[[1651,1092],[22,-2]],[[1655,1070],[-13,0],[-12,0]],[[1603,1074],[-25,3]],[[1286,968],[-7,-2]],[[1278,966],[-17,6],[-13,-6],[-49,-13],[-28,-2],[-61,13],[-29,1],[-33,6],[-8,-11],[6,-12]],[[1036,943],[-31,1],[5,-10],[-11,-14],[-18,-6],[-58,-10],[-49,6],[-12,13],[-31,9],[-32,-1]],[[797,932],[0,14],[-44,11],[-41,0],[-11,4],[-37,31],[-5,13],[3,23],[-31,23],[-40,1],[-13,-5],[-39,-4],[-1,-9],[-27,-4],[-14,-23],[-13,-2]],[[481,1007],[21,13],[5,11],[-10,21],[5,11],[32,12],[17,1],[39,13],[52,9],[36,-25],[32,25],[-39,37],[24,32],[-13,6],[-41,-9],[-15,3],[-21,36],[2,13],[19,18],[20,4],[38,-3],[5,8],[50,-9],[28,17]],[[882,1192],[19,-15]],[[956,1184],[10,7]],[[1092,1250],[9,1]],[[1101,1251],[-2,3]],[[1106,1274],[13,7]],[[1120,1280],[10,1]],[[1130,1281],[19,1]],[[700,1087],[-14,-19],[49,-15],[33,-15],[62,-13],[55,-31],[20,-17],[36,-11],[30,-14],[55,-1],[20,21],[-55,20],[-59,16],[-41,7],[-18,13],[-1,9],[-18,12],[-30,5],[-26,18],[-25,-3],[-37,9],[-20,14],[-16,-5]],[[2506,1007],[16,-8],[5,-22],[15,-8],[34,-4],[21,-7],[10,-33],[-2,-19],[9,-11],[24,-9],[24,-15],[6,-26],[14,-14],[-2,-13],[10,-11]],[[2690,807],[-3,1]],[[2687,808],[-11,-4]],[[2676,804],[-22,12]],[[2654,816],[-7,3]],[[2647,819],[-14,-4]],[[2633,815],[-39,-9]],[[2594,806],[-45,-5],[-36,11]],[[2513,812],[-33,3],[10,-41]],[[2490,774],[5,-21]],[[2495,753],[8,-12],[11,-42],[59,-65],[-57,-32],[-202,-38],[-46,-41],[-7,-45],[-53,-8]],[[2208,470],[-11,23],[3,18],[-39,27],[-3,6],[-33,5],[-18,-15],[-23,-3],[-25,-20],[-71,14],[-10,-13],[-40,-2],[-33,6],[-25,-6],[-12,7],[16,37],[-42,18],[-37,-13],[-29,6],[-2,31],[-15,14],[-46,32],[31,36]],[[1889,836],[1,3]],[[1890,839],[14,9]],[[1911,862],[-9,8]],[[1902,870],[-14,2]],[[1889,870],[-9,-2]],[[1880,868],[-10,-3]],[[1864,869],[-11,-4]],[[1751,958],[-4,2]],[[1745,962],[-4,4]],[[1738,967],[-3,1]],[[1734,977],[26,8]],[[1828,991],[26,1]],[[2595,997],[2,-10],[39,0],[51,-21],[-19,-8],[11,-36],[51,-13],[29,-3],[-8,-10],[-18,-41],[30,-13],[10,-12],[26,-14],[20,-28],[23,-12],[12,-14],[1,-22],[11,-16],[-19,-75],[9,-10],[12,-30],[-36,-21],[-21,-6],[-15,-26],[-25,-21],[-4,-11],[-39,-27],[-13,-5],[13,-20],[-18,-2],[5,-38],[9,-11],[31,3],[9,6],[43,13],[16,-8],[-42,-13],[36,-15],[-12,-9],[-37,-4],[-34,-10],[-16,-16],[-40,-22],[-26,-6],[-40,-30],[-2,-16],[-30,-10],[-25,32],[-26,-15],[-9,-14],[1,-20],[27,-16],[-9,-27],[58,13],[11,-8],[51,3],[1,-48],[64,-13],[-7,-29],[13,-21],[-11,-11],[-58,-15],[-3,-12],[9,-20],[-21,-13],[-19,9],[-10,-12],[53,-24],[-7,-20],[-47,1],[-5,6],[-38,-4],[-10,-6],[-31,5],[-4,14],[-23,-6],[-18,1],[-38,-9],[-30,27],[-30,-13],[-8,-13],[-19,8],[-25,-10],[-12,6],[14,14],[-3,37],[-38,12],[-17,22],[5,25],[39,18],[13,10],[2,11],[27,1],[1,10],[30,37],[-36,4],[46,36],[10,24],[-18,12],[14,26],[21,-1],[11,18],[-9,13],[29,2],[10,8],[-24,18],[30,13],[16,14],[-20,9],[-12,14],[-46,-17],[-11,33],[-27,3],[-32,-5],[-50,3],[-12,15],[-80,21]],[[2495,753],[-5,21]],[[2513,812],[36,-11],[45,5]],[[2594,806],[39,9]],[[2633,815],[14,4]],[[2647,819],[7,-3]],[[2654,816],[22,-12]],[[2687,808],[3,-1]]],"transform":{"scale":[0.001,0.0009996433666191172],"translate":[3.358,50.751]},"objects":{"regionale_eenheid_2025":{"type":"GeometryCollection","geometries":[{"arcs":[[[0,1,2,3,4,5,6,7,8,9,10,11,12,13,14,15,16,17,18,19,20,21,22,23,24,25,26,27,28,29,30,31,32,33],[34],[35],[36]],[[39]]],"type":"MultiPolygon","properties":{"statcode":"RE08","jrstatcode":"2025RE08","statnaam":"Zeeland - West-Brabant","rubriek":"regionale_eenheid","id":8,"FID":"regionale_eenheid_gegeneraliseerd.c3f8744e-6830-4d5b-ac7d-272e3bb799f8"},"id":"RE08"},{"arcs":[[[40]],[[41]],[[42]],[[43]],[[44,45,46,47,48,49,50,51,52,53,54,55,56,57,58,59,60,61,62,63,64,65,66],[67]],[[68]],[[69]]],"type":"MultiPolygon","properties":{"statcode":"RE01","jrstatcode":"2025RE01","statnaam":"Noord-Nederland","rubriek":"regionale_eenheid","id":1,"FID":"regionale_eenheid_gegeneraliseerd.49728957-ac89-4c11-b5b4-5ce76e785776"},"id":"RE01"},{"arcs":[[[70]],[[71,-50,72,-48,73,-46,74,75,76,77,78,79,-2,80,81,82,83,84,85,86,87,88,89,90,91,92,93,94,95,96,97,98,99,100,101,102,103,104,105,106,107,108,109,110,111,112,113,114,115,116,117,118,119,120,121,122,123,124,125,126,127,128,129,130,131,132,133,134,135,136,137,138,139,-61,140,-59,141,-57,142,143,-54,144,-52]]],"type":"MultiPolygon","properties":{"statcode":"RE02","jrstatcode":"2025RE02","statnaam":"Oost-Nederland","rubriek":"regionale_eenheid","id":2,"FID":"regionale_eenheid_gegeneraliseerd.9a678246-26e8-43ec-a08a-465cfaae8fea"},"id":"RE02"},{"arcs":[[[146,-136]],[[147,-62,-140,148,-138,149,-134,150,151,-129,152,-127,153,154,-124,155,-122,156,-120,157,-118,158,159,160,161,-113,162,163,-110,164,165,-107,166,167,-104,168,169,-101,170,171,-98,172,-96,173,-94,174,-92,175,176,177,178,-87,179,180,181,182,183,184,185,186,187,188,189,190,191,192,193,194,195,196,197,198,199,200,201,-64],[202]]],"type":"MultiPolygon","properties":{"statcode":"RE03","jrstatcode":"2025RE03","statnaam":"Midden-Nederland","rubriek":"regionale_eenheid","id":3,"FID":"regionale_eenheid_gegeneraliseerd.656e2ef1-082b-4bfb-ad1b-8fad8140d958"},"id":"RE03"},{"arcs":[[[203]],[[-201,204,205,206,207,208,209,210,211,212,213,214,215,216,217,-66,218]],[[219]]],"type":"MultiPolygon","properties":{"statcode":"RE04","jrstatcode":"2025RE04","statnaam":"Noord-Holland","rubriek":"regionale_eenheid","id":4,"FID":"regionale_eenheid_gegeneraliseerd.37bdad5f-52db-4818-ae94-b9527b28f8c2"},"id":"RE04"},{"arcs":[[220,-210,221,-208,222,-206,223,-199,224,-197,225,-195,226,-193,227,228,229,230,231,232,233,234,235,-216,236,-214,237,-212]],"type":"Polygon","properties":{"statcode":"RE05","jrstatcode":"2025RE05","statnaam":"Amsterdam","rubriek":"regionale_eenheid","id":5,"FID":"regionale_eenheid_gegeneraliseerd.1d49cd36-fa0a-46a8-b1d2-fefb4c3a1223"},"id":"RE05"},{"arcs":[[-236,238,-234,239,-232,240,241,-229,242,-191,243,-189,244,-187,245,246,247,-183,248,249,250,251,252,253,254,255,256,257,258,259,260,261,262,263,264,265,266,267,268,-217]],"type":"Polygon","properties":{"statcode":"RE06","jrstatcode":"2025RE06","statnaam":"Den Haag","rubriek":"regionale_eenheid","id":6,"FID":"regionale_eenheid_gegeneraliseerd.6644667d-52b6-4561-8eb0-5dc1bcaa4412"},"id":"RE06"},{"arcs":[[[270]],[[271]],[[272,-254,273,-252,274,-250,275,-181,276,-85,-84,277,-82,278,-34,279,-32,280,-30,281,-28,282,-26,283,-24,284,-268,285,-266,286,-264,287,288,-261,289,-259,290,291,-256],[292]]],"type":"MultiPolygon","properties":{"statcode":"RE07","jrstatcode":"2025RE07","statnaam":"Rotterdam","rubriek":"regionale_eenheid","id":7,"FID":"regionale_eenheid_gegeneraliseerd.9af8672f-255c-45c7-93ca-090032c89c7e"},"id":"RE07"},{"arcs":[[293,294,295,296,297,298,299,300,301,302,303,304,-22,305,306,-19,307,308,-16,309,310,-13,311,-11,312,-9,313,-7,314,-5,315,-3,-80,316,-78]],"type":"Polygon","properties":{"statcode":"RE09","jrstatcode":"2025RE09","statnaam":"Oost-Brabant","rubriek":"regionale_eenheid","id":9,"FID":"regionale_eenheid_gegeneraliseerd.49c9a135-b0c6-469d-a810-8eb99c359a7b"},"id":"RE09"},{"arcs":[[317,-304,318,-302,319,320,321,322,323,-296,324,-294,-77]],"type":"Polygon","properties":{"statcode":"RE10","jrstatcode":"2025RE10","statnaam":"Limburg","rubriek":"regionale_eenheid","id":10,"FID":"regionale_eenheid_gegeneraliseerd.cf309134-6f39-4e9a-812e-82043b8704e1"},"id":"RE10"}]}}}